[{"postcode":"4000","lat":-27.468391,"long":153.022126,"state":"QLD","localities":["BRISBANE","BRISBANE ADELAIDE STREET","BRISBANE CITY DC","BRISBANE GPO","BRISBANE-CITY","PARLIAMENT HOUSE","PETRIE TERRACE","SPRING HILL"],"SA4_NAME_2016":"Brisbane Inner City"},{"postcode":"4000","lat":-27.46977074,"long":153.0251227,"state":"QLD","localities":["BRISBANE CITY"],"SA4_NAME_2016":"Brisbane Inner City"},{"postcode":"4002","lat":-27.4726,"long":153.028,"state":"QLD","localities":["BRISBANE ALBERT STREET BC"],"SA4_NAME_2016":"Brisbane Inner City"},{"postcode":"4002","lat":-27.4693,"long":153.027,"state":"QLD","localities":["WINTERGARDEN"],"SA4_NAME_2016":"Brisbane Inner City"},{"postcode":"4005","lat":-27.470078,"long":153.045194,"state":"QLD","localities":["NEW FARM"],"SA4_NAME_2016":"Brisbane Inner City"},{"postcode":"4005","lat":-27.4561168,"long":153.0483096,"state":"QLD","localities":["TENERIFFE"],"SA4_NAME_2016":"Brisbane Inner City"},{"postcode":"4006","lat":-27.36618,"long":153.175242,"state":"QLD","localities":["BOWEN BRIDGE","BOWEN HILLS","BRISBANE EXHIBITION","FORTITUDE VALLEY","FORTITUDE VALLEY BC","HERSTON","MAYNE","NEWSTEAD"],"SA4_NAME_2016":"Brisbane Inner City"},{"postcode":"4007","lat":-27.436088,"long":153.061914,"state":"QLD","localities":["ASCOT","BRISBANE AIRPORT","DOOMBEN","HAMILTON","HAMILTON CENTRAL","WHINSTANES"],"SA4_NAME_2016":"Brisbane Inner City"},{"postcode":"4008","lat":-27.38837225,"long":153.1132012,"state":"QLD","localities":["BRISBANE AIRPORT"],"SA4_NAME_2016":"Brisbane - North"},{"postcode":"4008","lat":-27.399839,"long":153.14232,"state":"QLD","localities":["BULWER ISLAND","MEEANDAH","MYRTLETOWN","PINKENBA"],"SA4_NAME_2016":"Brisbane - North"},{"postcode":"4009","lat":-27.405747,"long":153.105247,"state":"QLD","localities":["EAGLE FARM","EAGLE FARM BC"],"SA4_NAME_2016":"Brisbane - North"},{"postcode":"4010","lat":-27.433237,"long":153.04354,"state":"QLD","localities":["ALBION","ALBION BC","ALBION DC","BREAKFAST CREEK"],"SA4_NAME_2016":"Brisbane Inner City"},{"postcode":"4011","lat":-27.419484,"long":153.059749,"state":"QLD","localities":["CLAYFIELD","EAGLE JUNCTION","HENDRA"],"SA4_NAME_2016":"Brisbane Inner City"},{"postcode":"4012","lat":-27.399335,"long":153.05355,"state":"QLD","localities":["NUNDAH","TOOMBUL","WAVELL HEIGHTS","WAVELL HEIGHTS NORTH"],"SA4_NAME_2016":"Brisbane - North"},{"postcode":"4013","lat":-27.397055,"long":153.074982,"state":"QLD","localities":["NORTHGATE","NORTHGATE MC","NORTHGATE MC"],"SA4_NAME_2016":"Brisbane - North"},{"postcode":"4014","lat":-27.373947,"long":153.084784,"state":"QLD","localities":["BANYO","NUDGEE","NUDGEE BEACH","VIRGINIA","VIRGINIA BC","VIRGINIA DC"],"SA4_NAME_2016":"Brisbane - North"},{"postcode":"4017","lat":-27.318074,"long":153.047339,"state":"QLD","localities":["BRACKEN RIDGE","BRIGHTON","BRIGHTON EVENTIDE","BRIGHTON NATHAN STREET","DEAGON","NASHVILLE","SANDGATE","SANDGATE DC","SHORNCLIFFE"],"SA4_NAME_2016":"Brisbane - North"},{"postcode":"4018","lat":-27.349074,"long":153.031804,"state":"QLD","localities":["FITZGIBBON","TAIGUM"],"SA4_NAME_2016":"Brisbane - North"},{"postcode":"4019","lat":-27.248337,"long":153.088498,"state":"QLD","localities":["CLONTARF","CLONTARF BEACH","CLONTARF DC","HUMPYBONG","MARGATE","MARGATE BEACH","SCOTTS POINT","WOODY POINT"],"SA4_NAME_2016":"Moreton Bay - North"},{"postcode":"4020","lat":-27.21066448,"long":153.0900858,"state":"QLD","localities":["NEWPORT"],"SA4_NAME_2016":"Moreton Bay - North"},{"postcode":"4020","lat":-27.214362,"long":153.106378,"state":"QLD","localities":["REDCLIFFE","REDCLIFFE NORTH","SCARBOROUGH"],"SA4_NAME_2016":"Moreton Bay - North"},{"postcode":"4021","lat":-27.220098,"long":153.07529,"state":"QLD","localities":["KIPPA-RING"],"SA4_NAME_2016":"Moreton Bay - North"},{"postcode":"4022","lat":-27.211886,"long":153.046414,"state":"QLD","localities":["ROTHWELL"],"SA4_NAME_2016":"Moreton Bay - North"},{"postcode":"4025","lat":-27.162277,"long":153.393497,"state":"QLD","localities":["BULWER","CAPE MORETON","COWAN COWAN","KOORINGAL","TANGALOOMA"],"SA4_NAME_2016":"Moreton Bay - North"},{"postcode":"4025","lat":-27.14790891,"long":153.4064315,"state":"QLD","localities":["MORETON ISLAND"],"SA4_NAME_2016":"Moreton Bay - North"},{"postcode":"4030","lat":-27.42687,"long":153.029681,"state":"QLD","localities":["EILDON HILL","KALINGA","LUTWYCHE","WINDSOR","WOOLOOWIN"],"SA4_NAME_2016":"Brisbane Inner City"},{"postcode":"4031","lat":-27.408542,"long":153.030695,"state":"QLD","localities":["GLEN KEDRON","GORDON PARK","KEDRON"],"SA4_NAME_2016":"Brisbane - North"},{"postcode":"4032","lat":-27.385605,"long":153.019449,"state":"QLD","localities":["CHERMSIDE","CHERMSIDE BC","CHERMSIDE CENTRE","CHERMSIDE SOUTH","CHERMSIDE WEST","CRAIGSLEA"],"SA4_NAME_2016":"Brisbane - North"},{"postcode":"4034","lat":-27.354711,"long":153.040051,"state":"QLD","localities":["ASPLEY","BOONDALL","CARSELDINE","GEEBUNG","ZILLMERE"],"SA4_NAME_2016":"Brisbane - North"},{"postcode":"4035","lat":-27.356025,"long":152.979085,"state":"QLD","localities":["ALBANY CREEK","BRIDGEMAN DOWNS","CASHS CROSSING"],"SA4_NAME_2016":"Moreton Bay - South"},{"postcode":"4036","lat":-27.314022,"long":153.008731,"state":"QLD","localities":["BALD HILLS"],"SA4_NAME_2016":"Brisbane - North"},{"postcode":"4037","lat":-27.341128,"long":152.936519,"state":"QLD","localities":["EATONS HILL"],"SA4_NAME_2016":"Moreton Bay - South"},{"postcode":"4051","lat":-27.427508,"long":153.000297,"state":"QLD","localities":["ALDERLEY","ENOGGERA","GAYTHORNE","GRANGE","NEWMARKET","THE GRANGE","WILSTON"],"SA4_NAME_2016":"Brisbane Inner City"},{"postcode":"4053","lat":-27.399573,"long":152.98725,"state":"QLD","localities":["BROOKSIDE CENTRE","EVERTON HILLS","EVERTON PARK","MCDOWALL","MITCHELTON","OXFORD PARK","SOMERSET HILLS","STAFFORD","STAFFORD BC","STAFFORD CITY","STAFFORD DC","STAFFORD HEIGHTS"],"SA4_NAME_2016":"Brisbane - West"},{"postcode":"4054","lat":-27.409817,"long":152.956014,"state":"QLD","localities":["ARANA HILLS","GROVELY","KEPERRA"],"SA4_NAME_2016":"Moreton Bay - South"},{"postcode":"4055","lat":-27.393676,"long":152.92424,"state":"QLD","localities":["BUNYA","FERNY GROVE","FERNY HILLS","FERNY HILLS DC","KEDRON UPPER","UPPER KEDRON"],"SA4_NAME_2016":"Moreton Bay - South"},{"postcode":"4059","lat":-27.452067,"long":153.008893,"state":"QLD","localities":["BALLYMORE","ITHACA","KELVIN GROVE","KELVIN GROVE BC","KELVIN GROVE DC","NORMANBY","RED HILL"],"SA4_NAME_2016":"Brisbane Inner City"},{"postcode":"4060","lat":-27.445107,"long":152.985176,"state":"QLD","localities":["ASHGROVE","ASHGROVE WEST","DORRINGTON","ST JOHNS WOOD"],"SA4_NAME_2016":"Brisbane Inner City"},{"postcode":"4061","lat":-27.45085,"long":152.944258,"state":"QLD","localities":["THE GAP"],"SA4_NAME_2016":"Brisbane - West"},{"postcode":"4064","lat":-27.464676,"long":152.999039,"state":"QLD","localities":["BAROONA","MILTON","MILTON BC","PADDINGTON","ROSALIE"],"SA4_NAME_2016":"Brisbane Inner City"},{"postcode":"4065","lat":-27.462504,"long":152.975992,"state":"QLD","localities":["BARDON","BARDON WEST","JUBILEE","RAINWORTH"],"SA4_NAME_2016":"Brisbane Inner City"},{"postcode":"4066","lat":-27.479866,"long":152.964146,"state":"QLD","localities":["AUCHENFLOWER","MOUNT COOT-THA","STUARTHOLME","TOOWONG","TOOWONG BC","TOOWONG DC","TORWOOD"],"SA4_NAME_2016":"Brisbane Inner City"},{"postcode":"4067","lat":-27.500518,"long":153.005045,"state":"QLD","localities":["IRONSIDE","ST LUCIA","ST LUCIA SOUTH"],"SA4_NAME_2016":"Brisbane - West"},{"postcode":"4068","lat":-27.506907,"long":152.976926,"state":"QLD","localities":["CHELMER","INDOOROOPILLY","INDOOROOPILLY CENTRE","LONG POCKET","TARINGA"],"SA4_NAME_2016":"Brisbane - West"},{"postcode":"4069","lat":-27.502784,"long":152.898911,"state":"QLD","localities":["BROOKFIELD","CHAPEL HILL","FIG TREE POCKET","KENMORE","KENMORE DC","KENMORE EAST","KENMORE HILLS","LONE PINE","PINJARRA HILLS","PULLENVALE","UPPER BROOKFIELD"],"SA4_NAME_2016":"Brisbane - West"},{"postcode":"4070","lat":-27.559944,"long":152.871141,"state":"QLD","localities":["ANSTEAD","BELLBOWRIE","MOGGILL","PRIORS POCKET"],"SA4_NAME_2016":"Brisbane - West"},{"postcode":"4073","lat":-27.549179,"long":152.951385,"state":"QLD","localities":["SEVENTEEN MILE ROCKS","SINNAMON PARK"],"SA4_NAME_2016":"Brisbane - West"},{"postcode":"4074","lat":-27.554082,"long":152.921521,"state":"QLD","localities":["JAMBOREE HEIGHTS","JINDALEE","MIDDLE PARK","MOUNT OMMANEY","RIVERHILLS","SUMNER","SUMNER PARK BC","WESTLAKE"],"SA4_NAME_2016":"Brisbane - West"},{"postcode":"4075","lat":-27.552135,"long":152.975619,"state":"QLD","localities":["CORINDA","GRACEVILLE","GRACEVILLE EAST","OXLEY","SHERWOOD"],"SA4_NAME_2016":"Brisbane - West"},{"postcode":"4076","lat":-27.584561,"long":152.921067,"state":"QLD","localities":["DARRA","WACOL","WACOL EAST IMMIGRATION CENTRE"],"SA4_NAME_2016":"Ipswich"},{"postcode":"4077","lat":-27.605551,"long":152.967822,"state":"QLD","localities":["DOOLANDELLA","DURACK","INALA","INALA EAST","INALA HEIGHTS","INALA WEST","RICHLANDS","RICHLANDS BC","RICHLANDS DC","SERVICETON"],"SA4_NAME_2016":"Ipswich"},{"postcode":"4078","lat":-27.612653,"long":152.950579,"state":"QLD","localities":["ELLEN GROVE","FOREST LAKE"],"SA4_NAME_2016":"Ipswich"},{"postcode":"4101","lat":-27.484254,"long":153.009661,"state":"QLD","localities":["HIGHGATE HILL","MATER HILL","MATER HOSPITAL","SOUTH BANK","SOUTH BRISBANE","SOUTH BRISBANE BC","WEST END"],"SA4_NAME_2016":"Brisbane Inner City"},{"postcode":"4102","lat":-27.495458,"long":153.0328,"state":"QLD","localities":["BURANDA","DUTTON PARK","PRINCESS ALEXANDRA HOSPITAL","WOOLLOONGABBA"],"SA4_NAME_2016":"Brisbane - South"},{"postcode":"4103","lat":-27.512175,"long":153.028768,"state":"QLD","localities":["ANNERLEY","ANNERLEY DC","FAIRFIELD","FAIRFIELD GARDENS","THOMPSON ESTATE"],"SA4_NAME_2016":"Brisbane - South"},{"postcode":"4104","lat":-27.515758,"long":153.011535,"state":"QLD","localities":["YERONGA","YERONGA WEST"],"SA4_NAME_2016":"Brisbane - South"},{"postcode":"4105","lat":-27.534438,"long":153.018893,"state":"QLD","localities":["CLIFTON HILL","MOOROOKA","MOORVALE","TENNYSON","YEERONGPILLY"],"SA4_NAME_2016":"Brisbane - South"},{"postcode":"4106","lat":-27.552137,"long":153.004615,"state":"QLD","localities":["BRISBANE MARKET","ROCKLEA","ROCKLEA DC"],"SA4_NAME_2016":"Brisbane - South"},{"postcode":"4107","lat":-27.552052,"long":153.030643,"state":"QLD","localities":["SALISBURY","SALISBURY EAST"],"SA4_NAME_2016":"Brisbane - South"},{"postcode":"4108","lat":-27.568359,"long":153.020197,"state":"QLD","localities":["ARCHERFIELD","COOPERS PLAINS"],"SA4_NAME_2016":"Brisbane - South"},{"postcode":"4108","lat":-19.7061005,"long":145.7740021,"state":"QLD","localities":["ARCHERFIELD BC","HEATHWOOD DF","CABOOLTURE BC","LAKELAND DOWNS","AYTON"],"SA4_NAME_2016":"Brisbane - South"},{"postcode":"4109","lat":-27.57925,"long":153.057452,"state":"QLD","localities":["ALTANDI","BANOON","MACGREGOR","ROBERTSON","SUNNYBANK","SUNNYBANK HILLS","SUNNYBANK SOUTH"],"SA4_NAME_2016":"Brisbane - South"},{"postcode":"4110","lat":-27.612178,"long":153.009526,"state":"QLD","localities":["ACACIA RIDGE","ACACIA RIDGE BC","ACACIA RIDGE DC","HEATHWOOD","LARAPINTA","PALLARA","WILLAWONG"],"SA4_NAME_2016":"Brisbane - South"},{"postcode":"4111","lat":-27.550643,"long":153.052226,"state":"QLD","localities":["GRIFFITH UNIVERSITY","NATHAN","GRIFFITH UNIVERSITY"],"SA4_NAME_2016":"Brisbane - South"},{"postcode":"4112","lat":-27.611129,"long":153.087839,"state":"QLD","localities":["KURABY"],"SA4_NAME_2016":"Brisbane - South"},{"postcode":"4113","lat":-27.590722,"long":153.077926,"state":"QLD","localities":["EIGHT MILE PLAINS","FRUITGROVE","RUNCORN"],"SA4_NAME_2016":"Brisbane - South"},{"postcode":"4114","lat":-27.652812,"long":153.110764,"state":"QLD","localities":["KINGSTON","LOGAN CENTRAL","LOGAN CITY BC","LOGAN CITY DC","TRINDER PARK","WOODRIDGE","WOODRIDGE EAST"],"SA4_NAME_2016":"Logan - Beaudesert"},{"postcode":"4115","lat":-27.643845,"long":153.022499,"state":"QLD","localities":["ALGESTER","PARKINSON"],"SA4_NAME_2016":"Brisbane - South"},{"postcode":"4116","lat":-27.633988,"long":153.050793,"state":"QLD","localities":["CALAMVALE","DREWVALE","STRETTON"],"SA4_NAME_2016":"Brisbane - South"},{"postcode":"4117","lat":-27.644688,"long":153.08304,"state":"QLD","localities":["BERRINBA","KARAWATHA"],"SA4_NAME_2016":"Logan - Beaudesert"},{"postcode":"4118","lat":-27.673806,"long":153.027323,"state":"QLD","localities":["BROWNS PLAINS","BROWNS PLAINS BC","BROWNSLEIGH","FORESTDALE","HERITAGE PARK","HILLCREST","REGENTS PARK"],"SA4_NAME_2016":"Logan - Beaudesert"},{"postcode":"4119","lat":-27.611502,"long":153.109769,"state":"QLD","localities":["UNDERWOOD"],"SA4_NAME_2016":"Logan - Beaudesert"},{"postcode":"4120","lat":-27.508707,"long":153.044217,"state":"QLD","localities":["GREENSLOPES","LORETO HILL","STONES CORNER"],"SA4_NAME_2016":"Brisbane - South"},{"postcode":"4121","lat":-27.526966,"long":153.053952,"state":"QLD","localities":["EKIBIN","HOLLAND PARK","HOLLAND PARK EAST","HOLLAND PARK WEST","MOUNT THOMPSON","TARRAGINDI","WELLERS HILL"],"SA4_NAME_2016":"Brisbane - South"},{"postcode":"4122","lat":-27.543316,"long":153.088155,"state":"QLD","localities":["MANSFIELD","MANSFIELD BC","MANSFIELD DC","MOUNT GRAVATT","MOUNT GRAVATT EAST","UPPER MOUNT GRAVATT","UPPER MOUNT GRAVATT BC","WISHART"],"SA4_NAME_2016":"Brisbane - South"},{"postcode":"4123","lat":-27.583528,"long":153.116151,"state":"QLD","localities":["PRIESTS GULLY","ROCHEDALE","ROCHEDALE SOUTH"],"SA4_NAME_2016":"Logan - Beaudesert"},{"postcode":"4124","lat":-27.701681,"long":152.967761,"state":"QLD","localities":["BORONIA HEIGHTS","GREENBANK","LYONS","NEW BEITH"],"SA4_NAME_2016":"Logan - Beaudesert"},{"postcode":"4124","lat":-27.78983267,"long":152.9264476,"state":"QLD","localities":["SILVERBARK RIDGE"],"SA4_NAME_2016":"Logan - Beaudesert"},{"postcode":"4125","lat":-27.730432,"long":153.04108,"state":"QLD","localities":["MUNRUBEN","PARK RIDGE","PARK RIDGE SOUTH"],"SA4_NAME_2016":"Logan - Beaudesert"},{"postcode":"4127","lat":-27.629474,"long":153.142035,"state":"QLD","localities":["CHATSWOOD HILLS","DAISY HILL","PRIESTDALE","SLACKS CREEK","SPRINGWOOD","SPRINGWOOD BC"],"SA4_NAME_2016":"Logan - Beaudesert"},{"postcode":"4128","lat":-27.652403,"long":153.174214,"state":"QLD","localities":["KIMBERLEY PARK","LOGAN HYPERDOME BC","SHAILER PARK","TANAH MERAH"],"SA4_NAME_2016":"Logan - Beaudesert"},{"postcode":"4129","lat":-27.681519,"long":153.186817,"state":"QLD","localities":["LOGANDALE","LOGANHOLME","LOGANHOLME BC","LOGANHOLME DC"],"SA4_NAME_2016":"Logan - Beaudesert"},{"postcode":"4130","lat":-27.669244,"long":153.24333,"state":"QLD","localities":["CARBROOK","CORNUBIA"],"SA4_NAME_2016":"Logan - Beaudesert"},{"postcode":"4131","lat":-27.669913,"long":153.136072,"state":"QLD","localities":["LOGANLEA","MEADOWBROOK"],"SA4_NAME_2016":"Logan - Beaudesert"},{"postcode":"4132","lat":-27.681063,"long":153.084397,"state":"QLD","localities":["CRESTMEAD","CRESTMEAD DC","MARSDEN","MARSDEN POSTAL DEPOT"],"SA4_NAME_2016":"Logan - Beaudesert"},{"postcode":"4133","lat":-27.723837,"long":153.102664,"state":"QLD","localities":["CHAMBERS FLAT","LOGAN RESERVE","WATERFORD","WATERFORD WEST"],"SA4_NAME_2016":"Logan - Beaudesert"},{"postcode":"4151","lat":-27.500807,"long":153.058605,"state":"QLD","localities":["COORPAROO","COORPAROO BC","COORPAROO DC"],"SA4_NAME_2016":"Brisbane - South"},{"postcode":"4152","lat":-27.501349,"long":153.096812,"state":"QLD","localities":["CAMP HILL","CARINA","CARINA HEIGHTS","CARINA NORTH","CARINDALE","WHITES HILL"],"SA4_NAME_2016":"Brisbane - South"},{"postcode":"4153","lat":-27.510035,"long":153.131429,"state":"QLD","localities":["BELMONT","BELMONT HEIGHTS"],"SA4_NAME_2016":"Brisbane - East"},{"postcode":"4154","lat":-27.49069,"long":153.158727,"state":"QLD","localities":["GUMDALE","RANSOME","WAKERLEY"],"SA4_NAME_2016":"Brisbane - East"},{"postcode":"4155","lat":-27.5181,"long":153.156446,"state":"QLD","localities":["CHANDLER"],"SA4_NAME_2016":"Brisbane - East"},{"postcode":"4156","lat":-27.558858,"long":153.154177,"state":"QLD","localities":["BURBANK","MACKENZIE"],"SA4_NAME_2016":"Brisbane - South"},{"postcode":"4157","lat":-27.568178,"long":153.207096,"state":"QLD","localities":["CAPALABA","CAPALABA BC","CAPALABA DC","CAPALABA WEST","SHELDON"],"SA4_NAME_2016":"Brisbane - East"},{"postcode":"4158","lat":-27.487689,"long":153.1998,"state":"QLD","localities":["THORNESIDE"],"SA4_NAME_2016":"Brisbane - East"},{"postcode":"4159","lat":-27.502289,"long":153.209624,"state":"QLD","localities":["BIRKDALE"],"SA4_NAME_2016":"Brisbane - East"},{"postcode":"4160","lat":-27.506409,"long":153.243312,"state":"QLD","localities":["EROBIN","ORMISTON","WELLINGTON POINT"],"SA4_NAME_2016":"Brisbane - East"},{"postcode":"4161","lat":-27.533407,"long":153.226864,"state":"QLD","localities":["ALEXANDRA HILLS"],"SA4_NAME_2016":"Brisbane - East"},{"postcode":"4163","lat":-27.535216,"long":153.26571,"state":"QLD","localities":["CLEVELAND","CLEVELAND DC"],"SA4_NAME_2016":"Brisbane - East"},{"postcode":"4164","lat":-27.569965,"long":153.260833,"state":"QLD","localities":["PINKLANDS","THORNLANDS"],"SA4_NAME_2016":"Brisbane - East"},{"postcode":"4165","lat":-27.623975,"long":153.263801,"state":"QLD","localities":["MOUNT COTTON","POINT HALLORAN","POINT TALBURPIN","REDLAND BAY","VICTORIA POINT","VICTORIA POINT WEST"],"SA4_NAME_2016":"Brisbane - East"},{"postcode":"4169","lat":-27.484177,"long":153.040982,"state":"QLD","localities":["EAST BRISBANE","KANGAROO POINT","STANLEY BRIDGE"],"SA4_NAME_2016":"Brisbane Inner City"},{"postcode":"4170","lat":-27.470778,"long":153.074231,"state":"QLD","localities":["CANNON HILL","COLMSLIE","MORNINGSIDE","NORMAN PARK","SEVEN HILLS"],"SA4_NAME_2016":"Brisbane - South"},{"postcode":"4171","lat":-27.456031,"long":153.06036,"state":"QLD","localities":["BALMORAL","BULIMBA","GALLOWAYS HILL","HAWTHORNE"],"SA4_NAME_2016":"Brisbane Inner City"},{"postcode":"4172","lat":-27.458767,"long":153.103331,"state":"QLD","localities":["MURARRIE"],"SA4_NAME_2016":"Brisbane - East"},{"postcode":"4173","lat":-27.475814,"long":153.120634,"state":"QLD","localities":["TINGALPA","TINGALPA BC","TINGALPA DC"],"SA4_NAME_2016":"Brisbane - East"},{"postcode":"4174","lat":-27.450089,"long":153.129424,"state":"QLD","localities":["DOBOY","HEMMANT"],"SA4_NAME_2016":"Brisbane - East"},{"postcode":"4178","lat":-27.425651,"long":153.232567,"state":"QLD","localities":["LINDUM","LYTTON","WYNNUM","WYNNUM CENTRAL","WYNNUM NORTH","WYNNUM PLAZA","WYNNUM WEST"],"SA4_NAME_2016":"Brisbane - East"},{"postcode":"4178","lat":-27.39000408,"long":153.1782025,"state":"QLD","localities":["PORT OF BRISBANE"],"SA4_NAME_2016":"Brisbane - East"},{"postcode":"4179","lat":-27.390823,"long":153.234041,"state":"QLD","localities":["LOTA","MANLY","MANLY WEST"],"SA4_NAME_2016":"Brisbane - East"},{"postcode":"4183","lat":-27.545157,"long":153.451696,"state":"QLD","localities":["AMITY","AMITY POINT","DUNWICH","POINT LOOKOUT"],"SA4_NAME_2016":"Brisbane - East"},{"postcode":"4183","lat":-27.55442784,"long":153.4519079,"state":"QLD","localities":["NORTH STRADBROKE ISLAND"],"SA4_NAME_2016":"Brisbane - East"},{"postcode":"4184","lat":-27.676499,"long":153.384655,"state":"QLD","localities":["COOCHIEMUDLO ISLAND","KARRAGARRA ISLAND","LAMB ISLAND","MACLEAY ISLAND","PEEL ISLAND","PERULPA ISLAND","RUSSELL ISLAND"],"SA4_NAME_2016":"Brisbane - East"},{"postcode":"4205","lat":-27.687389,"long":153.156289,"state":"QLD","localities":["BETHANIA"],"SA4_NAME_2016":"Logan - Beaudesert"},{"postcode":"4207","lat":-27.733991,"long":153.204523,"state":"QLD","localities":["ALBERTON","BAHRS SCRUB","BANNOCKBURN","BEENLEIGH","BELIVAH","BUCCAN","CABBAGE TREE POINT","CEDAR CREEK","EAGLEBY","EDENS LANDING","HOLMVIEW","LOGAN VILLAGE","LUSCOMBE","MOUNT WARREN PARK","STAPYLTON","STEIGLITZ","WINDAROO","WOLFFDENE","WOONGOOLBA","YARRABILBA","YATALA","YATALA DC","YELLOW WOOD"],"SA4_NAME_2016":"Gold Coast"},{"postcode":"4207","lat":-27.83587263,"long":153.1375013,"state":"QLD","localities":["KAIRABAH"],"SA4_NAME_2016":"Logan - Beaudesert"},{"postcode":"4208","lat":-27.767029,"long":153.27631,"state":"QLD","localities":["BURNSIDE","GILBERTON","HALFWAY CREEK","JACOBS WELL","KINGSHOLME","NORWELL","ORMEAU","ORMEAU HILLS"],"SA4_NAME_2016":"Gold Coast"},{"postcode":"4209","lat":-27.805498,"long":153.392892,"state":"QLD","localities":["CANOWINDRA","COOMERA","PIMPAMA","UPPER COOMERA","WILLOW VALE"],"SA4_NAME_2016":"Gold Coast"},{"postcode":"4210","lat":-27.932207,"long":153.279483,"state":"QLD","localities":["GUANABA","MAUDSLAND","OXENFORD","STUDIO VILLAGE","WONGAWALLAN"],"SA4_NAME_2016":"Gold Coast"},{"postcode":"4211","lat":-28.035453,"long":153.241258,"state":"QLD","localities":["ADVANCETOWN","BEECHMONT","BINNA BURRA","CARRARA","CLAGIRABA","GAVEN","GILSTON","HIGHLAND PARK","LATIMER","LOWER BEECHMONT","MOUNT NATHAN","NATURAL BRIDGE","NERANG","NERANG BC","NERANG DC","NUMINBAH VALLEY","PACIFIC PINES","PINDARI HILLS","SOUTHERN LAMINGTON"],"SA4_NAME_2016":"Gold Coast"},{"postcode":"4212","lat":-27.869823,"long":153.360694,"state":"QLD","localities":["BOYKAMBIL","HELENSVALE","HOPE ISLAND","MONTEREY KEYS","SANCTUARY COVE","SANTA BARBARA"],"SA4_NAME_2016":"Gold Coast"},{"postcode":"4212","lat":-27.926161,"long":153.339891,"state":"QLD","localities":["HELENSVALE TOWN CENTRE"],"SA4_NAME_2016":"Gold Coast"},{"postcode":"4213","lat":-28.110164,"long":153.318916,"state":"QLD","localities":["AUSTINVILLE","BONOGIN","MUDGEERABA","SPRINGBROOK","TALLAI","WORONGARY"],"SA4_NAME_2016":"Gold Coast"},{"postcode":"4213","lat":-28.11809588,"long":153.3119304,"state":"QLD","localities":["NERANWOOD"],"SA4_NAME_2016":"Gold Coast"},{"postcode":"4214","lat":-27.967005,"long":153.365576,"state":"QLD","localities":["ARUNDEL","ARUNDEL BC","ARUNDEL DC","ASHMORE","ASHMORE CITY","MOLENDINAR","PARKWOOD"],"SA4_NAME_2016":"Gold Coast"},{"postcode":"4215","lat":-27.967134,"long":153.397952,"state":"QLD","localities":["AUSTRALIA FAIR","CHIRN PARK","KEEBRA PARK","LABRADOR","SOUTHPORT","SOUTHPORT BC","SOUTHPORT PARK","SUNDALE"],"SA4_NAME_2016":"Gold Coast"},{"postcode":"4216","lat":-27.839347,"long":153.419405,"state":"QLD","localities":["ANGLERS PARADISE","BIGGERA WATERS","COOMBABAH","CURRIGEE","HOLLYWELL","PARADISE POINT","PARADISE POINT KEYS","RUNAWAY BAY","SOUTH STRADBROKE","SOVEREIGN ISLANDS"],"SA4_NAME_2016":"Gold Coast"},{"postcode":"4217","lat":-28.008783,"long":153.412197,"state":"QLD","localities":["BENOWA","BUNDALL","BUNDALL BC","BUNDALL DC","CHEVRON ISLAND","GOLD COAST MC","ISLE OF CAPRI","MAIN BEACH","PARADISE ISLAND","PARADISE WATERS","SORRENTO","SURFERS PARADISE","THE SPIT","GOLD COAST MC"],"SA4_NAME_2016":"Gold Coast"},{"postcode":"4218","lat":-28.037627,"long":153.41692,"state":"QLD","localities":["BROADBEACH","BROADBEACH WATERS","CYPRESS GARDENS","FLORIDA GARDENS","MERMAID BEACH","MERMAID KEYS","MERMAID WATERS","MIAMI KEYS","MOANA PARK","NOBBY BEACH","PACIFIC FAIR","Q SUPERCENTRE","RIALTO","RIO VISTA"],"SA4_NAME_2016":"Gold Coast"},{"postcode":"4219","lat":-28.111748,"long":153.434197,"state":"QLD","localities":["WEST BURLEIGH"],"SA4_NAME_2016":"Gold Coast"},{"postcode":"4220","lat":-28.084952,"long":153.434406,"state":"QLD","localities":["BURLEIGH BC","BURLEIGH DC","BURLEIGH HEADS","BURLEIGH TOWN","BURLEIGH WATERS","MIAMI","TALLY VALLEY"],"SA4_NAME_2016":"Gold Coast"},{"postcode":"4221","lat":-28.127323,"long":153.45837,"state":"QLD","localities":["ELANORA","PALM BEACH"],"SA4_NAME_2016":"Gold Coast"},{"postcode":"4223","lat":-28.19076,"long":153.415088,"state":"QLD","localities":["CURRUMBIN","CURRUMBIN DC","CURRUMBIN VALLEY","CURRUMBIN WATERS"],"SA4_NAME_2016":"Gold Coast"},{"postcode":"4224","lat":-28.150224,"long":153.489332,"state":"QLD","localities":["TUGUN","TUGUN HEIGHTS"],"SA4_NAME_2016":"Gold Coast"},{"postcode":"4225","lat":-28.168787,"long":153.517333,"state":"QLD","localities":["BILINGA","COOLANGATTA","GREENMOUNT","GREENMOUNT","KIRRA","RAINBOW BAY"],"SA4_NAME_2016":"Gold Coast"},{"postcode":"4226","lat":-28.06794,"long":153.40282,"state":"QLD","localities":["CLEAR ISLAND WATERS","KERRYDALE","MERRIMAC","ROBINA","ROBINA DC"],"SA4_NAME_2016":"Gold Coast"},{"postcode":"4227","lat":-28.101892,"long":153.410392,"state":"QLD","localities":["REEDY CREEK","VARSITY LAKES"],"SA4_NAME_2016":"Gold Coast"},{"postcode":"4228","lat":-28.182084,"long":153.37739,"state":"QLD","localities":["INGLESIDE","TALLEBUDGERA","TALLEBUDGERA VALLEY"],"SA4_NAME_2016":"Gold Coast"},{"postcode":"4230","lat":-28.077467,"long":153.38531,"state":"QLD","localities":["ROBINA TOWN CENTRE"],"SA4_NAME_2016":"Gold Coast"},{"postcode":"4270","lat":-27.862349,"long":153.135566,"state":"QLD","localities":["TAMBORINE","TAMBORINE VILLAGE"],"SA4_NAME_2016":"Gold Coast"},{"postcode":"4271","lat":-27.91838,"long":153.201472,"state":"QLD","localities":["EAGLE HEIGHTS"],"SA4_NAME_2016":"Gold Coast"},{"postcode":"4272","lat":-27.960815,"long":153.183429,"state":"QLD","localities":["MOUNT TAMBORINE","NORTH TAMBORINE"],"SA4_NAME_2016":"Gold Coast"},{"postcode":"4272","lat":-27.94216485,"long":153.1936491,"state":"QLD","localities":["TAMBORINE MOUNTAIN"],"SA4_NAME_2016":"Gold Coast"},{"postcode":"4275","lat":-28.111411,"long":153.134987,"state":"QLD","localities":["BENOBBLE","BIDDADDABA","BLOOMFLEET","BOYLAND","CANUNGRA","FERNY GLEN","FLYING FOX","ILLINBAH","LAMINGTON NATIONAL PARK","O'REILLYS","SARABAH","WITHEREN","WONGLEPONG"],"SA4_NAME_2016":"Gold Coast"},{"postcode":"4280","lat":-27.8104018,"long":152.9484212,"state":"QLD","localities":["FLAGSTONE"],"SA4_NAME_2016":"Logan - Beaudesert"},{"postcode":"4280","lat":-27.83399703,"long":153.001567,"state":"QLD","localities":["GLENLOGAN"],"SA4_NAME_2016":"Logan - Beaudesert"},{"postcode":"4280","lat":-27.81609,"long":153.048563,"state":"QLD","localities":["JIMBOOMBA","MACLEAN","NORTH MACLEAN","SOUTH MACLEAN","STOCKLEIGH"],"SA4_NAME_2016":"Logan - Beaudesert"},{"postcode":"4280","lat":-27.82897413,"long":152.9705973,"state":"QLD","localities":["RIVERBEND"],"SA4_NAME_2016":"Logan - Beaudesert"},{"postcode":"4285","lat":-28.056979,"long":152.975131,"state":"QLD","localities":["ALLENVIEW","BEAUDESERT","BIRNAM","BROMELTON","CAINBABLE","CEDAR GROVE","CEDAR VALE","CHINGHEE CREEK","CHRISTMAS CREEK","CRYNA","DARLINGTON","GLENEAGLE","HILLVIEW","ILBOGAN","INNISPLAIN","JOSEPHVILLE","KAGARU","KERRY","KNAPP CREEK","KOORALBYN","LAMINGTON","LARAVALE","MOUNT GIPPS","MUNDOOLUN","NINDOOINBAH","OAKY CREEK","TABOOBA","TABRAGALBA","TAMROOKUM","TAMROOKUM CREEK","UNDULLAH","VERESDALE","VERESDALE SCRUB","WOODHILL"],"SA4_NAME_2016":"Logan - Beaudesert"},{"postcode":"4285","lat":-27.82923633,"long":152.8889732,"state":"QLD","localities":["FLINDERS LAKES"],"SA4_NAME_2016":"Logan - Beaudesert"},{"postcode":"4285","lat":-27.81431835,"long":152.917364,"state":"QLD","localities":["MONARCH GLEN"],"SA4_NAME_2016":"Logan - Beaudesert"},{"postcode":"4287","lat":-28.259143,"long":152.822971,"state":"QLD","localities":["BARNEY VIEW","MOUNT BARNEY","MOUNT LINDESAY","PALEN CREEK","RATHDOWNEY","RUNNING CREEK"],"SA4_NAME_2016":"Logan - Beaudesert"},{"postcode":"4300","lat":-27.682273,"long":152.884999,"state":"QLD","localities":["AUGUSTINE HEIGHTS","BELLBIRD PARK","BROOKWATER","CAMIRA","CAROLE PARK","GAILES","GOODNA","GOODNA DC","GOODNA EAST","OPOSSUM CREEK","SPRINGFIELD","SPRINGFIELD LAKES"],"SA4_NAME_2016":"Ipswich"},{"postcode":"4300","lat":-27.70564619,"long":152.8810374,"state":"QLD","localities":["SPRING MOUNTAIN"],"SA4_NAME_2016":"Ipswich"},{"postcode":"4300","lat":-27.68100428,"long":152.9036083,"state":"QLD","localities":["SPRINGFIELD CENTRAL"],"SA4_NAME_2016":"Ipswich"},{"postcode":"4301","lat":-27.629394,"long":152.858086,"state":"QLD","localities":["COLLINGWOOD PARK","GREENWOOD VILLAGE","REDBANK","REDBANK PLAINS"],"SA4_NAME_2016":"Ipswich"},{"postcode":"4303","lat":-27.604588,"long":152.840187,"state":"QLD","localities":["DINMORE","NEW CHUM","RIVERVIEW"],"SA4_NAME_2016":"Ipswich"},{"postcode":"4304","lat":-27.620656,"long":152.80457,"state":"QLD","localities":["BLACKSTONE","BOOVAL","BOOVAL BC","BOOVAL DC","BOOVAL FAIR","BUNDAMBA","EBBW VALE","NORTH BOOVAL","SILKSTONE"],"SA4_NAME_2016":"Ipswich"},{"postcode":"4305","lat":-27.627522,"long":152.753696,"state":"QLD","localities":["BASIN POCKET","BRASSALL","BRASSALL HEIGHTS","BREMER","CHURCHILL","COALFALLS","EAST IPSWICH","EASTERN HEIGHTS","FLINDERS VIEW","IPSWICH","LEICHHARDT","LIMESTONE RIDGES","MOORES POCKET","NEWTOWN","NORTH IPSWICH","NORTH TIVOLI","ONE MILE","RACEVIEW","RAYMONDS HILL","SADLIERS CROSSING","TIVOLI","WEST IPSWICH","WOODEND","WULKURAKA","YAMANTO"],"SA4_NAME_2016":"Ipswich"},{"postcode":"4306","lat":-27.480898,"long":152.725408,"state":"QLD","localities":["AMBERLEY","AVOCA VALE","BANKS CREEK","BARELLAN POINT","BELLHAVEN","BENARKIN","BENARKIN NORTH","BLACKBUTT","BLACKBUTT NORTH","BLACKBUTT SOUTH","BLACKSOIL","BLACKWALL","BORALLON","CHERRY CREEK","CHUWAR","COLINTON","DEEBING HEIGHTS","DUNDAS","ENGLAND CREEK","FAIRNEY VIEW","FERNVALE","FOREST GLADE","GLAMORGAN VALE","GOOGA CREEK","GOOLMAN","HAIGSLEA","HARLIN","HOLTS HILL","IRONBARK","KARALEE","KARANA DOWNS","KARRABIN","KHOLO","LAKE MANCHESTER","LARK HILL","LINVILLE","LOAMSIDE","MONSILDALE","MOORE","MOUNT BINGA","MOUNT CROSBY","MOUNT MARROW","MOUNT STANLEY","MUIRLEA","NUKKU","PEAK CROSSING","PINE MOUNTAIN","PURGA","RIPLEY","SOUTH RIPLEY","SPLIT YARD CREEK","SWANBANK","TAROMEO","TEELAH","THAGOONA","VERNOR","WALLOON","WANORA","WEST AMBERLEY","WILLOWBANK","WIVENHOE","WIVENHOE POCKET"],"SA4_NAME_2016":"Ipswich"},{"postcode":"4306","lat":-27.83879693,"long":152.7654284,"state":"QLD","localities":["WASHPOOL"],"SA4_NAME_2016":"Ipswich"},{"postcode":"4306","lat":-27.69435236,"long":152.8491674,"state":"QLD","localities":["WHITE ROCK"],"SA4_NAME_2016":"Ipswich"},{"postcode":"4307","lat":-27.851804,"long":152.592399,"state":"QLD","localities":["COLEYVILLE","HARRISVILLE","MUTDAPILLY","RADFORD","SILVERDALE","WARRILL VIEW","WILSONS PLAINS"],"SA4_NAME_2016":"Ipswich"},{"postcode":"4309","lat":-27.98728,"long":152.523366,"state":"QLD","localities":["ARATULA","CHARLWOOD","CLUMBER","FASSIFERN","FASSIFERN VALLEY","FRAZERVIEW","KALBAR","KENTS LAGOON","KULGUN","MILORA","MOOGERAH","MORWINCHA","MOUNT EDWARDS","MUNBILLA","OBUM OBUM","TAROME","TEVIOTVILLE","WASHPOOL"],"SA4_NAME_2016":"Ipswich"},{"postcode":"4310","lat":-28.121399,"long":152.600598,"state":"QLD","localities":["ALLANDALE","ANTHONY","BLANTYRE","BOONAH","BUNBURRA","BUNJURGEN","BURNETT CREEK","CANNON CREEK","CARNEYS CREEK","COOCHIN","COULSON","CROFTBY","DUGANDAN","FRENCHES CREEK","HOYA","KENTS POCKET","LAKE MOOGERAH","MAROON","MAROON DAM","MILBONG","MILFORD","MOUNT ALFORD","MOUNT FRENCH","ROADVALE","TEMPLIN","WALLACES CREEK","WOOLOOMAN","WYARALONG"],"SA4_NAME_2016":"Ipswich"},{"postcode":"4311","lat":-27.418572,"long":152.438771,"state":"QLD","localities":["ATKINSONS DAM","BRIGHTVIEW","BUARABA","BUARABA SOUTH","CHURCHABLE","CLARENDON","COOLANA","COOMINYA","LOCKYER WATERS","LOWOOD","MINDEN","MOUNT TARAMPA","PATRICK ESTATE","PRENZLAU","RIFLE RANGE","TARAMPA","WIVENHOE HILL"],"SA4_NAME_2016":"Ipswich"},{"postcode":"4312","lat":-27.256065,"long":152.482636,"state":"QLD","localities":["BRYDEN","CABOONBAH","COAL CREEK","CROSSDALE","ESK","ESKDALE","GLEN ESK","MOOMBRA","MOUNT BYRON","MOUNT HALLEN","MURRUMBA","REDBANK CREEK","SOMERSET DAM"],"SA4_NAME_2016":"Ipswich"},{"postcode":"4313","lat":-27.089517,"long":152.321536,"state":"QLD","localities":["BIARRA","BRAEMORE","COOEEIMBARDI","CRESSBROOK","FULHAM","GREGORS CREEK","IVORY CREEK","LOWER CRESSBROOK","MOUNT BEPPO","OTTABA","SCRUB CREEK","TOOGOOLAWAH","YIMBUN"],"SA4_NAME_2016":"Ipswich"},{"postcode":"4314","lat":-26.73342733,"long":152.2258022,"state":"QLD","localities":["AVOCA VALE"],"SA4_NAME_2016":"Moreton Bay - North"},{"postcode":"4314","lat":-26.8824,"long":152.1391,"state":"QLD","localities":["BENARKIN"],"SA4_NAME_2016":"Wide Bay"},{"postcode":"4314","lat":-26.85210016,"long":152.1505357,"state":"QLD","localities":["BENARKIN NORTH"],"SA4_NAME_2016":"Wide Bay"},{"postcode":"4314","lat":-26.883,"long":152.1011,"state":"QLD","localities":["BLACKBUTT"],"SA4_NAME_2016":"Wide Bay"},{"postcode":"4314","lat":-26.86769039,"long":152.1163598,"state":"QLD","localities":["BLACKBUTT NORTH"],"SA4_NAME_2016":"Wide Bay"},{"postcode":"4314","lat":-26.90734563,"long":152.0833751,"state":"QLD","localities":["BLACKBUTT SOUTH"],"SA4_NAME_2016":"Wide Bay"},{"postcode":"4314","lat":-26.92847151,"long":152.1150297,"state":"QLD","localities":["CHERRY CREEK"],"SA4_NAME_2016":"Darling Downs - Maranoa"},{"postcode":"4314","lat":-26.9662,"long":152.221,"state":"QLD","localities":["COLINTON"],"SA4_NAME_2016":"Moreton Bay - North"},{"postcode":"4314","lat":-26.9019,"long":152.0092,"state":"QLD","localities":["GILLA"],"SA4_NAME_2016":"Darling Downs - Maranoa"},{"postcode":"4314","lat":-26.96546369,"long":152.054265,"state":"QLD","localities":["GOOGA CREEK"],"SA4_NAME_2016":"Darling Downs - Maranoa"},{"postcode":"4314","lat":-26.9666,"long":152.3502,"state":"QLD","localities":["HARLIN"],"SA4_NAME_2016":"Moreton Bay - North"},{"postcode":"4314","lat":-26.8097,"long":152.237,"state":"QLD","localities":["LINVILLE"],"SA4_NAME_2016":"Moreton Bay - North"},{"postcode":"4314","lat":-26.8816,"long":152.2625,"state":"QLD","localities":["MOORE"],"SA4_NAME_2016":"Moreton Bay - North"},{"postcode":"4314","lat":-27.00654199,"long":151.9393226,"state":"QLD","localities":["MOUNT BINGA"],"SA4_NAME_2016":"Darling Downs - Maranoa"},{"postcode":"4314","lat":-26.58605216,"long":152.2017374,"state":"QLD","localities":["MOUNT STANLEY"],"SA4_NAME_2016":"Moreton Bay - North"},{"postcode":"4314","lat":-26.8488,"long":152.0625,"state":"QLD","localities":["NUKKU"],"SA4_NAME_2016":"Wide Bay"},{"postcode":"4314","lat":-26.8294,"long":152.1247,"state":"QLD","localities":["TAROMEO"],"SA4_NAME_2016":"Wide Bay"},{"postcode":"4314","lat":-26.7728,"long":152.0973,"state":"QLD","localities":["TEELAH"],"SA4_NAME_2016":"Wide Bay"},{"postcode":"4340","lat":-27.803453,"long":152.472702,"state":"QLD","localities":["ASHWELL","CALVERT","EBENEZER","GRANDCHESTER","JEEBROPILLY","LANEFIELD","LOWER MOUNT WALKER","MERRYVALE","MOORANG","MOUNT FORBES","MOUNT MORT","MOUNT WALKER","MOUNT WALKER WEST","ROSEVALE","ROSEWOOD","TALLEGALLA","THE BLUFF","WOOLSHED"],"SA4_NAME_2016":"Ipswich"},{"postcode":"4341","lat":-27.68768,"long":152.396656,"state":"QLD","localities":["BLENHEIM","HATTON VALE","KENSINGTON GROVE","KENTVILLE","LAIDLEY","LAIDLEY CREEK WEST","LAIDLEY HEIGHTS","LAIDLEY NORTH","LAIDLEY SOUTH","MOUNT BERRYMAN","MULGOWIE","PLAINLAND","REGENCY DOWNS","SUMMERHOLM","THORNTON","TOWNSON"],"SA4_NAME_2016":"Ipswich"},{"postcode":"4342","lat":-27.543847,"long":152.377687,"state":"QLD","localities":["CROWLEY VALE","FOREST HILL","GLEN CAIRN","GLENORE GROVE","LOCKROSE","LYNFORD"],"SA4_NAME_2016":"Ipswich"},{"postcode":"4343","lat":-27.656074,"long":152.224616,"state":"QLD","localities":["ADARE","BLACK DUCK CREEK","CAFFEY","COLLEGE VIEW","EAST HALDON","FORDSDALE","GATTON","INGOLDSBY","JUNCTION VIEW","LAKE CLARENDON","LAWES","LEFTHAND BRANCH","LOWER TENTHILL","MORTON VALE","MOUNT SYLVIA","PLACID HILLS","RINGWOOD","ROCKSIDE","ROPELEY","SPRING CREEK","UPPER TENTHILL","VINEGAR HILL","WOODBINE","WOODLANDS"],"SA4_NAME_2016":"Toowoomba"},{"postcode":"4344","lat":-27.572999,"long":152.060385,"state":"QLD","localities":["CARPENDALE","EGYPT","FLAGSTONE CREEK","HELIDON","HELIDON SPA","LILYDALE","LOCKYER","ROCKMOUNT","SEVENTEEN MILE","SILVER PINCH","SILVER RIDGE","STOCKYARD","UPPER FLAGSTONE"],"SA4_NAME_2016":"Toowoomba"},{"postcode":"4344","lat":-27.581256,"long":152.105857,"state":"QLD","localities":["IREDALE"],"SA4_NAME_2016":"Toowoomba"},{"postcode":"4345","lat":-27.549094,"long":152.336382,"state":"QLD","localities":["GATTON COLLEGE"],"SA4_NAME_2016":"Toowoomba"},{"postcode":"4346","lat":-27.56237,"long":152.588235,"state":"QLD","localities":["MARBURG"],"SA4_NAME_2016":"Ipswich"},{"postcode":"4347","lat":-27.655062,"long":152.142704,"state":"QLD","localities":["GRANTHAM","MA MA CREEK","MOUNT WHITESTONE","VERADILLA","WINWILL"],"SA4_NAME_2016":"Toowoomba"},{"postcode":"4350","lat":-27.576308,"long":151.852689,"state":"QLD","localities":["ATHOL","BLUE MOUNTAIN HEIGHTS","CARRINGTON","CENTENARY HEIGHTS","CHARLTON","CLIFFORD GARDENS","COTSWOLD HILLS","CRANLEY","DARLING HEIGHTS","DRAYTON","DRAYTON NORTH","EAST TOOWOOMBA","EASTLAKE","FINNIE","GLENVALE","GLENVALE PARK","GOWRIE","GOWRIE MOUNTAIN","HARLAXTON","HARRISTOWN","KEARNEYS SPRING","MACDONALDTOWN","MIDDLE RIDGE","MOUNT KYNOCH","MOUNT LOFTY","MOUNT RASCAL","NEWTOWN","NORTH TOOWOOMBA","NORTHLANDS","PICNIC POINT","PRINCE HENRY HEIGHTS","RANGEVILLE","REDWOOD","ROCKVILLE","SOUTH TOOWOOMBA","SOUTHTOWN","TOOWOOMBA","TOOWOOMBA BC","TOOWOOMBA CITY","TOOWOOMBA DC","TOOWOOMBA EAST","TOOWOOMBA SOUTH","TOOWOOMBA VILLAGE FAIR","TOOWOOMBA WEST","TOP CAMP","TORRINGTON","WELLCAMP","WESTBROOK","WILSONTON","WYALLA PLAZA"],"SA4_NAME_2016":"Darling Downs - Maranoa"},{"postcode":"4350","lat":-27.53264828,"long":151.9268514,"state":"QLD","localities":["WILSONTON HEIGHTS"],"SA4_NAME_2016":"Toowoomba"},{"postcode":"4352","lat":-27.627661,"long":151.94182,"state":"QLD","localities":["AMIENS","BALLARD","BAPAUME","BIRNAM","BLANCHVIEW","BRANCHVIEW","CABARLAH","CAWDOR","CEMENT MILLS","COALBANK","CONDAMINE PLAINS","CUTELLA","DERRYMORE","DJUAN","DOCTOR CREEK","EVERGREEN","FIFTEEN MILE","GEHAM","GLENCOE","GORE","GOWRIE JUNCTION","GOWRIE LITTLE PLAIN","GRAPE TREE","GROOMSVILLE","HAMPTON","HIGHFIELDS","HIGHGROVE","HODGSON VALE","IREDALE","KARARA","KLEINTON","KULPI","KURROWAH","LILYVALE","LYRA","MACLAGAN","MALLING","MERINGANDAN","MERINGANDAN WEST","MERRITTS CREEK","MOUNT LUKE","MUNIGANEEN","MURPHYS CREEK","NARKO","NORTH MACLAGAN","NUTGROVE","OMAN AMA","PALM TREE","PAMPAS","PECHEY","PERANGA","PERSEVERANCE","POSTMANS RIDGE","POZIERES","PRESTON","RAMSAY","RANGEMORE","RAVENSBOURNE","SEVERNLEA","SPRING BLUFF","ST AUBYN","THORNVILLE","TOOWOOMBA MC","TUMMAVILLE","UMBIRAM","UPPER LOCKYER","WHICHELLO","WHITE MOUNTAIN","WITHCOTT","WOODLEIGH","WOOLMER","WUTUL","WYREEMA","YALANGUR","YANDILLA"],"SA4_NAME_2016":"Darling Downs - Maranoa"},{"postcode":"4352","lat":-27.32404593,"long":152.0967829,"state":"QLD","localities":["GRAPETREE"],"SA4_NAME_2016":"Darling Downs - Maranoa"},{"postcode":"4352","lat":-27.40527861,"long":152.1480255,"state":"QLD","localities":["PALMTREE"],"SA4_NAME_2016":"Darling Downs - Maranoa"},{"postcode":"4352","lat":-27.61100437,"long":152.0419329,"state":"QLD","localities":["SILVER RIDGE"],"SA4_NAME_2016":"Toowoomba"},{"postcode":"4352","lat":-27.66060764,"long":151.8985186,"state":"QLD","localities":["VALE VIEW"],"SA4_NAME_2016":"Toowoomba"},{"postcode":"4353","lat":-27.256984,"long":151.904578,"state":"QLD","localities":["BERGEN","EAST COOYAR","HADEN"],"SA4_NAME_2016":"Darling Downs - Maranoa"},{"postcode":"4354","lat":-27.343884,"long":151.887919,"state":"QLD","localities":["DOUGLAS","GOOMBUNGEE","KILBIRNIE"],"SA4_NAME_2016":"Darling Downs - Maranoa"},{"postcode":"4355","lat":-27.18463,"long":152.008635,"state":"QLD","localities":["ANDURAMBA","CROWS NEST","EMU CREEK","GENAVEN","GLENHAVEN","JONES GULLY","MOUNTAIN CAMP","NUKINENDA","PIERCE CREEK","PINELANDS","PLAINBY","SYLVIA VALE","THE BLUFF","UPPER PINELANDS"],"SA4_NAME_2016":"Darling Downs - Maranoa"},{"postcode":"4355","lat":-27.2412582,"long":152.1679737,"state":"QLD","localities":["CRESSBROOK CREEK"],"SA4_NAME_2016":"Darling Downs - Maranoa"},{"postcode":"4355","lat":-27.17812344,"long":151.973148,"state":"QLD","localities":["GLENAVEN"],"SA4_NAME_2016":"Darling Downs - Maranoa"},{"postcode":"4355","lat":-27.1640073,"long":152.0374295,"state":"QLD","localities":["PIERCES CREEK"],"SA4_NAME_2016":"Darling Downs - Maranoa"},{"postcode":"4356","lat":-27.663074,"long":151.550271,"state":"QLD","localities":["BONGEEN","BROXBURN","EVANSLEA","IRONGATE","KINCORA","LINTHORPE","MOTLEY","MOUNT TYSON","NORTH BRANCH","NORWIN","PITTSWORTH","PURRAWUNDA","ROSSVALE","SCRUBBY MOUNTAIN","SPRINGSIDE","ST HELENS","STONELEIGH","YARRANLEA"],"SA4_NAME_2016":"Darling Downs - Maranoa"},{"postcode":"4357","lat":-27.957654,"long":151.103872,"state":"QLD","localities":["BRINGALILY","BULLI CREEK","CANNING CREEK","CAPTAINS MOUNTAIN","CLONTARF","CONDAMINE FARMS","CYPRESS GARDENS","DOMVILLE","FOREST RIDGE","GRAYS GATE","KOOROONGARRA","LAVELLE","LEMONTREE","MILLMERRAN","MILLMERRAN DOWNS","MILLMERRAN WOODS","MILLWOOD","MOUNT EMLYN","PUNCHS CREEK","ROCKY CREEK","STONEHENGE","THE PINES","TURALLIN","WATTLE RIDGE","WESTERN CREEK","WOONDUL"],"SA4_NAME_2016":"Darling Downs - Maranoa"},{"postcode":"4358","lat":-27.7283,"long":151.859857,"state":"QLD","localities":["CAMBOOYA","FELTON","FELTON EAST","FELTON SOUTH","VALE VIEW"],"SA4_NAME_2016":"Toowoomba"},{"postcode":"4358","lat":-27.72378158,"long":151.9878913,"state":"QLD","localities":["RAMSAY"],"SA4_NAME_2016":"Darling Downs - Maranoa"},{"postcode":"4359","lat":-27.794456,"long":152.03681,"state":"QLD","localities":["ASCOT","BUDGEE","GREENMOUNT","GREENMOUNT EAST","HIRSTGLEN","WEST HALDON"],"SA4_NAME_2016":"Darling Downs - Maranoa"},{"postcode":"4359","lat":-27.7732073,"long":151.9520167,"state":"QLD","localities":["EAST GREENMOUNT"],"SA4_NAME_2016":"Darling Downs - Maranoa"},{"postcode":"4360","lat":-27.853801,"long":151.907036,"state":"QLD","localities":["NOBBY"],"SA4_NAME_2016":"Darling Downs - Maranoa"},{"postcode":"4361","lat":-27.965214,"long":151.948279,"state":"QLD","localities":["BACK PLAINS","CLIFTON","ELLANGOWAN","ELPHINSTONE","HEADINGTON HILL","KINGS CREEK","MANAPOURI","MISSEN FLAT","MOUNT MOLAR","NEVILTON","PILTON","RYEFORD","SANDY CAMP","SPRING CREEK","UPPER PILTON","VICTORIA HILL"],"SA4_NAME_2016":"Darling Downs - Maranoa"},{"postcode":"4362","lat":-28.050522,"long":151.841358,"state":"QLD","localities":["ALLORA","DEUCHAR","GOOMBURRA","MOUNT MARSHALL"],"SA4_NAME_2016":"Darling Downs - Maranoa"},{"postcode":"4362","lat":-28.05152165,"long":152.0668027,"state":"QLD","localities":["BERAT"],"SA4_NAME_2016":"Darling Downs - Maranoa"},{"postcode":"4362","lat":-28.04817678,"long":151.917399,"state":"QLD","localities":["ELLINTHORP"],"SA4_NAME_2016":"Darling Downs - Maranoa"},{"postcode":"4362","lat":-28.07397446,"long":151.9622403,"state":"QLD","localities":["HENDON"],"SA4_NAME_2016":"Darling Downs - Maranoa"},{"postcode":"4362","lat":-28.03874008,"long":151.8857142,"state":"QLD","localities":["TALGAI"],"SA4_NAME_2016":"Darling Downs - Maranoa"},{"postcode":"4363","lat":-27.676647,"long":151.739695,"state":"QLD","localities":["SOUTHBROOK"],"SA4_NAME_2016":"Darling Downs - Maranoa"},{"postcode":"4364","lat":-27.710492,"long":151.396183,"state":"QLD","localities":["BROOKSTEAD"],"SA4_NAME_2016":"Darling Downs - Maranoa"},{"postcode":"4365","lat":-28.017149,"long":151.597527,"state":"QLD","localities":["LEYBURN"],"SA4_NAME_2016":"Darling Downs - Maranoa"},{"postcode":"4370","lat":-28.195678,"long":151.9514612,"state":"QLD","localities":["ALLAN"],"SA4_NAME_2016":"Darling Downs - Maranoa"},{"postcode":"4370","lat":-28.0937094,"long":151.8402136,"state":"QLD","localities":["BONY MOUNTAIN"],"SA4_NAME_2016":"Darling Downs - Maranoa"},{"postcode":"4370","lat":-28.24850774,"long":152.072553,"state":"QLD","localities":["CANNINGVALE"],"SA4_NAME_2016":"Darling Downs - Maranoa"},{"postcode":"4370","lat":-28.41854798,"long":152.0584895,"state":"QLD","localities":["CHERRY GULLY"],"SA4_NAME_2016":"Darling Downs - Maranoa"},{"postcode":"4370","lat":-28.259764,"long":152.055174,"state":"QLD","localities":["CLINTONVALE","CUNNINGHAM","ELBOW VALLEY","FREESTONE","GLADFIELD","GLENNIE HEIGHTS","JUNABEE","MARYVALE","MURRAYS BRIDGE","PRATTEN","ROSENTHAL","WARWICK","WARWICK DC"],"SA4_NAME_2016":"Darling Downs - Maranoa"},{"postcode":"4370","lat":-28.25277507,"long":152.2310658,"state":"QLD","localities":["DANDEROO"],"SA4_NAME_2016":"Darling Downs - Maranoa"},{"postcode":"4370","lat":-28.10636825,"long":152.0647857,"state":"QLD","localities":["GLENGALLAN"],"SA4_NAME_2016":"Darling Downs - Maranoa"},{"postcode":"4370","lat":-28.24435175,"long":151.7279735,"state":"QLD","localities":["GREYMARE"],"SA4_NAME_2016":"Darling Downs - Maranoa"},{"postcode":"4370","lat":-28.17681515,"long":151.9287826,"state":"QLD","localities":["LESLIE"],"SA4_NAME_2016":"Darling Downs - Maranoa"},{"postcode":"4370","lat":-28.25002969,"long":151.8967785,"state":"QLD","localities":["LESLIE DAM"],"SA4_NAME_2016":"Darling Downs - Maranoa"},{"postcode":"4370","lat":-28.33082119,"long":152.1853857,"state":"QLD","localities":["LOCH LOMOND"],"SA4_NAME_2016":"Darling Downs - Maranoa"},{"postcode":"4370","lat":-28.13428928,"long":151.9309278,"state":"QLD","localities":["MASSIE"],"SA4_NAME_2016":"Darling Downs - Maranoa"},{"postcode":"4370","lat":-28.15632114,"long":151.7789577,"state":"QLD","localities":["MONTROSE"],"SA4_NAME_2016":"Darling Downs - Maranoa"},{"postcode":"4370","lat":-28.26058742,"long":152.0430222,"state":"QLD","localities":["MORGAN PARK"],"SA4_NAME_2016":"Darling Downs - Maranoa"},{"postcode":"4370","lat":-28.25143782,"long":152.3653431,"state":"QLD","localities":["MOUNT COLLIERY"],"SA4_NAME_2016":"Darling Downs - Maranoa"},{"postcode":"4370","lat":-28.17189648,"long":152.207833,"state":"QLD","localities":["MOUNT STURT"],"SA4_NAME_2016":"Darling Downs - Maranoa"},{"postcode":"4370","lat":-28.21250204,"long":152.0609203,"state":"QLD","localities":["MOUNT TABOR"],"SA4_NAME_2016":"Darling Downs - Maranoa"},{"postcode":"4370","lat":-28.0205272,"long":152.3175407,"state":"QLD","localities":["NORTH BRANCH"],"SA4_NAME_2016":"Darling Downs - Maranoa"},{"postcode":"4370","lat":-28.22233044,"long":151.8326766,"state":"QLD","localities":["RODGERS CREEK"],"SA4_NAME_2016":"Darling Downs - Maranoa"},{"postcode":"4370","lat":-28.18270629,"long":151.9971528,"state":"QLD","localities":["ROSEHILL"],"SA4_NAME_2016":"Darling Downs - Maranoa"},{"postcode":"4370","lat":-28.25219048,"long":151.97053,"state":"QLD","localities":["ROSENTHAL HEIGHTS"],"SA4_NAME_2016":"Darling Downs - Maranoa"},{"postcode":"4370","lat":-28.35451428,"long":152.0084397,"state":"QLD","localities":["SILVERWOOD"],"SA4_NAME_2016":"Darling Downs - Maranoa"},{"postcode":"4370","lat":-28.16696646,"long":152.0850862,"state":"QLD","localities":["SLADEVALE"],"SA4_NAME_2016":"Darling Downs - Maranoa"},{"postcode":"4370","lat":-28.19754633,"long":152.1415476,"state":"QLD","localities":["SWAN CREEK"],"SA4_NAME_2016":"Darling Downs - Maranoa"},{"postcode":"4370","lat":-28.15692001,"long":151.707006,"state":"QLD","localities":["THANE"],"SA4_NAME_2016":"Darling Downs - Maranoa"},{"postcode":"4370","lat":-28.10347197,"long":151.6791543,"state":"QLD","localities":["THANES CREEK"],"SA4_NAME_2016":"Darling Downs - Maranoa"},{"postcode":"4370","lat":-28.35672171,"long":151.9173558,"state":"QLD","localities":["THE GLEN"],"SA4_NAME_2016":"Darling Downs - Maranoa"},{"postcode":"4370","lat":-28.20564803,"long":152.0942372,"state":"QLD","localities":["THE HERMITAGE"],"SA4_NAME_2016":"Darling Downs - Maranoa"},{"postcode":"4370","lat":-28.16725871,"long":151.9649109,"state":"QLD","localities":["TOOLBURRA"],"SA4_NAME_2016":"Darling Downs - Maranoa"},{"postcode":"4370","lat":-28.06617998,"long":152.3603826,"state":"QLD","localities":["TREGONY"],"SA4_NAME_2016":"Darling Downs - Maranoa"},{"postcode":"4370","lat":-28.1252221,"long":152.2153751,"state":"QLD","localities":["UPPER FREESTONE"],"SA4_NAME_2016":"Darling Downs - Maranoa"},{"postcode":"4370","lat":-28.14100682,"long":151.8749916,"state":"QLD","localities":["UPPER WHEATVALE"],"SA4_NAME_2016":"Darling Downs - Maranoa"},{"postcode":"4370","lat":-28.16457339,"long":151.8681429,"state":"QLD","localities":["WHEATVALE"],"SA4_NAME_2016":"Darling Downs - Maranoa"},{"postcode":"4370","lat":-28.33634415,"long":152.0626574,"state":"QLD","localities":["WILDASH"],"SA4_NAME_2016":"Darling Downs - Maranoa"},{"postcode":"4370","lat":-28.13498323,"long":152.0255225,"state":"QLD","localities":["WILLOWVALE"],"SA4_NAME_2016":"Darling Downs - Maranoa"},{"postcode":"4370","lat":-28.27772038,"long":152.1988742,"state":"QLD","localities":["WIYARRA"],"SA4_NAME_2016":"Darling Downs - Maranoa"},{"postcode":"4370","lat":-28.18048116,"long":152.0406741,"state":"QLD","localities":["WOMINA"],"SA4_NAME_2016":"Darling Downs - Maranoa"},{"postcode":"4371","lat":-28.199024,"long":152.234242,"state":"QLD","localities":["EMU VALE","SWANFELS","YANGAN"],"SA4_NAME_2016":"Darling Downs - Maranoa"},{"postcode":"4372","lat":-28.303067,"long":152.233089,"state":"QLD","localities":["TANNYMOREL"],"SA4_NAME_2016":"Darling Downs - Maranoa"},{"postcode":"4373","lat":-28.349373,"long":152.305204,"state":"QLD","localities":["KILLARNEY"],"SA4_NAME_2016":"Darling Downs - Maranoa"},{"postcode":"4373","lat":-28.31602867,"long":152.3836665,"state":"QLD","localities":["THE FALLS"],"SA4_NAME_2016":"Darling Downs - Maranoa"},{"postcode":"4373","lat":-28.26428492,"long":152.4411132,"state":"QLD","localities":["THE HEAD"],"SA4_NAME_2016":"Darling Downs - Maranoa"},{"postcode":"4374","lat":-28.463902,"long":151.744738,"state":"QLD","localities":["DALVEEN"],"SA4_NAME_2016":"Darling Downs - Maranoa"},{"postcode":"4375","lat":-28.516957,"long":151.875003,"state":"QLD","localities":["COTTONVALE"],"SA4_NAME_2016":"Darling Downs - Maranoa"},{"postcode":"4375","lat":-28.52776721,"long":151.9153278,"state":"QLD","localities":["FLEURBAIX"],"SA4_NAME_2016":"Darling Downs - Maranoa"},{"postcode":"4376","lat":-28.541494,"long":151.933783,"state":"QLD","localities":["THULIMBAH"],"SA4_NAME_2016":"Darling Downs - Maranoa"},{"postcode":"4377","lat":-28.58716707,"long":151.9729641,"state":"QLD","localities":["GLEN NIVEN"],"SA4_NAME_2016":"Darling Downs - Maranoa"},{"postcode":"4377","lat":-28.571936,"long":151.918897,"state":"QLD","localities":["THE SUMMIT"],"SA4_NAME_2016":"Darling Downs - Maranoa"},{"postcode":"4378","lat":-28.613948,"long":151.955491,"state":"QLD","localities":["APPLETHORPE"],"SA4_NAME_2016":"Darling Downs - Maranoa"},{"postcode":"4380","lat":-28.60158006,"long":151.8126377,"state":"QLD","localities":["AMIENS"],"SA4_NAME_2016":"Darling Downs - Maranoa"},{"postcode":"4380","lat":-28.6615014,"long":151.8743463,"state":"QLD","localities":["BROADWATER"],"SA4_NAME_2016":"Darling Downs - Maranoa"},{"postcode":"4380","lat":-28.60575342,"long":151.8740451,"state":"QLD","localities":["CANNON CREEK"],"SA4_NAME_2016":"Darling Downs - Maranoa"},{"postcode":"4380","lat":-28.66065376,"long":151.9892621,"state":"QLD","localities":["DALCOUTH"],"SA4_NAME_2016":"Darling Downs - Maranoa"},{"postcode":"4380","lat":-28.66238701,"long":151.9625837,"state":"QLD","localities":["DIAMONDVALE"],"SA4_NAME_2016":"Darling Downs - Maranoa"},{"postcode":"4380","lat":-28.664595,"long":151.675437,"state":"QLD","localities":["EUKEY","GREENLANDS","STANTHORPE"],"SA4_NAME_2016":"Darling Downs - Maranoa"},{"postcode":"4380","lat":-28.90901091,"long":151.4470343,"state":"QLD","localities":["GLENLYON"],"SA4_NAME_2016":"Darling Downs - Maranoa"},{"postcode":"4380","lat":-28.69490029,"long":151.9851642,"state":"QLD","localities":["KYOOMBA"],"SA4_NAME_2016":"Darling Downs - Maranoa"},{"postcode":"4380","lat":-28.7427235,"long":151.9463969,"state":"QLD","localities":["MOUNT TULLY"],"SA4_NAME_2016":"Darling Downs - Maranoa"},{"postcode":"4380","lat":-28.72462596,"long":151.7611772,"state":"QLD","localities":["NUNDUBBERMERE"],"SA4_NAME_2016":"Darling Downs - Maranoa"},{"postcode":"4380","lat":-28.63119612,"long":151.6579904,"state":"QLD","localities":["PIKEDALE"],"SA4_NAME_2016":"Darling Downs - Maranoa"},{"postcode":"4380","lat":-28.72479196,"long":151.5429848,"state":"QLD","localities":["PIKES CREEK"],"SA4_NAME_2016":"Darling Downs - Maranoa"},{"postcode":"4380","lat":-28.70390012,"long":151.9150596,"state":"QLD","localities":["SEVERNLEA"],"SA4_NAME_2016":"Darling Downs - Maranoa"},{"postcode":"4380","lat":-28.81188447,"long":151.565695,"state":"QLD","localities":["SPRINGDALE"],"SA4_NAME_2016":"Darling Downs - Maranoa"},{"postcode":"4380","lat":-28.72705422,"long":151.9796679,"state":"QLD","localities":["STORM KING"],"SA4_NAME_2016":"Darling Downs - Maranoa"},{"postcode":"4380","lat":-28.71018007,"long":152.0307843,"state":"QLD","localities":["SUGARLOAF"],"SA4_NAME_2016":"Darling Downs - Maranoa"},{"postcode":"4380","lat":-28.70398259,"long":151.8568697,"state":"QLD","localities":["THORNDALE"],"SA4_NAME_2016":"Darling Downs - Maranoa"},{"postcode":"4381","lat":-28.77023423,"long":151.8704639,"state":"QLD","localities":["FLETCHER"],"SA4_NAME_2016":"Darling Downs - Maranoa"},{"postcode":"4381","lat":-28.743816,"long":151.839611,"state":"QLD","localities":["GLEN APLIN"],"SA4_NAME_2016":"Darling Downs - Maranoa"},{"postcode":"4382","lat":-28.845315,"long":151.847374,"state":"QLD","localities":["BALLANDEAN","WYBERBA"],"SA4_NAME_2016":"Darling Downs - Maranoa"},{"postcode":"4382","lat":-28.85046843,"long":151.9652734,"state":"QLD","localities":["GIRRAWEEN"],"SA4_NAME_2016":"Darling Downs - Maranoa"},{"postcode":"4382","lat":-28.8307278,"long":151.8630528,"state":"QLD","localities":["LYRA"],"SA4_NAME_2016":"Darling Downs - Maranoa"},{"postcode":"4382","lat":-28.76968123,"long":151.7986913,"state":"QLD","localities":["SOMME"],"SA4_NAME_2016":"Darling Downs - Maranoa"},{"postcode":"4383","lat":-28.904615,"long":151.948363,"state":"QLD","localities":["WALLANGARRA"],"SA4_NAME_2016":"Darling Downs - Maranoa"},{"postcode":"4384","lat":-28.728006,"long":151.183208,"state":"QLD","localities":["LIMEVALE"],"SA4_NAME_2016":"Darling Downs - Maranoa"},{"postcode":"4385","lat":-28.777563,"long":151.24801,"state":"QLD","localities":["BEEBO","BONSHAW","GLENARBON","MAIDENHEAD","RIVERTON","SILVER SPUR","SMITHLEA","TEXAS","WATSONS CROSSING"],"SA4_NAME_2016":"Darling Downs - Maranoa"},{"postcode":"4387","lat":-28.341631,"long":150.967836,"state":"QLD","localities":["BRUSH CREEK","BYBERA","COOLMUNDA","GREENUP","INGLEWOOD","MOSQUITO CREEK","TERRICA","WARROO","WHETSTONE"],"SA4_NAME_2016":"Darling Downs - Maranoa"},{"postcode":"4388","lat":-28.508802,"long":150.646259,"state":"QLD","localities":["KURUMBUL","YELARBON"],"SA4_NAME_2016":"Darling Downs - Maranoa"},{"postcode":"4390","lat":-28.228906,"long":150.321016,"state":"QLD","localities":["BILLA BILLA","CALINGUNEE","CALLANDOON","GOODAR","GOONDIWINDI","KINDON","LUNDAVRA","WONDALLI","WYAGA","YAGABURNE"],"SA4_NAME_2016":"Darling Downs - Maranoa"},{"postcode":"4400","lat":-27.4855,"long":151.856298,"state":"QLD","localities":["KINGSTHORPE"],"SA4_NAME_2016":"Toowoomba"},{"postcode":"4401","lat":-27.473135,"long":151.703647,"state":"QLD","localities":["ACLAND","AUBIGNY","BALGOWAN","BIDDESTON","BOODUA","DEVON PARK","GREENWOOD","HIGHLAND PLAINS","KELVINHAUGH","MOUNT IRVING","MULDU","OAKEY","ROSALIE PLAINS","SABINE","SILVERLEIGH","YARGULLEN"],"SA4_NAME_2016":"Darling Downs - Maranoa"},{"postcode":"4402","lat":-26.978981,"long":151.803967,"state":"QLD","localities":["COOYAR","KOORALGIN","UPPER COOYAR CREEK"],"SA4_NAME_2016":"Darling Downs - Maranoa"},{"postcode":"4403","lat":-27.320633,"long":151.596963,"state":"QLD","localities":["BRYMAROO","JONDARYAN","MALU","MOUNT MORIAH","QUINALOW","WEST PRAIRIE"],"SA4_NAME_2016":"Darling Downs - Maranoa"},{"postcode":"4404","lat":-27.33128,"long":151.480666,"state":"QLD","localities":["BOWENVILLE","FORMARTIN","IRVINGDALE","WAINUI"],"SA4_NAME_2016":"Darling Downs - Maranoa"},{"postcode":"4405","lat":-27.316799,"long":150.910979,"state":"QLD","localities":["BLAXLAND","BRAEMAR FOREST","BROADWATER","BUNYA MOUNTAINS","DAANDINE","DALBY","GRASSDALE","KUPUNN","MALAKOFF","PIRRINUAN","RANGES BRIDGE","ST RUTH","TIPTON","WERANGA","YAMSION"],"SA4_NAME_2016":"Darling Downs - Maranoa"},{"postcode":"4405","lat":-27.27643644,"long":151.0351483,"state":"QLD","localities":["DUCKLO"],"SA4_NAME_2016":"Darling Downs - Maranoa"},{"postcode":"4405","lat":-27.26215846,"long":150.8985785,"state":"QLD","localities":["KUMBARILLA"],"SA4_NAME_2016":"Darling Downs - Maranoa"},{"postcode":"4405","lat":-27.46226247,"long":150.7147545,"state":"QLD","localities":["MARMADUA"],"SA4_NAME_2016":"Darling Downs - Maranoa"},{"postcode":"4405","lat":-26.89905554,"long":151.6086995,"state":"QLD","localities":["MOWBULLAN"],"SA4_NAME_2016":"Darling Downs - Maranoa"},{"postcode":"4406","lat":-27.064207,"long":151.433657,"state":"QLD","localities":["BOONDANDILLA","HANNAFORD","JIMBOUR","KAIMKILLENBUN","KOGAN","MACALISTER","MOONIE","THE GUMS","WEIR RIVER"],"SA4_NAME_2016":"Darling Downs - Maranoa"},{"postcode":"4406","lat":-27.03692819,"long":151.5475694,"state":"QLD","localities":["MOOLA"],"SA4_NAME_2016":"Darling Downs - Maranoa"},{"postcode":"4406","lat":-27.84190417,"long":150.004975,"state":"QLD","localities":["SOUTHWOOD"],"SA4_NAME_2016":"Darling Downs - Maranoa"},{"postcode":"4407","lat":-27.563685,"long":150.961981,"state":"QLD","localities":["CATTLE CREEK","CECIL PLAINS","DUNMORE","NANGWEE"],"SA4_NAME_2016":"Darling Downs - Maranoa"},{"postcode":"4408","lat":-26.851248,"long":151.426657,"state":"QLD","localities":["BELL","COORANGA NORTH"],"SA4_NAME_2016":"Darling Downs - Maranoa"},{"postcode":"4410","lat":-26.731753,"long":151.083543,"state":"QLD","localities":["JANDOWAE"],"SA4_NAME_2016":"Darling Downs - Maranoa"},{"postcode":"4411","lat":-27.013381,"long":150.812644,"state":"QLD","localities":["WARRA"],"SA4_NAME_2016":"Darling Downs - Maranoa"},{"postcode":"4412","lat":-26.827837,"long":150.807058,"state":"QLD","localities":["BRIGALOW"],"SA4_NAME_2016":"Darling Downs - Maranoa"},{"postcode":"4413","lat":-26.360226,"long":150.638563,"state":"QLD","localities":["BAKING BOARD","BOONARGA","BURNCLUITH","CANAGA","CHANCES PLAINS","CHINCHILLA","DURAH","HOPELAND","MONTROSE","WIEAMBILLA"],"SA4_NAME_2016":"Darling Downs - Maranoa"},{"postcode":"4413","lat":-26.63319425,"long":150.4704649,"state":"QLD","localities":["CAMEBY"],"SA4_NAME_2016":"Darling Downs - Maranoa"},{"postcode":"4413","lat":-26.7374198,"long":150.7457441,"state":"QLD","localities":["CHANCES PLAIN"],"SA4_NAME_2016":"Darling Downs - Maranoa"},{"postcode":"4413","lat":-26.88698375,"long":150.4984777,"state":"QLD","localities":["CROSSROADS"],"SA4_NAME_2016":"Darling Downs - Maranoa"},{"postcode":"4415","lat":-26.627339,"long":150.205114,"state":"QLD","localities":["BOORTKOI","COLUMBOOLA","DALWOGAN","GURULMUNDI","HOOKSWOOD","KOWGURAN","MILES","MYALL PARK","PELHAM"],"SA4_NAME_2016":"Darling Downs - Maranoa"},{"postcode":"4415","lat":-26.57325726,"long":150.0870042,"state":"QLD","localities":["DALWOGON"],"SA4_NAME_2016":"Darling Downs - Maranoa"},{"postcode":"4416","lat":-26.995752,"long":149.798038,"state":"QLD","localities":["BARRAMORNIE","CONDAMINE","MORABY","NANGRAM","PINE HILLS","SUNNYSIDE","YULABILLA"],"SA4_NAME_2016":"Darling Downs - Maranoa"},{"postcode":"4417","lat":-27.348199,"long":149.070172,"state":"QLD","localities":["NOORINDOO","OBERINA","PARKNOOK","SURAT","WARKON","WELLESLEY","WERIBONE"],"SA4_NAME_2016":"Darling Downs - Maranoa"},{"postcode":"4418","lat":-26.290166,"long":150.143323,"state":"QLD","localities":["GULUGUBA"],"SA4_NAME_2016":"Darling Downs - Maranoa"},{"postcode":"4419","lat":-26.07176,"long":149.782504,"state":"QLD","localities":["COCKATOO","GROSMONT","WANDOAN"],"SA4_NAME_2016":"Central Queensland"},{"postcode":"4420","lat":-25.382928,"long":149.547307,"state":"QLD","localities":["BROADMERE","COORADA","GHINGHINDA","GLENHAUGHTON","GWAMBEGWINE","HORNET BANK","PEEK-A-DOO","SPRING CREEK","TAROOM"],"SA4_NAME_2016":"Central Queensland"},{"postcode":"4421","lat":-27.324371,"long":150.444304,"state":"QLD","localities":["GORANBA","TARA"],"SA4_NAME_2016":"Darling Downs - Maranoa"},{"postcode":"4422","lat":-27.57379527,"long":149.5902729,"state":"QLD","localities":["COOMRITH"],"SA4_NAME_2016":"Darling Downs - Maranoa"},{"postcode":"4422","lat":-27.85752038,"long":149.5622122,"state":"QLD","localities":["FLINTON"],"SA4_NAME_2016":"Darling Downs - Maranoa"},{"postcode":"4422","lat":-27.62267496,"long":149.7908446,"state":"QLD","localities":["INGLESTONE"],"SA4_NAME_2016":"Darling Downs - Maranoa"},{"postcode":"4422","lat":-27.68195,"long":149.709428,"state":"QLD","localities":["MEANDARRA"],"SA4_NAME_2016":"Darling Downs - Maranoa"},{"postcode":"4422","lat":-27.88867614,"long":149.7572563,"state":"QLD","localities":["WESTMAR"],"SA4_NAME_2016":"Darling Downs - Maranoa"},{"postcode":"4423","lat":-27.383801,"long":149.525379,"state":"QLD","localities":["COOMRITH","GLENMORGAN","TEELBA"],"SA4_NAME_2016":"Darling Downs - Maranoa"},{"postcode":"4424","lat":-26.598388,"long":149.960268,"state":"QLD","localities":["DRILLHAM","DRILLHAM SOUTH","GLENAUBYN"],"SA4_NAME_2016":"Darling Downs - Maranoa"},{"postcode":"4425","lat":-26.649074,"long":149.773144,"state":"QLD","localities":["BOGANDILLA","DULACCA"],"SA4_NAME_2016":"Darling Downs - Maranoa"},{"postcode":"4426","lat":-26.539914,"long":149.590426,"state":"QLD","localities":["JACKSON","JACKSON NORTH","JACKSON SOUTH"],"SA4_NAME_2016":"Darling Downs - Maranoa"},{"postcode":"4427","lat":-26.75002,"long":149.381938,"state":"QLD","localities":["CLIFFORD","YULEBA","YULEBA NORTH","YULEBA SOUTH"],"SA4_NAME_2016":"Darling Downs - Maranoa"},{"postcode":"4428","lat":-26.40373,"long":149.206489,"state":"QLD","localities":["PICKANJINNIE","WALLUMBILLA","WALLUMBILLA NORTH","WALLUMBILLA SOUTH"],"SA4_NAME_2016":"Darling Downs - Maranoa"},{"postcode":"4454","lat":-25.55725,"long":148.589834,"state":"QLD","localities":["BAFFLE WEST","BEILBA","DURHAM DOWNS","HIGHLAND PLAINS","HUTTON CREEK","INJUNE","MOUNT HUTTON","PONY HILLS","SIMMIE","UPPER DAWSON","WESTGROVE"],"SA4_NAME_2016":"Darling Downs - Maranoa"},{"postcode":"4455","lat":-26.73282,"long":148.690231,"state":"QLD","localities":["ANGELLALA","BALLAROO","BLYTHDALE","BUNGEWORGORAI","BUNGIL","BYMOUNT","CORNWALL","DARGAL ROAD","EUMAMURRIN","EUTHULLA","GUNNEWIN","HODGSON","MOOGA","MOUNT ABUNDANCE","MOUNT BINDANGO","ORALLO","ORANGE HILL","ROMA","TINGUN","WYCOMBE"],"SA4_NAME_2016":"Queensland - Outback"},{"postcode":"4461","lat":-26.663912,"long":148.293883,"state":"QLD","localities":["MUCKADILLA"],"SA4_NAME_2016":"Darling Downs - Maranoa"},{"postcode":"4462","lat":-26.509225,"long":148.190376,"state":"QLD","localities":["AMBY"],"SA4_NAME_2016":"Darling Downs - Maranoa"},{"postcode":"4465","lat":-26.33317,"long":147.921117,"state":"QLD","localities":["DUNKELD","MITCHELL"],"SA4_NAME_2016":"Darling Downs - Maranoa"},{"postcode":"4465","lat":-25.99758942,"long":147.8868881,"state":"QLD","localities":["FORESTVALE"],"SA4_NAME_2016":"Darling Downs - Maranoa"},{"postcode":"4465","lat":-26.83332366,"long":147.8117178,"state":"QLD","localities":["V GATE"],"SA4_NAME_2016":"Darling Downs - Maranoa"},{"postcode":"4465","lat":-26.55357444,"long":147.8080235,"state":"QLD","localities":["WOMALILLA"],"SA4_NAME_2016":"Darling Downs - Maranoa"},{"postcode":"4467","lat":-26.23368,"long":147.490282,"state":"QLD","localities":["MUNGALLALA"],"SA4_NAME_2016":"Darling Downs - Maranoa"},{"postcode":"4467","lat":-25.93994518,"long":147.4099489,"state":"QLD","localities":["REDFORD"],"SA4_NAME_2016":"Darling Downs - Maranoa"},{"postcode":"4467","lat":-26.26329299,"long":147.5374764,"state":"QLD","localities":["TYRCONNEL"],"SA4_NAME_2016":"Darling Downs - Maranoa"},{"postcode":"4468","lat":-26.0902162,"long":146.9228145,"state":"QLD","localities":["CLARA CREEK"],"SA4_NAME_2016":"Queensland - Outback"},{"postcode":"4468","lat":-26.600192,"long":147.026276,"state":"QLD","localities":["MORVEN"],"SA4_NAME_2016":"Queensland - Outback"},{"postcode":"4470","lat":-26.73025809,"long":146.0999607,"state":"QLD","localities":["BAKERS BEND"],"SA4_NAME_2016":"Queensland - Outback"},{"postcode":"4470","lat":-26.208628,"long":145.958063,"state":"QLD","localities":["CHARLEVILLE"],"SA4_NAME_2016":"Queensland - Outback"},{"postcode":"4470","lat":-26.15513092,"long":146.4317226,"state":"QLD","localities":["GOWRIE STATION"],"SA4_NAME_2016":"Queensland - Outback"},{"postcode":"4470","lat":-26.03523104,"long":145.7197869,"state":"QLD","localities":["LANGLO"],"SA4_NAME_2016":"Queensland - Outback"},{"postcode":"4470","lat":-26.93045501,"long":145.7390909,"state":"QLD","localities":["MURWEH"],"SA4_NAME_2016":"Queensland - Outback"},{"postcode":"4470","lat":-26.85082304,"long":146.4921875,"state":"QLD","localities":["RIVERSLEIGH"],"SA4_NAME_2016":"Queensland - Outback"},{"postcode":"4470","lat":-25.68590212,"long":146.2406534,"state":"QLD","localities":["WARD"],"SA4_NAME_2016":"Queensland - Outback"},{"postcode":"4471","lat":-27.631116,"long":145.892163,"state":"QLD","localities":["CLAVERTON","NARDOO SIDING"],"SA4_NAME_2016":"Queensland - Outback"},{"postcode":"4472","lat":-24.784155,"long":145.141177,"state":"QLD","localities":["BLACKALL","MOUNT ENNISKILLEN"],"SA4_NAME_2016":"Queensland - Outback"},{"postcode":"4474","lat":-25.666985,"long":144.495283,"state":"QLD","localities":["ADAVALE"],"SA4_NAME_2016":"Queensland - Outback"},{"postcode":"4475","lat":-26.844909,"long":144.975368,"state":"QLD","localities":["CHEEPIE"],"SA4_NAME_2016":"Queensland - Outback"},{"postcode":"4477","lat":-25.444837,"long":147.059769,"state":"QLD","localities":["AUGATHELLA"],"SA4_NAME_2016":"Queensland - Outback"},{"postcode":"4477","lat":-25.15423668,"long":147.3189625,"state":"QLD","localities":["UPPER WARREGO"],"SA4_NAME_2016":"Queensland - Outback"},{"postcode":"4478","lat":-24.889395,"long":146.399409,"state":"QLD","localities":["BAYRICK","CALDERVALE","LANSDOWNE","LUMEAH","MACFARLANE","MINNIE DOWNS","SCRUBBY CREEK","TAMBO","WINDEYER","YANDARLO"],"SA4_NAME_2016":"Queensland - Outback"},{"postcode":"4479","lat":-26.724017,"long":145.397502,"state":"QLD","localities":["COOLADDI"],"SA4_NAME_2016":"Queensland - Outback"},{"postcode":"4480","lat":-26.248504,"long":143.274156,"state":"QLD","localities":["EROMANGA","QUILPIE"],"SA4_NAME_2016":"Queensland - Outback"},{"postcode":"4481","lat":-25.377582,"long":141.581266,"state":"QLD","localities":["FARRARS CREEK","TANBAR","WINDORAH"],"SA4_NAME_2016":"Queensland - Outback"},{"postcode":"4482","lat":-25.60309,"long":139.323274,"state":"QLD","localities":["BIRDSVILLE"],"SA4_NAME_2016":"Queensland - Outback"},{"postcode":"4486","lat":-28.61221,"long":147.830117,"state":"QLD","localities":["DIRRANBANDI","HEBEL"],"SA4_NAME_2016":"Darling Downs - Maranoa"},{"postcode":"4487","lat":-27.931188,"long":148.408512,"state":"QLD","localities":["BEGONIA","ST GEORGE"],"SA4_NAME_2016":"Darling Downs - Maranoa"},{"postcode":"4488","lat":-28.110523,"long":146.990784,"state":"QLD","localities":["BOLLON","NEBINE"],"SA4_NAME_2016":"Darling Downs - Maranoa"},{"postcode":"4489","lat":-27.258572,"long":145.655744,"state":"QLD","localities":["WYANDRA"],"SA4_NAME_2016":"Queensland - Outback"},{"postcode":"4490","lat":-28.418047,"long":145.596265,"state":"QLD","localities":["BARRINGUN","COONGOOLA","CUNNAMULLA","CUTTABURRA","HUMEBURN","JOBS GATE","LINDEN","NOORAMA","TUEN","WIDGEEGOARA","YOWAH"],"SA4_NAME_2016":"Queensland - Outback"},{"postcode":"4491","lat":-27.91583,"long":145.083656,"state":"QLD","localities":["EULO"],"SA4_NAME_2016":"Queensland - Outback"},{"postcode":"4492","lat":-27.99380024,"long":143.3368723,"state":"QLD","localities":["BULLAWARRA"],"SA4_NAME_2016":"Queensland - Outback"},{"postcode":"4492","lat":-28.59712241,"long":142.8549438,"state":"QLD","localities":["BULLOO DOWNS"],"SA4_NAME_2016":"Queensland - Outback"},{"postcode":"4492","lat":-28.2963544,"long":144.1330121,"state":"QLD","localities":["DYNEVOR"],"SA4_NAME_2016":"Queensland - Outback"},{"postcode":"4492","lat":-27.84193075,"long":142.6582072,"state":"QLD","localities":["NOCKATUNGA"],"SA4_NAME_2016":"Queensland - Outback"},{"postcode":"4492","lat":-27.68466532,"long":143.7768376,"state":"QLD","localities":["NORLEY"],"SA4_NAME_2016":"Queensland - Outback"},{"postcode":"4492","lat":-28.190899,"long":143.224764,"state":"QLD","localities":["THARGOMINDAH"],"SA4_NAME_2016":"Queensland - Outback"},{"postcode":"4493","lat":-28.941714,"long":144.560358,"state":"QLD","localities":["HUNGERFORD"],"SA4_NAME_2016":"Queensland - Outback"},{"postcode":"4494","lat":-28.143515,"long":149.606552,"state":"QLD","localities":["BUNGUNYA","NORTH BUNGUNYA","TARAWERA"],"SA4_NAME_2016":"Darling Downs - Maranoa"},{"postcode":"4496","lat":-28.364992,"long":149.267966,"state":"QLD","localities":["NORTH TALWOOD","SOUTH TALWOOD","TALWOOD"],"SA4_NAME_2016":"Darling Downs - Maranoa"},{"postcode":"4497","lat":-28.645485,"long":148.753584,"state":"QLD","localities":["DAYMAR","THALLON","WEENGALLON"],"SA4_NAME_2016":"Darling Downs - Maranoa"},{"postcode":"4498","lat":-28.415979,"long":149.824698,"state":"QLD","localities":["KIOMA","TOOBEAH"],"SA4_NAME_2016":"Darling Downs - Maranoa"},{"postcode":"4500","lat":-27.307845,"long":152.939438,"state":"QLD","localities":["BRAY PARK","BRENDALE","BRENDALE BC","BRENDALE DC","CASHMERE","CLEAR MOUNTAIN","JOYNER","STRATHPINE","STRATHPINE CENTRE","STRATHPINE CITY","WARNER"],"SA4_NAME_2016":"Moreton Bay - South"},{"postcode":"4501","lat":-27.277628,"long":152.946201,"state":"QLD","localities":["LAWNTON"],"SA4_NAME_2016":"Moreton Bay - South"},{"postcode":"4502","lat":-27.264974,"long":152.966813,"state":"QLD","localities":["FRENCHS FOREST","PETRIE"],"SA4_NAME_2016":"Moreton Bay - South"},{"postcode":"4503","lat":-27.240638,"long":152.993187,"state":"QLD","localities":["DAKABIN","DOHLES ROCKS","GRIFFIN","KALLANGUR","KURWONGBAH","MURRUMBA DOWNS","WHITESIDE"],"SA4_NAME_2016":"Moreton Bay - South"},{"postcode":"4504","lat":-27.186624,"long":152.932083,"state":"QLD","localities":["NARANGBA"],"SA4_NAME_2016":"Moreton Bay - North"},{"postcode":"4505","lat":-27.153669,"long":152.976886,"state":"QLD","localities":["BURPENGARY","BURPENGARY DC"],"SA4_NAME_2016":"Moreton Bay - North"},{"postcode":"4505","lat":-27.14126334,"long":153.0042078,"state":"QLD","localities":["BURPENGARY EAST"],"SA4_NAME_2016":"Moreton Bay - North"},{"postcode":"4506","lat":-27.128401,"long":152.936289,"state":"QLD","localities":["MOORINA","MORAYFIELD"],"SA4_NAME_2016":"Moreton Bay - North"},{"postcode":"4507","lat":-26.987776,"long":153.12414,"state":"QLD","localities":["BANKSIA BEACH","BELLARA","BONGAREE","BRIBIE ISLAND","BRIBIE ISLAND DC","BRIBIE ISLAND NORTH","WELSBY","WHITE PATCH","WOORIM"],"SA4_NAME_2016":"Moreton Bay - North"},{"postcode":"4508","lat":-27.181203,"long":153.013716,"state":"QLD","localities":["DECEPTION BAY"],"SA4_NAME_2016":"Moreton Bay - North"},{"postcode":"4509","lat":-27.232691,"long":153.017319,"state":"QLD","localities":["MANGO HILL"],"SA4_NAME_2016":"Moreton Bay - South"},{"postcode":"4509","lat":-27.22196846,"long":153.0138289,"state":"QLD","localities":["NORTH LAKES"],"SA4_NAME_2016":"Moreton Bay - South"},{"postcode":"4510","lat":-27.070177,"long":152.960273,"state":"QLD","localities":["BALINGOOL","BEACHMERE","BELLMERE","CABOOLTURE","CABOOLTURE SOUTH","DONNYBROOK","MELDALE","MOODLU","ROCKSBERG","TOORBUL","UPPER CABOOLTURE"],"SA4_NAME_2016":"Moreton Bay - North"},{"postcode":"4511","lat":-27.077933,"long":153.080799,"state":"QLD","localities":["GODWIN BEACH","NINGI","SANDSTONE POINT"],"SA4_NAME_2016":"Moreton Bay - North"},{"postcode":"4512","lat":-27.022484,"long":152.858311,"state":"QLD","localities":["BRACALBA","WAMURAN","WAMURAN BASIN"],"SA4_NAME_2016":"Moreton Bay - North"},{"postcode":"4514","lat":-26.91784,"long":152.760081,"state":"QLD","localities":["BELLTHORPE","CEDARTON","COMMISSIONERS FLAT","D'AGUILAR","DELANEYS CREEK","MOUNT DELANEY","NEURUM","STANMORE","STONY CREEK","VILLENEUVE","WOODFORD"],"SA4_NAME_2016":"Moreton Bay - North"},{"postcode":"4514","lat":-27.00126073,"long":152.6632114,"state":"QLD","localities":["MOUNT ARCHER"],"SA4_NAME_2016":"Moreton Bay - North"},{"postcode":"4515","lat":-26.97065604,"long":152.6006869,"state":"QLD","localities":["GLENFERN"],"SA4_NAME_2016":"Moreton Bay - North"},{"postcode":"4515","lat":-27.03183533,"long":152.540382,"state":"QLD","localities":["HAZELDEAN"],"SA4_NAME_2016":"Moreton Bay - North"},{"postcode":"4515","lat":-26.87578,"long":152.503797,"state":"QLD","localities":["JIMNA","KILCOY"],"SA4_NAME_2016":"Moreton Bay - North"},{"postcode":"4515","lat":-26.54057575,"long":152.3776757,"state":"QLD","localities":["KINGAHAM"],"SA4_NAME_2016":"Moreton Bay - North"},{"postcode":"4515","lat":-26.72138111,"long":152.3763753,"state":"QLD","localities":["MONSILDALE"],"SA4_NAME_2016":"Moreton Bay - North"},{"postcode":"4515","lat":-26.84105496,"long":152.5794083,"state":"QLD","localities":["MOUNT KILCOY"],"SA4_NAME_2016":"Moreton Bay - North"},{"postcode":"4515","lat":-26.92275763,"long":152.6547687,"state":"QLD","localities":["ROYSTON"],"SA4_NAME_2016":"Moreton Bay - North"},{"postcode":"4515","lat":-26.85258718,"long":152.6381848,"state":"QLD","localities":["SANDY CREEK"],"SA4_NAME_2016":"Moreton Bay - North"},{"postcode":"4515","lat":-26.84934234,"long":152.4920925,"state":"QLD","localities":["SHEEP STATION CREEK"],"SA4_NAME_2016":"Moreton Bay - North"},{"postcode":"4515","lat":-26.9377296,"long":152.5824832,"state":"QLD","localities":["WINYA"],"SA4_NAME_2016":"Moreton Bay - North"},{"postcode":"4515","lat":-26.94116786,"long":152.4987372,"state":"QLD","localities":["WOOLMAR"],"SA4_NAME_2016":"Moreton Bay - North"},{"postcode":"4516","lat":-27.005542,"long":152.957238,"state":"QLD","localities":["ELIMBAH"],"SA4_NAME_2016":"Moreton Bay - North"},{"postcode":"4517","lat":-26.951082,"long":152.987647,"state":"QLD","localities":["BEERBURRUM"],"SA4_NAME_2016":"Sunshine Coast"},{"postcode":"4518","lat":-26.902425,"long":152.986033,"state":"QLD","localities":["GLASS HOUSE MOUNTAINS"],"SA4_NAME_2016":"Sunshine Coast"},{"postcode":"4519","lat":-26.849388,"long":152.91803,"state":"QLD","localities":["BEERWAH","COOCHIN CREEK","CROHAMHURST","PEACHESTER"],"SA4_NAME_2016":"Sunshine Coast"},{"postcode":"4520","lat":-27.22803309,"long":152.7947739,"state":"QLD","localities":["ARMSTRONG CREEK"],"SA4_NAME_2016":"Moreton Bay - South"},{"postcode":"4520","lat":-27.322775,"long":152.814527,"state":"QLD","localities":["CAMP MOUNTAIN","CEDAR CREEK","CLOSEBURN","DRAPER","ENOGGERA RESERVOIR","HIGHVALE","JOLLYS LOOKOUT","KOBBLE CREEK","MOUNT GLORIOUS","MOUNT NEBO","MOUNT SAMSON","SAMFORD","SAMFORD VALLEY","SAMFORD VILLAGE","SAMSONVALE","WIGHTS MOUNTAIN","YUGAR"],"SA4_NAME_2016":"Moreton Bay - South"},{"postcode":"4521","lat":-27.169774,"long":152.786172,"state":"QLD","localities":["CAMPBELLS POCKET","DAYBORO","KING SCRUB","LACEYS CREEK","MOUNT MEE","MOUNT PLEASANT","OCEAN VIEW","RUSH CREEK"],"SA4_NAME_2016":"Moreton Bay - North"},{"postcode":"4550","lat":-26.812085,"long":152.971346,"state":"QLD","localities":["LANDSBOROUGH","MOUNT MELLUM"],"SA4_NAME_2016":"Sunshine Coast"},{"postcode":"4551","lat":-26.828067,"long":153.088435,"state":"QLD","localities":["AROONA","BATTERY HILL","BELLS CREEK","CALOUNDRA","CALOUNDRA BC","CALOUNDRA DC","CALOUNDRA WEST","CURRIMUNDI","DIAMOND HEAD","DICKY BEACH","GOLDEN BEACH","KINGS BEACH","LITTLE MOUNTAIN","MERIDAN PLAINS","MOFFAT BEACH","PELICAN WATERS","SHELLY BEACH"],"SA4_NAME_2016":"Sunshine Coast"},{"postcode":"4551","lat":-26.81040958,"long":153.0830469,"state":"QLD","localities":["BARINGA"],"SA4_NAME_2016":"Sunshine Coast"},{"postcode":"4552","lat":-26.734305,"long":152.766898,"state":"QLD","localities":["BALD KNOB","BALMORAL RIDGE","BAROON POCKET","BOOROOBIN","CAMBROON","CONONDALE","CRYSTAL WATERS","CURRAMORE","ELAMAN CREEK","HARPER CREEK","MALENY","MOUNTAIN VIEW","NORTH MALENY","REESVILLE","WITTA","WOOTHA"],"SA4_NAME_2016":"Sunshine Coast"},{"postcode":"4553","lat":-26.771797,"long":153.017962,"state":"QLD","localities":["DIAMOND VALLEY","GLENVIEW","MOOLOOLAH","MOOLOOLAH VALLEY","PALMVIEW"],"SA4_NAME_2016":"Sunshine Coast"},{"postcode":"4554","lat":-26.731692,"long":152.965037,"state":"QLD","localities":["EUDLO","ILKLEY"],"SA4_NAME_2016":"Sunshine Coast"},{"postcode":"4555","lat":-26.691701,"long":152.95452,"state":"QLD","localities":["CHEVALLUM","HUNCHY","LANDERS SHOOT","PALMWOODS"],"SA4_NAME_2016":"Sunshine Coast"},{"postcode":"4556","lat":-26.700379,"long":153.049784,"state":"QLD","localities":["BUDERIM","FOREST GLEN","KUNDA PARK","MONS","SIPPY DOWNS","TANAWHA"],"SA4_NAME_2016":"Sunshine Coast"},{"postcode":"4557","lat":-26.686321,"long":153.113416,"state":"QLD","localities":["MOOLOOLABA","MOUNTAIN CREEK"],"SA4_NAME_2016":"Sunshine Coast"},{"postcode":"4558","lat":-26.655067,"long":153.075373,"state":"QLD","localities":["COTTON TREE","KULUIN","MAROOCHYDORE","MAROOCHYDORE BC","MAROOCHYDORE DC","MAROOCHYDORE SOUTH","SUNSHINE PLAZA"],"SA4_NAME_2016":"Sunshine Coast"},{"postcode":"4559","lat":-26.66324,"long":152.965013,"state":"QLD","localities":["DIDDILLIBAH","KIELS MOUNTAIN","WEST WOOMBYE","WOOMBYE"],"SA4_NAME_2016":"Sunshine Coast"},{"postcode":"4560","lat":-26.635087,"long":152.917384,"state":"QLD","localities":["BLI BLI","BURNSIDE","COES CREEK","COOLOOLABIN","DULONG","FLAXTON","HIGHWORTH","IMAGE FLAT","KIAMBA","KULANGOOR","KUREELPA","MAPLETON","MONTVILLE","NAMBOUR","NAMBOUR BC","NAMBOUR DC","NAMBOUR WEST","PARKLANDS","PERWILLOWEN","ROSEMOUNT","SUNSHINE COAST MC","TOWEN MOUNTAIN"],"SA4_NAME_2016":"Sunshine Coast"},{"postcode":"4561","lat":-26.531487,"long":152.964814,"state":"QLD","localities":["BRIDGES","MAROOCHY RIVER","NINDERRY","NORTH ARM","VALDORA","YANDINA","YANDINA CREEK"],"SA4_NAME_2016":"Sunshine Coast"},{"postcode":"4562","lat":-26.505863,"long":152.803089,"state":"QLD","localities":["BELLI PARK","DOONAN","EERWAH VALE","EUMUNDI","VERRIERDALE","WEYBA DOWNS"],"SA4_NAME_2016":"Sunshine Coast"},{"postcode":"4563","lat":-26.425754,"long":152.909206,"state":"QLD","localities":["BLACK MOUNTAIN","CARTERS RIDGE","COOROY","COOROY MOUNTAIN","LAKE MACDONALD","RIDGEWOOD","SUNRISE HILLS","TINBEERWAH"],"SA4_NAME_2016":"Sunshine Coast"},{"postcode":"4564","lat":-26.612359,"long":153.079239,"state":"QLD","localities":["MARCOOLA","MUDJIMBA","PACIFIC PARADISE","TWIN WATERS"],"SA4_NAME_2016":"Sunshine Coast"},{"postcode":"4565","lat":-26.156837,"long":153.042307,"state":"QLD","localities":["BOREEN","BOREEN POINT","COOROIBAH","COOTHARABA","LAKE COOTHARABA","NORTH SHORE","RINGTAIL CREEK","TEEWAH","TEWANTIN"],"SA4_NAME_2016":"Sunshine Coast"},{"postcode":"4565","lat":-26.26359445,"long":153.0442938,"state":"QLD","localities":["NOOSA NORTH SHORE"],"SA4_NAME_2016":"Sunshine Coast"},{"postcode":"4566","lat":-26.411731,"long":153.047416,"state":"QLD","localities":["MUNNA POINT","NOOSAVILLE","NOOSAVILLE BC","NOOSAVILLE DC"],"SA4_NAME_2016":"Sunshine Coast"},{"postcode":"4567","lat":-26.408596,"long":153.096957,"state":"QLD","localities":["CASTAWAYS BEACH","LITTLE COVE","NOOSA HEADS","SUNRISE BEACH","SUNSHINE BEACH"],"SA4_NAME_2016":"Sunshine Coast"},{"postcode":"4568","lat":-26.313995,"long":152.876607,"state":"QLD","localities":["FEDERAL","PINBARREN","POMONA"],"SA4_NAME_2016":"Sunshine Coast"},{"postcode":"4569","lat":-26.334574,"long":152.822844,"state":"QLD","localities":["COORAN"],"SA4_NAME_2016":"Sunshine Coast"},{"postcode":"4570","lat":-26.153831,"long":152.616943,"state":"QLD","localities":["AMAMOOR","AMAMOOR CREEK","ANDERLEIGH","ARALUEN","BANKS POCKET","BEENAAM VALLEY","BELLA CREEK","BELLS BRIDGE","BOLLIER","BROOLOO","CALGOA","CALICO CREEK","CANINA","CEDAR POCKET","CHATSWORTH","COLES CREEK","COONDOO","CORELLA","CURRA","DAGUN","DOWNSFIELD","EAST DEEP CREEK","FISHERMANS POCKET","GILLDORA","GLANMIRE","GLASTONBURY","GLEN ECHO","GLENWOOD","GOOMBOORIAN","GREENS CREEK","GUNALDA","GYMPIE","GYMPIE DC","IMBIL","JONES HILL","KANDANGA","KANDANGA CREEK","KANIGAN","KIA ORA","KYBONG","LAGOON POCKET","LAKE BORUMBA","LANGSHAW","LONG FLAT","LOWER WONGA","MARODIAN","MARYS CREEK","MCINTOSH CREEK","MELAWONDI","MIVA","MONKLAND","MOOLOO","MOTHAR MOUNTAIN","MUNNA CREEK","NAHRUNDA","NEERDIE","NEUSA VALE","NORTH DEEP CREEK","PATERSON","PIE CREEK","ROSS CREEK","SANDY CREEK","SCOTCHY POCKET","SCRUBBY CREEK","SEXTON","SOUTHSIDE","ST MARY","TAMAREE","TANDUR","THE DAWN","THE PALMS","THEEBINE","TOOLARA","TOOLARA FOREST","TRAVESTON","TUCHEKOI","TWO MILE","UPPER GLASTONBURY","UPPER KANDANGA","VETERAN","VICTORY HEIGHTS","WALLU","WIDGEE","WIDGEE CROSSING NORTH","WIDGEE CROSSING SOUTH","WILSONS POCKET","WOLVI","WOOLOOGA","WOONDUM"],"SA4_NAME_2016":"Wide Bay"},{"postcode":"4571","lat":-26.219743,"long":152.931885,"state":"QLD","localities":["COMO","KIN KIN","WAHPUNGA"],"SA4_NAME_2016":"Sunshine Coast"},{"postcode":"4572","lat":-26.671589,"long":153.101997,"state":"QLD","localities":["ALEXANDRA HEADLAND"],"SA4_NAME_2016":"Sunshine Coast"},{"postcode":"4573","lat":-26.516942,"long":153.068303,"state":"QLD","localities":["COOLUM BEACH","MARCUS BEACH","MOUNT COOLUM","PEREGIAN BEACH","PEREGIAN BEACH SOUTH","POINT ARKWRIGHT","YAROOMBA"],"SA4_NAME_2016":"Sunshine Coast"},{"postcode":"4573","lat":-26.49491916,"long":153.0704775,"state":"QLD","localities":["PEREGIAN SPRINGS"],"SA4_NAME_2016":"Sunshine Coast"},{"postcode":"4574","lat":-26.630369,"long":152.761131,"state":"QLD","localities":["COOLABINE","GHEERULLA","KENILWORTH","KIDAMAN CREEK","MOY POCKET","OBI OBI"],"SA4_NAME_2016":"Sunshine Coast"},{"postcode":"4575","lat":-26.742043,"long":153.119478,"state":"QLD","localities":["BIRTINYA","BOKARINA","BUDDINA","KAWANA WATERS","MINYAMA","PARREARRA","WARANA","WARANA BEACH","WURTULLA"],"SA4_NAME_2016":"Sunshine Coast"},{"postcode":"4580","lat":-25.891004,"long":152.928987,"state":"QLD","localities":["COOLOOLA","COOLOOLA COVE","TIN CAN BAY"],"SA4_NAME_2016":"Wide Bay"},{"postcode":"4581","lat":-25.990771,"long":153.097862,"state":"QLD","localities":["EURONG","FRASER ISLAND","INSKIP","INSKIP POINT","ORCHID BEACH","RAINBOW BEACH"],"SA4_NAME_2016":"Wide Bay"},{"postcode":"4600","lat":-26.055099,"long":152.221081,"state":"QLD","localities":["BLACK SNAKE","CINNABAR","KILKIVAN","MUDLO","OAKVIEW"],"SA4_NAME_2016":"Wide Bay"},{"postcode":"4601","lat":-26.145002,"long":152.012412,"state":"QLD","localities":["BARAMBAH","BOONARA","BOOUBYJAN","GOOMERI","GOOMERIBONG","KINBOMBI","MANUMBAR","MANYUNG","TANSEY","WRATTENS FOREST"],"SA4_NAME_2016":"Wide Bay"},{"postcode":"4605","lat":-26.112408,"long":151.870256,"state":"QLD","localities":["BARLIL","BYEE","CHERBOURG","CLOYNA","COBBS HILL","CROWNTHORPE","GLENROCK","KITOBA","MERLWOOD","MOFFATDALE","MOONDOONER","MURGON","OAKDALE","REDGATE","SILVERLEAF","SUNNY NOOK","TABLELANDS","WARNUNG","WINDERA","WOOROONDEN"],"SA4_NAME_2016":"Wide Bay"},{"postcode":"4605","lat":-26.20877744,"long":152.0113431,"state":"QLD","localities":["MANYUNG"],"SA4_NAME_2016":"Wide Bay"},{"postcode":"4606","lat":-26.26117,"long":151.823079,"state":"QLD","localities":["CHELMSFORD","FAIRDALE","FICKS CROSSING","GREENVIEW","LEAFDALE","MOUNT MCEUEN","MP CREEK","WHEATLANDS","WONDAI"],"SA4_NAME_2016":"Wide Bay"},{"postcode":"4608","lat":-26.35256,"long":151.741338,"state":"QLD","localities":["CHARLESTOWN","CUSHNIE","TINGOORA","WILKESDALE","WOOROOLIN"],"SA4_NAME_2016":"Wide Bay"},{"postcode":"4610","lat":-26.576904,"long":151.522575,"state":"QLD","localities":["ALICE CREEK","BALLOGIE","BENAIR","BOOIE","BOONENNE","BOYNESIDE","CHAHPINGAH","COOLABUNIA","CORNDALE","CRAWFORD","DANGORE","DURONG","DURONG SOUTH","ELLESMERE","GOODGER","GORDONBROOK","HALY CREEK","HODGLEIGH","INVERLAW","IRONPOT","KINGAROY","KINGAROY DC","KUMBIA","MANNUEM","MEMERAMBI","TAABINGA","TAABINGA VILLAGE","WATTLE GROVE"],"SA4_NAME_2016":"Wide Bay"},{"postcode":"4611","lat":-26.176717,"long":151.776012,"state":"QLD","localities":["MARSHLANDS","MONDURE"],"SA4_NAME_2016":"Wide Bay"},{"postcode":"4612","lat":-26.004636,"long":151.589811,"state":"QLD","localities":["HIVESVILLE","KAWL KAWL","KEYSLAND","STONELANDS","WIGTON"],"SA4_NAME_2016":"Wide Bay"},{"postcode":"4613","lat":-26.279772,"long":151.338904,"state":"QLD","localities":["ABBEYWOOD","BOONDOOMA","BRIGOODA","COVERTY","KINLEYMORE","MANAR","MELROSE","OKEDEN","PROSTON","SPEEDWELL","STALWORTH"],"SA4_NAME_2016":"Wide Bay"},{"postcode":"4614","lat":-26.848329,"long":151.964673,"state":"QLD","localities":["NEUMGNA","UPPER YARRAMAN","YARRAMAN"],"SA4_NAME_2016":"Wide Bay"},{"postcode":"4615","lat":-26.659559,"long":152.010432,"state":"QLD","localities":["BARKER CREEK FLAT","BROOKLANDS","BULLCAMP","EAST NANANGO","ELGIN VALE","GLAN DEVON","JOHNSTOWN","KUNIOON","MAIDENWELL","NANANGO","PIMPIMBUDGEE","RUNNYMEDE","SANDY RIDGES","SOUTH EAST NANANGO","SOUTH NANANGO","TARONG","WATTLE CAMP","WENGENVILLE","WYALLA"],"SA4_NAME_2016":"Wide Bay"},{"postcode":"4620","lat":-25.557047,"long":152.280868,"state":"QLD","localities":["ARAMARA","BROOWEENA","DOONGUL","GIGOOMGAN","GLENBAR","GUNGALOON","MALARGA","NORTH ARAMARA","TEEBAR","WOOCOO"],"SA4_NAME_2016":"Wide Bay"},{"postcode":"4621","lat":-25.535828,"long":152.042802,"state":"QLD","localities":["BIGGENDEN","BOOMPA","COALSTOUN LAKES","CORINGA","DALLARNIL","DEGILBO","DIDCOT","GOLDEN FLEECE","LAKESIDE","WATERANGA","WOOWOONGA"],"SA4_NAME_2016":"Wide Bay"},{"postcode":"4625","lat":-25.571054,"long":151.644182,"state":"QLD","localities":["ARANBANGA","BAN BAN","BAN BAN SPRINGS","BARLYNE","BINJOUR","BLAIRMORE","BON ACCORD","BRANCH CREEK","BYRNESTOWN","CAMPBELL CREEK","DEEP CREEK","DIRNBIR","DUNDARRAH","GAYNDAH","GINOONDAN","GOOROOLBA","HARRIET","HUMPHERY","IDERAWAY","MINGO","MOUNT DEBATEABLE","MOUNT LAWLESS","PENWHAUPELL","PILE GULLY","REIDS CREEK","STOCKHAVEN","THE LIMITS","TOONDAHRA","WAHOON","WETHERON","WILSON VALLEY","WOODMILLAR","YENDA"],"SA4_NAME_2016":"Wide Bay"},{"postcode":"4625","lat":-25.45420899,"long":151.7920879,"state":"QLD","localities":["MOUNT STEADMAN"],"SA4_NAME_2016":"Wide Bay"},{"postcode":"4626","lat":-25.765416,"long":151.105529,"state":"QLD","localities":["BEERON","BOYNEWOOD","BROVINIA","CATTLE CREEK","COONAMBULA","DERRI DERRA","DYKEHEAD","GLENRAE","GURGEENA","HAWKWOOD","MONOGORILBY","MUNDOWRAN","MUNDUBBERA","OBIL BIL","OLD COORANGA","PHILPOTT","RIVERLEIGH"],"SA4_NAME_2016":"Wide Bay"},{"postcode":"4626","lat":-25.5263036,"long":151.2536218,"state":"QLD","localities":["O'BIL BIL"],"SA4_NAME_2016":"Wide Bay"},{"postcode":"4627","lat":-25.350178,"long":150.778657,"state":"QLD","localities":["ABERCORN","CERATODUS","CHELTENHAM","CYNTHIA","EIDSVOLD","EIDSVOLD EAST","EIDSVOLD WEST","GROSVENOR","MALMOE","WURUMA DAM"],"SA4_NAME_2016":"Wide Bay"},{"postcode":"4630","lat":-24.860668,"long":150.975499,"state":"QLD","localities":["BANCROFT","BUKALI","CANIA","CANNINDAH","COOMINGLAH","COOMINGLAH FOREST","DALGA","GLENLEIGH","HARRAMI","KALPOWAR","KAPALDO","LANGLEY","MONAL","MONTO","MOONFORD","MULGILDIE","MUNGUNGO","RAWBELLE","SELENE","SPLINTER CREEK","TELLEBANG","THREE MOON","VENTNOR","YARROL"],"SA4_NAME_2016":"Wide Bay"},{"postcode":"4650","lat":-25.640978,"long":152.791302,"state":"QLD","localities":["ALDERSHOT","ANTIGUA","AUBINVILLE","BADDOW","BAUPLE","BAUPLE FOREST","BEAVER ROCK","BIDWILL","BIG TUAN","BOONOOROO","BOONOOROO PLAINS","DUCKINWILLA","DUNDATHU","DUNMORA","FERNEY","GLENDORF","GLENORCHY","GOOTCHIE","GRAHAMS CREEK","GRANVILLE","GUNDIAH","HILLCREST HEIGHTS","ISLAND PLANTATION","LITTLE TUAN","MAAROOM","MAGNOLIA","MARYBOROUGH","MARYBOROUGH DC","MARYBOROUGH WEST","MOUNT STEADMAN","MOUNT URAH","MUNGAR","NETHERBY","OAKHURST","OWANYILLA","PALLAS STREET MARYBOROUGH","PILERWA","PIONEERS REST","POONA","PRAWLE","ST HELENS","TALEGALLA WEIR","TANDORA","TEDDINGTON","THE DIMONDS","THINOOMBA","TIARO","TINANA","TINANA SOUTH","TINNANBAR","TUAN","TUAN FOREST","WALKERS POINT","YENGARIE","YERRA"],"SA4_NAME_2016":"Wide Bay"},{"postcode":"4650","lat":-25.69194225,"long":152.4832812,"state":"QLD","localities":["ST MARY"],"SA4_NAME_2016":"Wide Bay"},{"postcode":"4655","lat":-25.337998,"long":152.78368,"state":"QLD","localities":["BOORAL","BUNYA CREEK","CRAIGNISH","DUNDOWRAN","DUNDOWRAN BEACH","ELI WATERS","GHOST HILL","GREAT SANDY STRAIT","HAPPY VALLEY","HERVEY BAY","HERVEY BAY DC","KAWUNGAN","KINGFISHER BAY","NIKENBAH","PIALBA","POINT VERNON","RIVER HEADS","SCARNESS","SUNSHINE ACRES","SUSAN RIVER","TAKURA","TOOGOOM","TORQUAY","URANGAN","URRAWEEN","WALLIEBUM","WALLIGAN","WONDUNNA"],"SA4_NAME_2016":"Wide Bay"},{"postcode":"4655","lat":-25.3913788,"long":153.0338904,"state":"QLD","localities":["KINGFISHER BAY RESORT"],"SA4_NAME_2016":"Wide Bay"},{"postcode":"4659","lat":-25.266279,"long":152.568678,"state":"QLD","localities":["BEELBI CREEK","BURGOWAN","BURRUM","BURRUM HEADS","BURRUM RIVER","BURRUM TOWN","HOWARD","PACIFIC HAVEN"],"SA4_NAME_2016":"Wide Bay"},{"postcode":"4660","lat":-25.189298,"long":152.300968,"state":"QLD","localities":["ABINGTON","APPLE TREE CREEK","BUXTON","CHERWELL","CHILDERS","CORDALBA","DOOLBI","EUREKA","FARNSFIELD","GOODWOOD","GREGORY RIVER","HORTON","HUXLEY","ISIS CENTRAL","ISIS CENTRAL MILL","ISIS RIVER","KOWBI","KULLOGUM","LYNWOOD","NORTH GREGORY","NORTH ISIS","PROMISEDLAND","REDRIDGE","SOUTH ISIS","WOODGATE"],"SA4_NAME_2016":"Wide Bay"},{"postcode":"4662","lat":-25.347212,"long":152.59878,"state":"QLD","localities":["TORBANLEA"],"SA4_NAME_2016":"Wide Bay"},{"postcode":"4670","lat":-24.88776,"long":152.297855,"state":"QLD","localities":["ABBOTSFORD","ALLOWAY","ASHFIELD","AVENELL HEIGHTS","AVOCA","AVONDALE","BARGARA","BRANYAN","BUCCA","BUNDABERG","BUNDABERG CENTRAL","BUNDABERG DC","BUNDABERG EAST","BUNDABERG NORTH","BUNDABERG SOUTH","BUNDABERG WEST","BURNETT DOWNS","BURNETT HEADS","CALAVOS","COONARR","CORAL COVE","ELECTRA","ELLIOTT","ELLIOTT HEADS","FAIRYMEAD","GIVELDA","GLENFOREST","GOOBURRUM","INNES PARK","KALKIE","KENSINGTON","KEPNOCK","KINKUNA","MEADOWVALE","MILLBANK","MON REPOS","MOORE PARK","MOORLAND","NORVILLE","OAKWOOD","PINE CREEK","QUNABA","RUBYANNA","SANTA FE HEIGHTS","SHARON","SOUTH BINGERA","SOUTH KOLAN","SVENSSON HEIGHTS","THABEBAN","WALKERVALE","WATALGAN","WELCOME CREEK","WINDERMERE","WINFIELD","WOONGARRA"],"SA4_NAME_2016":"Wide Bay"},{"postcode":"4670","lat":-24.70943272,"long":152.2383959,"state":"QLD","localities":["MOORE PARK BEACH"],"SA4_NAME_2016":"Wide Bay"},{"postcode":"4670","lat":-24.598349,"long":152.0659408,"state":"QLD","localities":["MULLETT CREEK"],"SA4_NAME_2016":"Wide Bay"},{"postcode":"4671","lat":-25.07645,"long":151.78942,"state":"QLD","localities":["BOOLBOONDA","BOOYAL","BULLYARD","BUNGADOO","DALYSFORD","DAMASCUS","DELAN","DOUGHBOY","DRINAN","DUINGAL","GAETA","GIN GIN","GOOD NIGHT","HORSE CAMP","KOLONGA","LAKE MONDURAN","MAROONDAN","MCILWRAITH","MOLANGUL","MONDURAN","MOOLBOOLAMAN","MORGANVILLE","MOUNT PERRY","MUNGY","NEARUM","NEW MOONTA","REDHILL FARMS","SKYRING RESERVE","ST AGNES","ST KILDA","TAKILBERAN","TIRROAN","WALLAVILLE","WONBAH","WONBAH FOREST"],"SA4_NAME_2016":"Wide Bay"},{"postcode":"4673","lat":-24.729644,"long":152.088816,"state":"QLD","localities":["LITTABELLA","MIARA","WATERLOO","YANDARAN"],"SA4_NAME_2016":"Wide Bay"},{"postcode":"4674","lat":-24.688503,"long":151.872531,"state":"QLD","localities":["BAFFLE CREEK","BERAJONDO","DEEPWATER","EULEILAH","MOUNT MARIA","OYSTER CREEK","ROSEDALE","RULES BEACH","TAUNTON"],"SA4_NAME_2016":"Central Queensland"},{"postcode":"4676","lat":-24.632323,"long":151.621961,"state":"QLD","localities":["GINDORAN","LOWMEAD"],"SA4_NAME_2016":"Central Queensland"},{"postcode":"4677","lat":-24.318471,"long":151.727736,"state":"QLD","localities":["AGNES WATER","CAPTAIN CREEK","COLOSSEUM","EURIMBULA","MIRIAM VALE","MOUNT TOM","ROUND HILL","SEVENTEEN SEVENTY"],"SA4_NAME_2016":"Central Queensland"},{"postcode":"4678","lat":-24.146903,"long":151.634285,"state":"QLD","localities":["BOROREN","FORESHORES","RODDS BAY","TURKEY BEACH"],"SA4_NAME_2016":"Central Queensland"},{"postcode":"4680","lat":-23.446826,"long":151.917285,"state":"QLD","localities":["BARMUNDU","BARNEY POINT","BEECHER","BENARABY","BOYNE ISLAND","BOYNE VALLEY","BOYNEDALE","BUILYAN","BURUA","BYELLEE","CALLEMONDAH","CALLIOPE","CLINTON","CURTIS ISLAND","DIGLUM","GLADSTONE","GLADSTONE BC","GLADSTONE DC","GLADSTONE SOUTH","GLEN EDEN","HERON ISLAND","HETHERINGTON","IVERAGH","KIN KORA","KIRKWOOD","LITTLEMORE","MANY PEAKS","MOUNT ALMA","NAGOORIN","NEW AUCKLAND","O'CONNELL","RIVER RANCH","SOUTH END","SOUTH GLADSTONE","SOUTH TREES","SUN VALLEY","TABLELANDS","TANNUM SANDS","TARAGOOLA","TELINA","TOOLOOA","UBOBO","WEST GLADSTONE","WEST STOWE","WOODERSON","WURDONG HEIGHTS"],"SA4_NAME_2016":"Central Queensland"},{"postcode":"4680","lat":-23.8410967,"long":151.2479668,"state":"QLD","localities":["GLADSTONE CENTRAL"],"SA4_NAME_2016":"Central Queensland"},{"postcode":"4680","lat":-23.81461022,"long":151.3223565,"state":"QLD","localities":["GLADSTONE HARBOUR"],"SA4_NAME_2016":"Central Queensland"},{"postcode":"4694","lat":-23.832434,"long":151.121567,"state":"QLD","localities":["ALDOGA","TARGINIE","YARWUN"],"SA4_NAME_2016":"Central Queensland"},{"postcode":"4694","lat":-23.72951593,"long":151.0984104,"state":"QLD","localities":["TARGINNIE"],"SA4_NAME_2016":"Central Queensland"},{"postcode":"4695","lat":-23.807115,"long":150.965859,"state":"QLD","localities":["AMBROSE","BRACEWELL","DARTS CREEK","EAST END","MACHINE CREEK","MOUNT LARCOM","THE NARROWS"],"SA4_NAME_2016":"Central Queensland"},{"postcode":"4697","lat":-23.711361,"long":150.81952,"state":"QLD","localities":["RAGLAN"],"SA4_NAME_2016":"Central Queensland"},{"postcode":"4699","lat":-23.657893,"long":150.643168,"state":"QLD","localities":["BAJOOL","PORT ALMA"],"SA4_NAME_2016":"Central Queensland"},{"postcode":"4700","lat":-23.180174,"long":150.958111,"state":"QLD","localities":["ALLENSTOWN","DEPOT HILL","FAIRY BOWER","GREAT KEPPEL ISLAND","PORT CURTIS","ROCKHAMPTON","ROCKHAMPTON CITY","ROCKHAMPTON HOSPITAL","THE KEPPELS","THE RANGE","WANDAL","WEST ROCKHAMPTON"],"SA4_NAME_2016":"Central Queensland"},{"postcode":"4701","lat":-23.354937,"long":150.557538,"state":"QLD","localities":["BERSERKER","CENTRAL QUEENSLAND UNIVERSITY","FRENCHVILLE","GREENLAKE","IRONPOT","KALKA","KAWANA","KOONGAL","LAKES CREEK","LIMESTONE CREEK","MOUNT ARCHER","NANKIN","NERIMBERA","NORMAN GARDENS","NORTH ROCKHAMPTON","OASIS GARDENS","PARK AVENUE","ROCKHAMPTON DC","ROCKHAMPTON NORTH","ROCKHAMPTON SHOPPING FAIR","ROCKYVIEW","SANDRINGHAM","THE COMMON"],"SA4_NAME_2016":"Central Queensland"},{"postcode":"4701","lat":-23.378941,"long":150.512323,"state":"QLD","localities":["RED HILL ROCKHAMPTON"],"SA4_NAME_2016":"Central Queensland"},{"postcode":"4702","lat":-23.279639,"long":150.885772,"state":"QLD","localities":["ALBERTA","ALSACE","ALTON DOWNS","ANAKIE","ARGOON","BALCOMBA","BANANA","BARALABA","BARNARD","BINGEGANG","BLACKDOWN","BLUFF","BOGANTUNGAN","BOOLBURRA","BOULDERCOMBE","BUSHLEY","CANAL CREEK","CANOONA","CAWARRAL","CENTRAL QUEENSLAND MC","COMET","COOMOO","COOROOMAN","COOWONGA","DALMA","DINGO","DIXALEA","DULULU","DUMPY CREEK","ETNA CREEK","FERNLEES","GAINSFORD","GARNANT","GEMFIELDS","GINDIE","GLENROY","GOGANGO","GOOMALLY","GOOVIGEN","GOOWARRA","GRACEMERE","JAMBIN","JARDINE","JELLINBAH","JOSKELEIGH","KABRA","KALAPA","KEPPEL SANDS","KOKOTUNGO","KUNWARARA","MACKENZIE","MARMOR","MIDGEE","MILMAN","MIMOSA","MOONMERA","MORINISH","MORINISH SOUTH","MOUNT CHALMERS","NINE MILE","PARKHURST","PHEASANT CREEK","PINK LILY","RANNES","RIDGELANDS","ROLLESTON","ROSSMOYA","RUBYVALE","SAPPHIRE","SHOALWATER","SMOKY CREEK","SOUTH YAAMBA","STANAGE","STANWELL","STEWARTON","THE CAVES","THOMPSON POINT","TUNGAMULL","ULOGIE","WALLAROO","WESTWOOD","WILLOWS","WILLOWS GEMFIELDS","WITHERSFIELD","WOOLEIN","WOOROONA","WOWAN","WYCARBAH","YALLEROI","YARAKA"],"SA4_NAME_2016":"Central Queensland"},{"postcode":"4702","lat":-24.67517992,"long":148.5254389,"state":"QLD","localities":["CONSUELO"],"SA4_NAME_2016":"Central Queensland"},{"postcode":"4702","lat":-24.55375199,"long":148.7532966,"state":"QLD","localities":["COORUMBENE"],"SA4_NAME_2016":"Central Queensland"},{"postcode":"4702","lat":-24.33867148,"long":148.6870871,"state":"QLD","localities":["LOWESBY"],"SA4_NAME_2016":"Central Queensland"},{"postcode":"4702","lat":-24.701126,"long":152.250449,"state":"QLD","localities":["PLUM TREE"],"SA4_NAME_2016":"Central Queensland"},{"postcode":"4702","lat":-24.62684644,"long":150.2639341,"state":"QLD","localities":["TARRAMBA"],"SA4_NAME_2016":"Central Queensland"},{"postcode":"4702","lat":-23.53012362,"long":147.7970146,"state":"QLD","localities":["THE GEMFIELDS"],"SA4_NAME_2016":"Central Queensland"},{"postcode":"4703","lat":-23.074563,"long":150.894331,"state":"QLD","localities":["ADELAIDE PARK","BANGALEE","BARLOWS HILL","BARMARYEE","BARMOYA","BAYFIELD","BONDOOLA","BUNGUNDARRA","BYFIELD","CAUSEWAY LAKE","COBRABALL","COOEE BAY","FARNBOROUGH","HIDDEN VALLEY","INVERNESS","KEMP BEACH","KINKA BEACH","LAKE MARY","LAMMERMOOR","LAMMERMOOR BEACH","MARYVALE","MEIKLEVILLE HILL","MULAMBIN","MULARA","PACIFIC HEIGHTS","ROSSLYN","STATUE BAY","STOCKYARD","TANBY","TARANGANBA","TAROOMBALL","WEERRIBA","WOODBURY","YEPPOON"],"SA4_NAME_2016":"Central Queensland"},{"postcode":"4704","lat":-23.135744,"long":150.381164,"state":"QLD","localities":["WATTLEBANK","YAAMBA"],"SA4_NAME_2016":"Central Queensland"},{"postcode":"4705","lat":-22.771751,"long":149.719215,"state":"QLD","localities":["CLARKE CREEK","LOTUS CREEK","MACKENZIE RIVER","MARLBOROUGH","MOUNT GARDINER"],"SA4_NAME_2016":"Mackay - Isaac - Whitsunday"},{"postcode":"4706","lat":-22.580866,"long":149.675382,"state":"QLD","localities":["OGMORE"],"SA4_NAME_2016":"Central Queensland"},{"postcode":"4707","lat":-22.515013,"long":149.235514,"state":"QLD","localities":["COLLAROY","ST LAWRENCE","THE PERCY GROUP"],"SA4_NAME_2016":"Mackay - Isaac - Whitsunday"},{"postcode":"4709","lat":-23.059653,"long":148.429161,"state":"QLD","localities":["TIERI"],"SA4_NAME_2016":"Central Queensland"},{"postcode":"4710","lat":-23.257223,"long":150.82635,"state":"QLD","localities":["EMU PARK","ZILZIE"],"SA4_NAME_2016":"Central Queensland"},{"postcode":"4711","lat":-23.252534,"long":150.476229,"state":"QLD","localities":["GLENDALE","GLENLEE"],"SA4_NAME_2016":"Central Queensland"},{"postcode":"4712","lat":-23.69521,"long":149.673726,"state":"QLD","localities":["DUARINGA"],"SA4_NAME_2016":"Central Queensland"},{"postcode":"4713","lat":-24.114138,"long":149.430965,"state":"QLD","localities":["WOORABINDA"],"SA4_NAME_2016":"Central Queensland"},{"postcode":"4714","lat":-23.66268,"long":150.394906,"state":"QLD","localities":["BAREE","BOULDER CREEK","FLETCHER CREEK","HAMILTON CREEK","HORSE CREEK","JOHNSONS HILL","LEYDENS HILL","LIMESTONE","MOONGAN","MOUNT MORGAN","NINE MILE CREEK","OAKEY CREEK","STRUCK OIL","THE MINE","TROTTER CREEK","WALMUL","WALTERHALL","WURA"],"SA4_NAME_2016":"Central Queensland"},{"postcode":"4715","lat":-24.393618,"long":150.458694,"state":"QLD","localities":["BILOELA","CALLIDE","CASTLE CREEK","DAKENBA","DUMGREE","GREYCLIFFE","MOUNT MURCHISON","ORANGE CREEK","PROSPECT","TARRAMBA","VALENTINE PLAINS"],"SA4_NAME_2016":"Central Queensland"},{"postcode":"4716","lat":-24.483472,"long":150.806049,"state":"QLD","localities":["LAWGI DAWES","THANGOOL"],"SA4_NAME_2016":"Central Queensland"},{"postcode":"4717","lat":-23.632816,"long":148.891333,"state":"QLD","localities":["BLACKWATER"],"SA4_NAME_2016":"Central Queensland"},{"postcode":"4718","lat":-24.675045,"long":149.615027,"state":"QLD","localities":["BAUHINIA","DROMEDARY","KIANGA","MOURA","MUNGABUNDA","OOMBABEER","RHYDDING","ROUNDSTONE","WARNOAH"],"SA4_NAME_2016":"Central Queensland"},{"postcode":"4719","lat":-24.999569,"long":150.213774,"state":"QLD","localities":["CAMBOON","CRACOW","GLENMORAL","ISLA","LONESOME CREEK","THEODORE"],"SA4_NAME_2016":"Central Queensland"},{"postcode":"4720","lat":-23.68492,"long":148.187851,"state":"QLD","localities":["EMERALD","YAMALA"],"SA4_NAME_2016":"Central Queensland"},{"postcode":"4721","lat":-22.449259,"long":147.17431,"state":"QLD","localities":["ARGYLL","CLERMONT","PASHA"],"SA4_NAME_2016":"Central Queensland"},{"postcode":"4721","lat":-22.22535188,"long":146.685147,"state":"QLD","localities":["ELGIN"],"SA4_NAME_2016":"Mackay - Isaac - Whitsunday"},{"postcode":"4721","lat":-22.24561211,"long":147.1125804,"state":"QLD","localities":["FRANKFIELD"],"SA4_NAME_2016":"Mackay - Isaac - Whitsunday"},{"postcode":"4721","lat":-22.45140311,"long":147.8610349,"state":"QLD","localities":["GEMINI MOUNTAINS"],"SA4_NAME_2016":"Mackay - Isaac - Whitsunday"},{"postcode":"4721","lat":-22.31783287,"long":147.5584469,"state":"QLD","localities":["KILCUMMIN"],"SA4_NAME_2016":"Mackay - Isaac - Whitsunday"},{"postcode":"4721","lat":-22.23008294,"long":146.2154165,"state":"QLD","localities":["LAGLAN"],"SA4_NAME_2016":"Mackay - Isaac - Whitsunday"},{"postcode":"4721","lat":-23.07744693,"long":147.6209929,"state":"QLD","localities":["THERESA CREEK"],"SA4_NAME_2016":"Central Queensland"},{"postcode":"4721","lat":-22.28935188,"long":148.068238,"state":"QLD","localities":["WINCHESTER"],"SA4_NAME_2016":"Mackay - Isaac - Whitsunday"},{"postcode":"4721","lat":-22.64097825,"long":147.8150713,"state":"QLD","localities":["WOLFANG"],"SA4_NAME_2016":"Mackay - Isaac - Whitsunday"},{"postcode":"4722","lat":-24.55877013,"long":147.5596099,"state":"QLD","localities":["BUCKLAND"],"SA4_NAME_2016":"Central Queensland"},{"postcode":"4722","lat":-24.23842906,"long":148.1408742,"state":"QLD","localities":["CAIRDBEIGN"],"SA4_NAME_2016":"Central Queensland"},{"postcode":"4722","lat":-24.23662608,"long":147.8763572,"state":"QLD","localities":["CONA CREEK"],"SA4_NAME_2016":"Central Queensland"},{"postcode":"4722","lat":-24.34409784,"long":147.5161049,"state":"QLD","localities":["NANDOWRIE"],"SA4_NAME_2016":"Central Queensland"},{"postcode":"4722","lat":-24.20657822,"long":148.3865369,"state":"QLD","localities":["ORION"],"SA4_NAME_2016":"Central Queensland"},{"postcode":"4722","lat":-24.367525,"long":147.710806,"state":"QLD","localities":["SPRINGSURE"],"SA4_NAME_2016":"Central Queensland"},{"postcode":"4722","lat":-24.47115119,"long":148.0209965,"state":"QLD","localities":["WEALWANDANGIE"],"SA4_NAME_2016":"Central Queensland"},{"postcode":"4723","lat":-23.02992213,"long":148.2009804,"state":"QLD","localities":["BELCONG"],"SA4_NAME_2016":"Central Queensland"},{"postcode":"4723","lat":-23.010007,"long":148.231917,"state":"QLD","localities":["CAPELLA"],"SA4_NAME_2016":"Central Queensland"},{"postcode":"4723","lat":-23.18786242,"long":147.7853995,"state":"QLD","localities":["CARBINE CREEK"],"SA4_NAME_2016":"Central Queensland"},{"postcode":"4723","lat":-23.15575948,"long":148.0763891,"state":"QLD","localities":["CHIRNSIDE"],"SA4_NAME_2016":"Central Queensland"},{"postcode":"4723","lat":-23.22707928,"long":148.2703852,"state":"QLD","localities":["CRINUM"],"SA4_NAME_2016":"Central Queensland"},{"postcode":"4723","lat":-23.08866069,"long":147.9028718,"state":"QLD","localities":["HIBERNIA"],"SA4_NAME_2016":"Central Queensland"},{"postcode":"4723","lat":-22.99508403,"long":148.0218188,"state":"QLD","localities":["KHOSH BULDUK"],"SA4_NAME_2016":"Central Queensland"},{"postcode":"4723","lat":-23.14913315,"long":148.4356637,"state":"QLD","localities":["LILYVALE"],"SA4_NAME_2016":"Central Queensland"},{"postcode":"4723","lat":-22.84635992,"long":148.0796548,"state":"QLD","localities":["LOWESTOFF"],"SA4_NAME_2016":"Central Queensland"},{"postcode":"4723","lat":-22.89259991,"long":148.2062742,"state":"QLD","localities":["MOUNT MACARTHUR"],"SA4_NAME_2016":"Central Queensland"},{"postcode":"4723","lat":-22.8479596,"long":147.935334,"state":"QLD","localities":["RETRO"],"SA4_NAME_2016":"Central Queensland"},{"postcode":"4724","lat":-23.642723,"long":146.840497,"state":"QLD","localities":["ALPHA"],"SA4_NAME_2016":"Queensland - Outback"},{"postcode":"4724","lat":-23.45669256,"long":146.8813039,"state":"QLD","localities":["BEAUFORT"],"SA4_NAME_2016":"Queensland - Outback"},{"postcode":"4724","lat":-24.07865807,"long":146.5677472,"state":"QLD","localities":["DRUMMONDSLOPE"],"SA4_NAME_2016":"Queensland - Outback"},{"postcode":"4724","lat":-23.35610788,"long":146.3806504,"state":"QLD","localities":["HOBARTVILLE"],"SA4_NAME_2016":"Queensland - Outback"},{"postcode":"4724","lat":-23.54869419,"long":147.1133442,"state":"QLD","localities":["PINE HILL"],"SA4_NAME_2016":"Queensland - Outback"},{"postcode":"4724","lat":-23.84615355,"long":147.0596895,"state":"QLD","localities":["PORT WINE"],"SA4_NAME_2016":"Queensland - Outback"},{"postcode":"4724","lat":-23.98215541,"long":146.8205995,"state":"QLD","localities":["SEDGEFORD"],"SA4_NAME_2016":"Queensland - Outback"},{"postcode":"4724","lat":-23.13846998,"long":146.6182351,"state":"QLD","localities":["SURBITON"],"SA4_NAME_2016":"Queensland - Outback"},{"postcode":"4725","lat":-23.610575,"long":145.363533,"state":"QLD","localities":["BARCALDINE","SALTERN"],"SA4_NAME_2016":"Queensland - Outback"},{"postcode":"4725","lat":-23.80189108,"long":144.9787556,"state":"QLD","localities":["BARCALDINE DOWNS"],"SA4_NAME_2016":"Queensland - Outback"},{"postcode":"4725","lat":-23.73624214,"long":145.2156326,"state":"QLD","localities":["PATRICK"],"SA4_NAME_2016":"Queensland - Outback"},{"postcode":"4725","lat":-23.52905633,"long":144.9428922,"state":"QLD","localities":["TARA STATION"],"SA4_NAME_2016":"Queensland - Outback"},{"postcode":"4726","lat":-22.536444,"long":145.486391,"state":"QLD","localities":["ARAMAC"],"SA4_NAME_2016":"Queensland - Outback"},{"postcode":"4726","lat":-22.22809929,"long":145.7695569,"state":"QLD","localities":["GALILEE"],"SA4_NAME_2016":"Queensland - Outback"},{"postcode":"4726","lat":-22.86094029,"long":145.3880016,"state":"QLD","localities":["PELICAN CREEK"],"SA4_NAME_2016":"Queensland - Outback"},{"postcode":"4727","lat":-23.515643,"long":144.616977,"state":"QLD","localities":["ILFRACOMBE"],"SA4_NAME_2016":"Queensland - Outback"},{"postcode":"4728","lat":-22.77109111,"long":146.0994297,"state":"QLD","localities":["DUNROBIN"],"SA4_NAME_2016":"Queensland - Outback"},{"postcode":"4728","lat":-23.25844934,"long":145.9748232,"state":"QLD","localities":["GARFIELD"],"SA4_NAME_2016":"Queensland - Outback"},{"postcode":"4728","lat":-22.68504,"long":146.150547,"state":"QLD","localities":["JERICHO"],"SA4_NAME_2016":"Queensland - Outback"},{"postcode":"4728","lat":-23.86725647,"long":146.1959751,"state":"QLD","localities":["MEXICO"],"SA4_NAME_2016":"Queensland - Outback"},{"postcode":"4730","lat":-23.790711,"long":143.402522,"state":"QLD","localities":["BRIXTON","CAMOOLA","CHORREGON","ERNESTINA","LONGREACH","MANEROO","MORELLA","STONEHENGE","TOCAL","VERGEMONT"],"SA4_NAME_2016":"Queensland - Outback"},{"postcode":"4731","lat":-24.49928,"long":144.26853,"state":"QLD","localities":["ISISFORD"],"SA4_NAME_2016":"Queensland - Outback"},{"postcode":"4732","lat":-22.427636,"long":144.622118,"state":"QLD","localities":["MUTTABURRA"],"SA4_NAME_2016":"Queensland - Outback"},{"postcode":"4732","lat":-22.39476733,"long":144.5105389,"state":"QLD","localities":["TABLEDERRY"],"SA4_NAME_2016":"Queensland - Outback"},{"postcode":"4733","lat":-21.771226,"long":143.503025,"state":"QLD","localities":["CORFIELD"],"SA4_NAME_2016":"Queensland - Outback"},{"postcode":"4735","lat":-22.810583,"long":141.861769,"state":"QLD","localities":["DIAMANTINA LAKES","MIDDLETON","OPALTON","WINTON"],"SA4_NAME_2016":"Queensland - Outback"},{"postcode":"4736","lat":-24.936614,"long":143.103133,"state":"QLD","localities":["JUNDAH"],"SA4_NAME_2016":"Queensland - Outback"},{"postcode":"4737","lat":-21.43004,"long":149.178072,"state":"QLD","localities":["ARMSTRONG BEACH","BLUE MOUNTAIN","CAMPWIN BEACH","COLSTON PARK","FRESHWATER POINT","GRASSTREE","PLANE CREEK WEST","SARINA","SARINA BEACH","SARINA RANGE","SHINFIELD","SUNNYSIDE"],"SA4_NAME_2016":"Mackay - Isaac - Whitsunday"},{"postcode":"4738","lat":-21.622237,"long":149.267446,"state":"QLD","localities":["ILBILBIE","KOUMALA"],"SA4_NAME_2016":"Mackay - Isaac - Whitsunday"},{"postcode":"4739","lat":-21.930567,"long":149.395052,"state":"QLD","localities":["CARMILA"],"SA4_NAME_2016":"Mackay - Isaac - Whitsunday"},{"postcode":"4740","lat":-21.33763,"long":149.059737,"state":"QLD","localities":["ALEXANDRA","ALLIGATOR CREEK","ANDERGROVE","BAKERS CREEK","BALBERRA","BALNAGOWAN","BEACONSFIELD","BELMUNDA","BLACKS BEACH","CANELAND","CAPE HILLSBOROUGH","CHELONA","CONINGSBY","CREMORNE","DOLPHIN HEADS","DUMBLETON","DUNDULA","DUNNROCK","EAST MACKAY","EIMEO","ERAKALA","FOULDEN","GLENELLA","GRASSTREE BEACH","HABANA","HALF TIDE BEACH","HALIDAY BAY","HAY POINT","HOMEBUSH","LOUISA CREEK","MACKAY","MACKAY BC","MACKAY CANELAND","MACKAY DC","MACKAY EAST","MACKAY HARBOUR","MACKAY NORTH","MACKAY SOUTH","MACKAY WEST","MCEWENS BEACH","MOUNT JUKES","MOUNT PLEASANT","MUNBURA","NINDAROO","NOORLAH","NORTH MACKAY","OORALEA","PAGET","PLANELLA","PLANLAND","RACECOURSE","RICHANNA HEIGHTS","RICHMOND","ROSELLA","RURAL VIEW","SALONIKA BEACH","SANDIFORD","SLADE POINT","SOUTH MACKAY","TE KOWAI","TELINA HEIGHTS","THE LEAP","TIMBERLANDS","WEST MACKAY","WUNDARU","YAKAPARI"],"SA4_NAME_2016":"Mackay - Isaac - Whitsunday"},{"postcode":"4741","lat":-20.808597,"long":149.271699,"state":"QLD","localities":["BALL BAY","BRAMPTON ISLAND","BRIGHTLY","CLAIRVIEW","COPPABELLA","DAYDREAM ISLAND","EPSOM","ETON","ETON NORTH","EUNGELLA HINTERLAND","FARLEIGH","FLAGGY ROCK","GARGETT","HAMPDEN","HAZLEDEAN","HOOK ISLAND","KALARKA","KINCHANT DAM","KUTTABUL","LINDEMAN ISLAND","LONG ISLAND","MACKAY MC","MOUNT CHARLTON","MOUNT CHRISTIAN","MOUNT OSSA","MOUNT PELION","NORTH ETON","OAKENDEN","ORKABIE","OWENS CREEK","PINNACLE","PLEYSTOWE","SEAFORTH","SOUTH MOLLE","YALBOROO"],"SA4_NAME_2016":"Mackay - Isaac - Whitsunday"},{"postcode":"4742","lat":-21.754127,"long":148.569564,"state":"QLD","localities":["BURTON","EAGLEFIELD","ELPHINSTONE","HAIL CREEK","KEMMIS","MT BRITTON","NEBO","OXFORD","STRATHFIELD","TURRAWULLA","VALKYRIE"],"SA4_NAME_2016":"Mackay - Isaac - Whitsunday"},{"postcode":"4742","lat":-21.44095663,"long":148.5993005,"state":"QLD","localities":["MOUNT BRITTON"],"SA4_NAME_2016":"Mackay - Isaac - Whitsunday"},{"postcode":"4743","lat":-21.453727,"long":147.906986,"state":"QLD","localities":["GLENDEN","SUTTOR"],"SA4_NAME_2016":"Mackay - Isaac - Whitsunday"},{"postcode":"4744","lat":-22.018392,"long":148.045134,"state":"QLD","localities":["MORANBAH","PEAK DOWNS MINE"],"SA4_NAME_2016":"Mackay - Isaac - Whitsunday"},{"postcode":"4745","lat":-22.497884,"long":148.259592,"state":"QLD","localities":["DYSART","NORWICH PARK"],"SA4_NAME_2016":"Mackay - Isaac - Whitsunday"},{"postcode":"4746","lat":-22.851944,"long":148.850932,"state":"QLD","localities":["GERMAN CREEK","MAY DOWNS","MIDDLEMOUNT"],"SA4_NAME_2016":"Mackay - Isaac - Whitsunday"},{"postcode":"4750","lat":-21.042567,"long":149.152281,"state":"QLD","localities":["BUCASIA","SHOAL POINT"],"SA4_NAME_2016":"Mackay - Isaac - Whitsunday"},{"postcode":"4751","lat":-21.221858,"long":149.040703,"state":"QLD","localities":["GREENMOUNT","PALMYRA","VICTORIA PLAINS","WALKERSTON"],"SA4_NAME_2016":"Mackay - Isaac - Whitsunday"},{"postcode":"4753","lat":-21.169015,"long":148.952546,"state":"QLD","localities":["DEVEREUX CREEK","MARIAN"],"SA4_NAME_2016":"Mackay - Isaac - Whitsunday"},{"postcode":"4754","lat":-21.188063,"long":148.832763,"state":"QLD","localities":["BENHOLME","DOWS CREEK","MIA MIA","MIRANI","MOUNT MARTIN","PINEVALE","SEPTIMUS"],"SA4_NAME_2016":"Mackay - Isaac - Whitsunday"},{"postcode":"4756","lat":-21.126329,"long":148.609682,"state":"QLD","localities":["FINCH HATTON","NETHERDALE"],"SA4_NAME_2016":"Mackay - Isaac - Whitsunday"},{"postcode":"4757","lat":-21.054268,"long":148.50081,"state":"QLD","localities":["BROKEN RIVER","CREDITON","DALRYMPLE HEIGHTS","EUNGELLA","EUNGELLA DAM"],"SA4_NAME_2016":"Mackay - Isaac - Whitsunday"},{"postcode":"4798","lat":-20.889915,"long":148.737792,"state":"QLD","localities":["CALEN","MENTMORE","PINDI PINDI","ST HELENS BEACH","WAGOORA"],"SA4_NAME_2016":"Mackay - Isaac - Whitsunday"},{"postcode":"4799","lat":-20.720423,"long":148.622011,"state":"QLD","localities":["BLOOMSBURY","MIDGE POINT"],"SA4_NAME_2016":"Mackay - Isaac - Whitsunday"},{"postcode":"4800","lat":-20.465423,"long":148.516317,"state":"QLD","localities":["ANDROMACHE","BRANDY CREEK","BREADALBANE","CANNON VALLEY","CAPE CONWAY","CAPE GLOUCESTER","CONWAY","CONWAY BEACH","CRYSTAL BROOK","DINGO BEACH","DITTMER","ERLANDO BEACH","FOXDALE","GLEN ISLA","GOORGANGA CREEK","GOORGANGA PLAINS","GREGORY RIVER","GUNYARRA","HAMILTON PLAINS","HIDEAWAY BAY","KELSEY CREEK","LAGUNA QUAYS","LAKE PROSERPINE","LETHEBROOK","MOUNT JULIAN","MOUNT MARLOW","MOUNT PLUTO","MYRTLEVALE","NORTH GREGORY","PALM GROVE","PAULS POCKET","PRESTON","PROSERPINE","RIORDANVALE","SILVER CREEK","STRATHDICKIE","SUGARLOAF","THOOPARA","WILSON BEACH"],"SA4_NAME_2016":"Mackay - Isaac - Whitsunday"},{"postcode":"4801","lat":-20.053296,"long":148.887166,"state":"QLD","localities":["HAYMAN ISLAND"],"SA4_NAME_2016":"Mackay - Isaac - Whitsunday"},{"postcode":"4802","lat":-20.271072,"long":148.989038,"state":"QLD","localities":["AIRLIE BEACH","CANNONVALE","FLAMETREE","JUBILEE POCKET","MANDALAY","MOUNT ROOPER","SHUTE HARBOUR","SHUTEHAVEN","WHITSUNDAYS","WOODWARK"],"SA4_NAME_2016":"Mackay - Isaac - Whitsunday"},{"postcode":"4803","lat":-20.354067,"long":148.958824,"state":"QLD","localities":["HAMILTON ISLAND"],"SA4_NAME_2016":"Mackay - Isaac - Whitsunday"},{"postcode":"4804","lat":-20.867952,"long":147.518462,"state":"QLD","localities":["COLLINSVILLE","MOUNT COOLON","MOUNT WYATT","NEWLANDS","SCOTTVILLE","SPRINGLANDS"],"SA4_NAME_2016":"Mackay - Isaac - Whitsunday"},{"postcode":"4805","lat":-20.016612,"long":148.457987,"state":"QLD","localities":["BINBEE","BOGIE","BOWEN","BRISK BAY","DELTA","GUMLU","GUTHALUNGRA","MERINDA","QUEENS BEACH","ROSE BAY"],"SA4_NAME_2016":"Mackay - Isaac - Whitsunday"},{"postcode":"4806","lat":-19.862878,"long":147.416856,"state":"QLD","localities":["ARKENDEITH","CARSTAIRS","DOWN RIVER","FREDERICKSFIELD","GROPER CREEK RESERVE","HOME HILL","INKERMAN","KEEBAH","KIRKNIE","OSBORNE","RANGEMORE","WANGARATTA","WUNJUNGA"],"SA4_NAME_2016":"Townsville"},{"postcode":"4806","lat":-19.6970242,"long":147.563116,"state":"QLD","localities":["GROPER CREEK"],"SA4_NAME_2016":"Townsville"},{"postcode":"4807","lat":-19.914965,"long":147.133033,"state":"QLD","localities":["AIRDMILLAN","AIRVILLE","ALVA","AYR","CLARE","DALBEG","EIGHT MILE CREEK","JARVISFIELD","KALAMIA","MAIDAVALE","MCDESME","MILLAROO","MONA PARK","MOUNT KELLY","MULGRAVE","PARKSIDE","RITE ISLAND","SWANS LAGOON"],"SA4_NAME_2016":"Townsville"},{"postcode":"4807","lat":-19.785442,"long":147.228085,"state":"QLD","localities":["CLAREDALE"],"SA4_NAME_2016":"Townsville"},{"postcode":"4807","lat":-19.63262195,"long":147.5359409,"state":"QLD","localities":["RITA ISLAND"],"SA4_NAME_2016":"Townsville"},{"postcode":"4808","lat":-19.510071,"long":147.304401,"state":"QLD","localities":["BRANDON","COLEVALE"],"SA4_NAME_2016":"Townsville"},{"postcode":"4809","lat":-19.53085,"long":147.139821,"state":"QLD","localities":["BARRATTA","CROMARTY","GIRU","HORSESHOE LAGOON","JERONA","MOUNT SURROUND","SHIRBOURNE","UPPER HAUGHTON"],"SA4_NAME_2016":"Townsville"},{"postcode":"4810","lat":-19.227783,"long":146.764659,"state":"QLD","localities":["BELGIAN GARDENS","CAPE CLEVELAND","CASTLE HILL","NORTH WARD","PALLARENDA","RAILWAY ESTATE","ROWES BAY","SOUTH TOWNSVILLE","TOWNSVILLE","TOWNSVILLE DC","TOWNSVILLE MC","TOWNSVILLE WEST","WEST END","YARRAWONGA"],"SA4_NAME_2016":"Townsville"},{"postcode":"4810","lat":-19.18453186,"long":146.7537296,"state":"QLD","localities":["SHELLY BEACH"],"SA4_NAME_2016":"Townsville"},{"postcode":"4810","lat":-19.21292787,"long":146.7425187,"state":"QLD","localities":["TOWN COMMON"],"SA4_NAME_2016":"Townsville"},{"postcode":"4810","lat":-19.25896313,"long":146.8169484,"state":"QLD","localities":["TOWNSVILLE CITY"],"SA4_NAME_2016":"Townsville"},{"postcode":"4811","lat":-19.323109,"long":146.840325,"state":"QLD","localities":["CLUDEN","IDALIA","JAMES COOK UNIVERSITY","MOUNT STUART","OAK VALLEY","OONOONBA","ROSENEATH","STUART","WULGURU"],"SA4_NAME_2016":"Townsville"},{"postcode":"4812","lat":-19.286635,"long":146.787716,"state":"QLD","localities":["CURRAJONG","GULLIVER","HERMIT PARK","HYDE PARK","HYDE PARK CASTLETOWN","MUNDINGBURRA","MYSTERTON","PIMLICO","RISING SUN","ROSSLEA"],"SA4_NAME_2016":"Townsville"},{"postcode":"4813","lat":-19.338928,"long":146.786368,"state":"QLD","localities":["LAVARACK BARRACKS","TOWNSVILLE MILPO"],"SA4_NAME_2016":"Townsville"},{"postcode":"4814","lat":-19.285821,"long":146.754745,"state":"QLD","localities":["AITKENVALE","AITKENVALE BC","ANNANDALE","CRANBROOK","DOUGLAS","GARBUTT","GARBUTT BC","GARBUTT EAST","HEATLEY","MOUNT LOUISA","MURRAY","THURINGOWA DC","VINCENT"],"SA4_NAME_2016":"Townsville"},{"postcode":"4815","lat":-19.372329,"long":146.707586,"state":"QLD","localities":["CONDON","KELSO","PINNACLES","RASMUSSEN"],"SA4_NAME_2016":"Townsville"},{"postcode":"4815","lat":-19.57916441,"long":146.6352393,"state":"QLD","localities":["GRANITE VALE"],"SA4_NAME_2016":"Townsville"},{"postcode":"4815","lat":-19.35250344,"long":146.6847302,"state":"QLD","localities":["GUMLOW"],"SA4_NAME_2016":"Townsville"},{"postcode":"4816","lat":-19.787858,"long":146.791529,"state":"QLD","localities":["ALLIGATOR CREEK","BALGAL BEACH","BROOKHILL","BUCHANAN","CALCIUM","CARRUCHAN","CRIMEA","CUNGULLA","ELLERBECK","GREENVALE","HIDDEN VALLEY","HOMESTEAD","JULAGO","KENNEDY","MACROSSAN","MAJORS CREEK","MALPAS-TRENTON","MAXWELTON","MINGELA","MOUNT ELLIOT","MUTARNEE","NELIA","NOME","PALM ISLAND","PALUMA","PENTLAND","PRAIRIE","RAVENSWOOD","REID RIVER","ROLLINGSTONE","SAVANNAH","SELLHEIM","THE CAPE","TOOMULLA","TOONPAN","TORRENS CREEK","WOODSTOCK"],"SA4_NAME_2016":"Townsville"},{"postcode":"4816","lat":-19.5377438,"long":146.7962019,"state":"QLD","localities":["BARRINGHA"],"SA4_NAME_2016":"Townsville"},{"postcode":"4816","lat":-19.11715201,"long":146.4359428,"state":"QLD","localities":["CLEMANT"],"SA4_NAME_2016":"Townsville"},{"postcode":"4816","lat":-19.01715711,"long":146.2744573,"state":"QLD","localities":["CRYSTAL CREEK"],"SA4_NAME_2016":"Townsville"},{"postcode":"4816","lat":-19.45947696,"long":146.7934243,"state":"QLD","localities":["ROSS RIVER"],"SA4_NAME_2016":"Townsville"},{"postcode":"4817","lat":-19.310498,"long":146.652307,"state":"QLD","localities":["ALICE RIVER","BOHLE PLAINS","HERVEY RANGE","KIRWAN","RANGEWOOD","RUPERTSWOOD","STABLEFORD","THURINGOWA CENTRAL"],"SA4_NAME_2016":"Townsville"},{"postcode":"4818","lat":-19.23794,"long":146.540275,"state":"QLD","localities":["BEACH HOLM","BLACK RIVER","BLUE HILLS","BLUEWATER","BLUEWATER PARK","BOHLE","BURDELL","BUSHLAND BEACH","DEERAGUN","INNES","JENSEN","LYNAM","MOUNT LOW","PURONO PARK","SAUNDERS BEACH","SHAW","TOOLAKEA","YABULU"],"SA4_NAME_2016":"Townsville"},{"postcode":"4818","lat":-19.27139928,"long":146.7141039,"state":"QLD","localities":["COSGROVE"],"SA4_NAME_2016":"Townsville"},{"postcode":"4818","lat":-19.25217609,"long":146.7403725,"state":"QLD","localities":["MOUNT ST JOHN"],"SA4_NAME_2016":"Townsville"},{"postcode":"4819","lat":-19.143944,"long":146.831766,"state":"QLD","localities":["ARCADIA","ARCADIA BAY","HORSESHOE BAY","MAGNETIC ISLAND","NELLY BAY","PICNIC BAY"],"SA4_NAME_2016":"Townsville"},{"postcode":"4819","lat":-19.11815984,"long":146.8727997,"state":"QLD","localities":["FLORENCE BAY"],"SA4_NAME_2016":"Townsville"},{"postcode":"4819","lat":-19.13469076,"long":146.8166793,"state":"QLD","localities":["WEST POINT"],"SA4_NAME_2016":"Townsville"},{"postcode":"4820","lat":-20.08221328,"long":146.2483755,"state":"QLD","localities":["ALABAMA HILL"],"SA4_NAME_2016":"Townsville"},{"postcode":"4820","lat":-20.428447,"long":146.275575,"state":"QLD","localities":["BALFES CREEK","BASALT","BLACK JACK","BREDDAN","BROUGHTON","CAMPASPE","CHARTERS TOWERS","DOTSWOOD","LLANARTH","QUEENTON","RICHMOND HILL","SEVENTY MILE","SOUTHERN CROSS"],"SA4_NAME_2016":"Townsville"},{"postcode":"4820","lat":-20.07696378,"long":146.2601362,"state":"QLD","localities":["CHARTERS TOWERS CITY"],"SA4_NAME_2016":"Townsville"},{"postcode":"4820","lat":-20.04978254,"long":146.2815021,"state":"QLD","localities":["COLUMBIA"],"SA4_NAME_2016":"Townsville"},{"postcode":"4820","lat":-20.07278047,"long":146.245218,"state":"QLD","localities":["GRAND SECRET"],"SA4_NAME_2016":"Townsville"},{"postcode":"4820","lat":-20.09237838,"long":146.2803637,"state":"QLD","localities":["MILLCHESTER"],"SA4_NAME_2016":"Townsville"},{"postcode":"4820","lat":-20.09881303,"long":146.2604909,"state":"QLD","localities":["MOSMAN PARK"],"SA4_NAME_2016":"Townsville"},{"postcode":"4820","lat":-20.04859254,"long":146.2546239,"state":"QLD","localities":["TOLL"],"SA4_NAME_2016":"Townsville"},{"postcode":"4820","lat":-20.09048269,"long":146.2505114,"state":"QLD","localities":["TOWERS HILL"],"SA4_NAME_2016":"Townsville"},{"postcode":"4821","lat":-20.79424,"long":144.218437,"state":"QLD","localities":["DUTTON RIVER","HUGHENDEN","PORCUPINE","STAMFORD","TANGORIN"],"SA4_NAME_2016":"Queensland - Outback"},{"postcode":"4821","lat":-21.33838836,"long":144.6827856,"state":"QLD","localities":["PRAIRIE"],"SA4_NAME_2016":"Queensland - Outback"},{"postcode":"4822","lat":-21.32840736,"long":142.604872,"state":"QLD","localities":["ALBION"],"SA4_NAME_2016":"Queensland - Outback"},{"postcode":"4822","lat":-20.80796,"long":143.164223,"state":"QLD","localities":["BELLFIELD","NONDA","RICHMOND","VICTORIA VALE"],"SA4_NAME_2016":"Queensland - Outback"},{"postcode":"4822","lat":-20.27407556,"long":143.0473383,"state":"QLD","localities":["BURLEIGH"],"SA4_NAME_2016":"Queensland - Outback"},{"postcode":"4822","lat":-20.41927169,"long":142.5863264,"state":"QLD","localities":["CAMBRIDGE"],"SA4_NAME_2016":"Queensland - Outback"},{"postcode":"4822","lat":-20.8622414,"long":142.6436913,"state":"QLD","localities":["MAXWELTON"],"SA4_NAME_2016":"Queensland - Outback"},{"postcode":"4822","lat":-19.86441527,"long":142.6631258,"state":"QLD","localities":["SAXBY"],"SA4_NAME_2016":"Queensland - Outback"},{"postcode":"4822","lat":-19.97470077,"long":143.4430132,"state":"QLD","localities":["WOOLGAR"],"SA4_NAME_2016":"Queensland - Outback"},{"postcode":"4823","lat":-19.214466,"long":141.243755,"state":"QLD","localities":["CARPENTARIA","JULIA CREEK","KYNUNA","MCKINLAY","STOKES","TALDORA","WARBURTON"],"SA4_NAME_2016":"Queensland - Outback"},{"postcode":"4824","lat":-20.777471,"long":140.652531,"state":"QLD","localities":["CLONCURRY","DEVONCOURT STATION","FOUR WAYS","GIDYA","KURIDALA","OORINDI","THREE RIVERS"],"SA4_NAME_2016":"Queensland - Outback"},{"postcode":"4825","lat":-21.017327,"long":137.432341,"state":"QLD","localities":["ALEXANDRIA","ALPURRURULAM","ALROY","ANTHONYS LAGOON","BARKLY","BREAKAWAY","BRUNETTE DOWNS","BUCKINGHAM","BUSHY PARK","CARRANDOTTA","DAJARRA","DUCHESS","FIELDING","FISHER","GEORGINA","GUNPOWDER","HAPPY VALLEY","HEALY","KALKADOON","LANSKEY","LAWN HILL","MARY KATHLEEN","MENZIES","MICA CREEK","MILES END","MORNINGTON","MOUNT ISA","MOUNT ISA BC","MOUNT ISA DC","MOUNT ISA EAST","OSBORNE MINE","PARKSIDE","PIONEER","PITURIE","RYAN","SOLDIERS HILL","SPREADBOROUGH","SUNSET","THE GAP","THE MONUMENT","TOWNVIEW","WAVERLEY","WINSTON"],"SA4_NAME_2016":"Mackay - Isaac - Whitsunday"},{"postcode":"4825","lat":-20.72557467,"long":139.4927075,"state":"QLD","localities":["MOUNT ISA CITY"],"SA4_NAME_2016":"Queensland - Outback"},{"postcode":"4828","lat":-19.543752,"long":138.350723,"state":"QLD","localities":["CAMOOWEAL"],"SA4_NAME_2016":"Queensland - Outback"},{"postcode":"4829","lat":-23.329938,"long":140.22124,"state":"QLD","localities":["AMAROO","BEDOURIE","BOULIA","MIN MIN","STURT","TOKO","WARENDA","WILLS"],"SA4_NAME_2016":"Queensland - Outback"},{"postcode":"4830","lat":-17.956336,"long":138.862024,"state":"QLD","localities":["AUGUSTUS DOWNS","BURKETOWN","DOOMADGEE","GREGORY","GREGORY DOWNS","NICHOLSON"],"SA4_NAME_2016":"Queensland - Outback"},{"postcode":"4849","lat":-18.265652,"long":146.027929,"state":"QLD","localities":["CARDWELL","DAMPER CREEK","HINCHINBROOK","LUMHOLTZ","RUNGOO"],"SA4_NAME_2016":"Cairns"},{"postcode":"4850","lat":-18.552533,"long":146.49572,"state":"QLD","localities":["ABERGOWRIE","ALLINGHAM","BAMBAROO","BEMERSIDE","BLACKROCK","BRAEMEADOWS","CORDELIA","DALRYMPLE CREEK","FORESTHOME","FORREST BEACH","GAIRLOCH","GARRAWALT","HALIFAX","HAWKINS CREEK","HELENS HILL","INGHAM","LANNERCOST","LONG POCKET","LUCINDA","MACKNADE","MOUNT FOX","ORIENT","PEACOCK SIDING","TAYLORS BEACH","TOOBANNA","TREBONNE","UPPER STONE","VALLEY OF LAGOONS","VICTORIA PLANTATION","WALLAMAN","WHARPS","YURUGA"],"SA4_NAME_2016":"Townsville"},{"postcode":"4850","lat":-18.90354588,"long":146.2680446,"state":"QLD","localities":["COOLBIE"],"SA4_NAME_2016":"Townsville"},{"postcode":"4852","lat":-17.830091,"long":146.09996,"state":"QLD","localities":["BINGIL BAY","CARMOO","CLUMP POINT","DJIRU","DUNK","GARNERS BEACH","MIDGEREE BAR","MISSION BEACH","NARRAGON BEACH","SOUTH MISSION","TAM O'SHANTER","WONGALING BEACH"],"SA4_NAME_2016":"Cairns"},{"postcode":"4852","lat":-17.95780486,"long":146.0860982,"state":"QLD","localities":["SOUTH MISSION BEACH"],"SA4_NAME_2016":"Cairns"},{"postcode":"4854","lat":-18.020178,"long":145.842063,"state":"QLD","localities":["BILYANA","BIRKALLA","BULGUN","CARDSTONE","DINGO POCKET","DJARAWONG","EAST FELUGA","EURAMO","FELUGA","HULL HEADS","JARRA CREEK","KOOROOMOOL","LOWER TULLY","MERRYBURN","MIDGENOO","MOUNT MACKAY","MUNRO PLAINS","MURRAY UPPER","MURRIGAL","ROCKINGHAM","SILKY OAK","TULLY","TULLY HEADS","WALTER HILL","WARRAMI"],"SA4_NAME_2016":"Cairns"},{"postcode":"4855","lat":-17.815378,"long":146.010914,"state":"QLD","localities":["DAVESON","EL ARISH","FRIDAY POCKET","GRANADILLA","JAFFA","MAADI","MARIA CREEKS","SHELL POCKET"],"SA4_NAME_2016":"Cairns"},{"postcode":"4856","lat":-17.741424,"long":145.924432,"state":"QLD","localities":["GOOLBOO","JAPOONVALE","MCCUTCHEON","NO. 4 BRANCH","NO. 5 BRANCH","SILKWOOD","WALTER LEVER ESTATE"],"SA4_NAME_2016":"Cairns"},{"postcode":"4857","lat":-17.748858,"long":146.059181,"state":"QLD","localities":["SILKWOOD EAST"],"SA4_NAME_2016":"Cairns"},{"postcode":"4858","lat":-17.622583,"long":146.078807,"state":"QLD","localities":["COMOON LOOP","ETTY BAY","MARTYVILLE","MOURILYAN","MOURILYAN HARBOUR","NEW HARBOURLINE"],"SA4_NAME_2016":"Cairns"},{"postcode":"4859","lat":-17.608772,"long":145.959335,"state":"QLD","localities":["NO. 6 BRANCH","SOUTH JOHNSTONE"],"SA4_NAME_2016":"Cairns"},{"postcode":"4860","lat":-17.520343,"long":145.888782,"state":"QLD","localities":["BAMBOO CREEK","BELVEDERE","COCONUTS","COOROO LANDS","COORUMBA","COQUETTE POINT","CULLINANE","DARADGEE","EAST INNISFAIL","EAST PALMERSTON","EATON","EUBENANGEE","FITZGERALD CREEK","FLYING FISH POINT","GARRADUNGA","GOONDI","GOONDI BEND","GOONDI HILL","HUDSON","INNISFAIL","INNISFAIL ESTATE","JUBILEE HEIGHTS","MIGHELL","MUNDOO","NERADA","NJATJAN","O'BRIENS HILL","PALMERSTON","PIN GIN HILL","SOUTH INNISFAIL","STOTERS HILL","SUNDOWN","UPPER DARADGEE","VALETTAS ESTATE","VASA VIEWS","WANJURU","WEBB","WOOROONOORAN"],"SA4_NAME_2016":"Cairns"},{"postcode":"4860","lat":-17.49002793,"long":145.9033414,"state":"QLD","localities":["NGATJAN"],"SA4_NAME_2016":"Cairns"},{"postcode":"4861","lat":-17.352821,"long":145.872166,"state":"QLD","localities":["BABINDA","BARTLE FRERE","EAST RUSSELL"],"SA4_NAME_2016":"Cairns"},{"postcode":"4865","lat":-17.095516,"long":145.782765,"state":"QLD","localities":["GOLDSBOROUGH","GORDONVALE","KAMMA","LITTLE MULGRAVE","MERINGA","PYRAMID","REDBANK"],"SA4_NAME_2016":"Cairns"},{"postcode":"4865","lat":-17.03089559,"long":145.8328711,"state":"QLD","localities":["GREEN HILL"],"SA4_NAME_2016":"Cairns"},{"postcode":"4865","lat":-17.02159803,"long":145.8019067,"state":"QLD","localities":["PACKERS CAMP"],"SA4_NAME_2016":"Cairns"},{"postcode":"4868","lat":-16.993753,"long":145.729193,"state":"QLD","localities":["BAYVIEW HEIGHTS","MOUNT SHERIDAN","TARRAWARRA","WHITE ROCK","WOREE"],"SA4_NAME_2016":"Cairns"},{"postcode":"4869","lat":-17.025592,"long":145.730423,"state":"QLD","localities":["BENTLEY PARK","CENTENARY PARK","EDMONTON","MOUNT PETER","TAMARIND GARDENS","WRIGHTS CREEK"],"SA4_NAME_2016":"Cairns"},{"postcode":"4870","lat":-16.923761,"long":145.742303,"state":"QLD","localities":["AEROGLEN","BRINSMEAD","BUNGALOW","CAIRNS","CAIRNS CENTRAL","CAIRNS CITY","CAIRNS DC","CAIRNS MC","CAIRNS NORTH","CAIRNS ORCHID PLAZA","EARLVILLE","EARLVILLE BC","EDGE HILL","FRESHWATER","KAMERUNGA","KANIMBLA","LAKE MORRIS","MACKINNON","MANOORA","MANUNDA","MARTYNVALE","MOOROOBOOL","NORTH CAIRNS","PARRAMATTA PARK","PORTSMITH","REDLYNCH","STRATFORD","WESTCOURT","WHITFIELD"],"SA4_NAME_2016":"Cairns"},{"postcode":"4870","lat":-16.88018212,"long":145.6691953,"state":"QLD","localities":["BARRON GORGE"],"SA4_NAME_2016":"Cairns"},{"postcode":"4870","lat":-17.05547916,"long":145.6820733,"state":"QLD","localities":["LAMB RANGE"],"SA4_NAME_2016":"Cairns"},{"postcode":"4871","lat":-16.934184,"long":145.994075,"state":"QLD","localities":["ABINGDON DOWNS","ALMADEN","ALOOMBA","AURUKUN","BASILISK","BELLENDEN KER","BLACKBULL","BOMBEETA","BOOGAN","BRAMSTON BEACH","CAMP CREEK","CHILLAGOE","CLARAVILLE","COEN","CONJUBOY","CORALIE","COWLEY","COWLEY BEACH","COWLEY CREEK","CROYDON","CURRAJAH","DEERAL","EAST CREEK","EAST TRINITY","EDWARD RIVER","EINASLEIGH","ESMERALDA","FISHERY FALLS","FORSAYTH","FOUR MILE BEACH","GEORGETOWN","GERMANTOWN","GILBERT RIVER","GLEN BOUGHTON","GREEN ISLAND","GUNUNA","HELENVALE","JULATTEN","KARRON","KIDSTON","KOAH","KOWANYAMA","KURRIMINE BEACH","LAKELAND","LAURA","LOCKHART","LOWER COWLEY","LYNDHURST","MENA CREEK","MIRIWINNI","MORESBY","MORNINGTON ISLAND","MOUNT CARBINE","MOUNT MOLLOY","MOUNT SURPRISE","NORTHHEAD","PETFORD","PORMPURAAW","PORTLAND ROADS","SANDY POCKET","SOUTH WELLESLEY ISLANDS","SPURGEON","STOCKTON","STRATHMORE","TALAROO","UTCHEE CREEK","WANGAN","WARRUBULLEN","WELLESLEY ISLANDS","WEST WELLESLEY ISLANDS","YARRABAH"],"SA4_NAME_2016":"Queensland - Outback"},{"postcode":"4871","lat":-17.72028371,"long":144.2385409,"state":"QLD","localities":["AMBER"],"SA4_NAME_2016":"Queensland - Outback"},{"postcode":"4871","lat":-17.44094682,"long":144.0416628,"state":"QLD","localities":["BOLWARRA"],"SA4_NAME_2016":"Queensland - Outback"},{"postcode":"4871","lat":-17.61928201,"long":143.9016447,"state":"QLD","localities":["BULLERINGA"],"SA4_NAME_2016":"Queensland - Outback"},{"postcode":"4871","lat":-17.46050483,"long":144.3848431,"state":"QLD","localities":["CRYSTALBROOK"],"SA4_NAME_2016":"Queensland - Outback"},{"postcode":"4871","lat":-16.41681452,"long":144.8668872,"state":"QLD","localities":["DESAILLY"],"SA4_NAME_2016":"Queensland - Outback"},{"postcode":"4871","lat":-16.93307664,"long":145.9945252,"state":"QLD","localities":["FITZROY ISLAND"],"SA4_NAME_2016":"Cairns"},{"postcode":"4871","lat":-17.87347731,"long":144.268158,"state":"QLD","localities":["FOSSILBROOK"],"SA4_NAME_2016":"Queensland - Outback"},{"postcode":"4871","lat":-16.62908504,"long":144.7235719,"state":"QLD","localities":["HURRICANE"],"SA4_NAME_2016":"Queensland - Outback"},{"postcode":"4871","lat":-16.71762977,"long":145.6348702,"state":"QLD","localities":["MACALISTER RANGE"],"SA4_NAME_2016":"Cairns"},{"postcode":"4871","lat":-17.38501354,"long":145.9189699,"state":"QLD","localities":["MIRRIWINNI"],"SA4_NAME_2016":"Cairns"},{"postcode":"4871","lat":-16.7627129,"long":145.0229543,"state":"QLD","localities":["MOUNT MULLIGAN"],"SA4_NAME_2016":"Queensland - Outback"},{"postcode":"4871","lat":-16.76546804,"long":144.4950364,"state":"QLD","localities":["NYCHUM"],"SA4_NAME_2016":"Queensland - Outback"},{"postcode":"4871","lat":-17.0172149,"long":144.24717,"state":"QLD","localities":["ROOKWOOD"],"SA4_NAME_2016":"Queensland - Outback"},{"postcode":"4871","lat":-16.77109607,"long":145.2743097,"state":"QLD","localities":["SOUTHEDGE"],"SA4_NAME_2016":"Queensland - Outback"},{"postcode":"4871","lat":-17.93230739,"long":144.5156919,"state":"QLD","localities":["SPRINGFIELD"],"SA4_NAME_2016":"Queensland - Outback"},{"postcode":"4871","lat":-16.96349862,"long":145.0371532,"state":"QLD","localities":["THORNBOROUGH"],"SA4_NAME_2016":"Queensland - Outback"},{"postcode":"4871","lat":-17.44049495,"long":145.924258,"state":"QLD","localities":["WAUGH POCKET"],"SA4_NAME_2016":"Cairns"},{"postcode":"4871","lat":-17.46980606,"long":145.877686,"state":"QLD","localities":["WOOPEN CREEK"],"SA4_NAME_2016":"Cairns"},{"postcode":"4872","lat":-18.028128,"long":145.157257,"state":"QLD","localities":["BARRINE","CAIRNS MC","DANBULLA","DIMBULAH","GLEN RUTH","GUNNAWARRA","INNOT HOT SPRINGS","KAIRI","KIRRAMA","KOOMBOOLOOMBA","KOWROWA","KURANDA","LAKE TINAROO","LAKESIDE ESTATE","MINNAMOOLKA","MOUNT GARNET","MUTCHILBA","MYOLA","SILVER VALLEY","TINAROO","WAIRUNA","WALKAMIN","KURANDA"],"SA4_NAME_2016":"Cairns"},{"postcode":"4872","lat":-17.66639202,"long":144.6415088,"state":"QLD","localities":["BARWIDGI"],"SA4_NAME_2016":"Queensland - Outback"},{"postcode":"4872","lat":-18.02682862,"long":144.7311717,"state":"QLD","localities":["FORTY MILE"],"SA4_NAME_2016":"Queensland - Outback"},{"postcode":"4872","lat":-17.64629156,"long":144.8818623,"state":"QLD","localities":["MUNDERRA"],"SA4_NAME_2016":"Queensland - Outback"},{"postcode":"4873","lat":-16.230854,"long":145.299094,"state":"QLD","localities":["BAILEY CREEK","BAMBOO","BONNIE DOON","CAPE TRIBULATION","CASSOWARY","COOYA BEACH","COW BAY","DAGMAR","DAINTREE","DEDIN","DIWAN","FINLAY VALE","FOREST CREEK","KIMBERLEY","LOWER DAINTREE","MIALLO","MOSSMAN","MOSSMAN GORGE","NEWELL","NOAH","ROCKY POINT","SHANNONVALE","STEWART CREEK VALLEY","SYNDICATE","THORNTON BEACH","UPPER DAINTREE","WHYANBEEL","WONGA"],"SA4_NAME_2016":"Wide Bay"},{"postcode":"4873","lat":-16.45863225,"long":145.3498794,"state":"QLD","localities":["FINLAYVALE"],"SA4_NAME_2016":"Cairns"},{"postcode":"4873","lat":-16.38618344,"long":145.565388,"state":"QLD","localities":["LOW ISLES"],"SA4_NAME_2016":""},{"postcode":"4873","lat":-16.20917434,"long":145.0575079,"state":"QLD","localities":["SPURGEON"],"SA4_NAME_2016":"Cairns"},{"postcode":"4873","lat":-16.34703692,"long":145.4206259,"state":"QLD","localities":["WONGA BEACH"],"SA4_NAME_2016":"Cairns"},{"postcode":"4874","lat":-12.533944,"long":142.267938,"state":"QLD","localities":["EVANS LANDING","MAPOON","NANUM","ROCKY POINT","TRUNDING","WEIPA","WEIPA AIRPORT"],"SA4_NAME_2016":"Queensland - Outback"},{"postcode":"4874","lat":-11.30318365,"long":142.7374815,"state":"QLD","localities":["JARDINE RIVER"],"SA4_NAME_2016":"Queensland - Outback"},{"postcode":"4874","lat":-12.71887526,"long":142.377739,"state":"QLD","localities":["MISSION RIVER"],"SA4_NAME_2016":"Queensland - Outback"},{"postcode":"4874","lat":-12.682566,"long":141.889719,"state":"QLD","localities":["NAPRANUM"],"SA4_NAME_2016":"Queensland - Outback"},{"postcode":"4874","lat":-12.01611476,"long":142.9853326,"state":"QLD","localities":["SHELBURNE"],"SA4_NAME_2016":"Queensland - Outback"},{"postcode":"4874","lat":-12.49857052,"long":142.6252767,"state":"QLD","localities":["WENLOCK"],"SA4_NAME_2016":"Queensland - Outback"},{"postcode":"4875","lat":-9.584901,"long":143.769211,"state":"QLD","localities":["BADU ISLAND","BANKS ISLAND","BOIGU","BOIGU ISLAND","COCONUT ISLAND","DARNLEY ISLAND","DAUAN ISLAND","ERUB","HORN ISLAND","IAMA","JERVIS ISLAND","KUBIN VILLAGE","MABUIAG","MABUIAG ISLAND","MASIG","MOA ISLAND","MULGRAVE ISLAND","MURRAY ISLAND","SAIBAI ISLAND","STEPHENS ISLAND","TALBOT ISLAND","THURSDAY ISLAND","WARRABER ISLAND","YAM ISLAND","YORKE ISLAND"],"SA4_NAME_2016":"Queensland - Outback"},{"postcode":"4875","lat":-9.588833779,"long":143.7700283,"state":"QLD","localities":["ERUB ISLAND"],"SA4_NAME_2016":"Queensland - Outback"},{"postcode":"4875","lat":-10.61791729,"long":142.321612,"state":"QLD","localities":["HORN"],"SA4_NAME_2016":"Queensland - Outback"},{"postcode":"4875","lat":-10.55439331,"long":142.2057104,"state":"QLD","localities":["KERIRI ISLAND"],"SA4_NAME_2016":"Queensland - Outback"},{"postcode":"4875","lat":-9.752315346,"long":143.4078579,"state":"QLD","localities":["MASIG ISLAND"],"SA4_NAME_2016":"Queensland - Outback"},{"postcode":"4875","lat":-10.05030112,"long":143.0695509,"state":"QLD","localities":["PORUMA ISLAND"],"SA4_NAME_2016":"Queensland - Outback"},{"postcode":"4875","lat":-10.71407271,"long":142.1910378,"state":"QLD","localities":["PRINCE OF WALES"],"SA4_NAME_2016":"Queensland - Outback"},{"postcode":"4875","lat":-10.20755941,"long":142.8239922,"state":"QLD","localities":["WARRABER ISLET"],"SA4_NAME_2016":"Queensland - Outback"},{"postcode":"4876","lat":-11.33852,"long":142.465399,"state":"QLD","localities":["BAMAGA","INJINOO","NEW MAPOON","SEISIA","UMAGICO"],"SA4_NAME_2016":"Queensland - Outback"},{"postcode":"4877","lat":-16.535286,"long":145.467604,"state":"QLD","localities":["CRAIGLIE","KILLALOE","LOW ISLES","MOWBRAY","OAK BEACH","PORT DOUGLAS","WANGETTI"],"SA4_NAME_2016":"Cairns"},{"postcode":"4878","lat":-16.839378,"long":145.711531,"state":"QLD","localities":["BARRON","CARAVONICA","HOLLOWAYS BEACH","LAKE PLACID","MACHANS BEACH","SMITHFIELD","YORKEYS KNOB"],"SA4_NAME_2016":"Cairns"},{"postcode":"4879","lat":-16.789777,"long":145.666474,"state":"QLD","localities":["BUCHAN POINT","CLIFTON BEACH","ELLIS BEACH","KEWARRA BEACH","PALM COVE","TRINITY BEACH","TRINITY PARK"],"SA4_NAME_2016":"Cairns"},{"postcode":"4880","lat":-17.0488028,"long":145.2931511,"state":"QLD","localities":["ARRIGA"],"SA4_NAME_2016":"Queensland - Outback"},{"postcode":"4880","lat":-16.972341,"long":145.383091,"state":"QLD","localities":["BIBOOHRA","BILWON","MAREEBA","MARYFARMS"],"SA4_NAME_2016":"Queensland - Outback"},{"postcode":"4880","lat":-17.06721287,"long":145.3734075,"state":"QLD","localities":["CHEWKO"],"SA4_NAME_2016":"Queensland - Outback"},{"postcode":"4880","lat":-16.95931822,"long":145.2375044,"state":"QLD","localities":["GLEN RUSSELL"],"SA4_NAME_2016":"Queensland - Outback"},{"postcode":"4880","lat":-16.97139021,"long":145.3288229,"state":"QLD","localities":["PADDYS GREEN"],"SA4_NAME_2016":"Queensland - Outback"},{"postcode":"4881","lat":-16.91252285,"long":145.5578365,"state":"QLD","localities":["KOAH"],"SA4_NAME_2016":"Cairns"},{"postcode":"4881","lat":-16.74295055,"long":145.5429955,"state":"QLD","localities":["MONA MONA"],"SA4_NAME_2016":"Cairns"},{"postcode":"4881","lat":-16.89087135,"long":145.6257271,"state":"QLD","localities":["SPEEWAH"],"SA4_NAME_2016":"Cairns"},{"postcode":"4882","lat":-17.202517,"long":145.47284,"state":"QLD","localities":["TOLGA"],"SA4_NAME_2016":"Cairns"},{"postcode":"4883","lat":-17.33327,"long":145.476659,"state":"QLD","localities":["ATHERTON","CARRINGTON","EAST BARRON","UPPER BARRON","WONGABEL"],"SA4_NAME_2016":"Cairns"},{"postcode":"4884","lat":-17.26633269,"long":145.7215575,"state":"QLD","localities":["GADGARRA"],"SA4_NAME_2016":"Cairns"},{"postcode":"4884","lat":-17.25623569,"long":145.6419665,"state":"QLD","localities":["LAKE BARRINE"],"SA4_NAME_2016":"Cairns"},{"postcode":"4884","lat":-17.29482618,"long":145.6451547,"state":"QLD","localities":["LAKE EACHAM"],"SA4_NAME_2016":"Cairns"},{"postcode":"4884","lat":-17.27149723,"long":145.5969857,"state":"QLD","localities":["YUNGABURRA"],"SA4_NAME_2016":"Cairns"},{"postcode":"4885","lat":-17.384187,"long":145.624143,"state":"QLD","localities":["BUTCHERS CREEK","GLEN ALLYN","JAGGAN","KUREEN","MALANDA","NORTH JOHNSTONE","PEERAMON","TARZALI","TOPAZ"],"SA4_NAME_2016":"Cairns"},{"postcode":"4886","lat":-17.535676,"long":145.633789,"state":"QLD","localities":["BEATRICE","ELLINJAA","MAALAN","MIDDLEBROOK","MILLAA MILLAA","MINBUN","MOREGATTA","MUNGALLI"],"SA4_NAME_2016":"Cairns"},{"postcode":"4887","lat":-17.384931,"long":145.386636,"state":"QLD","localities":["HERBERTON","IRVINEBANK","MOOMIN","WATSONVILLE","WONDECLA"],"SA4_NAME_2016":"Cairns"},{"postcode":"4887","lat":-17.45397782,"long":145.3951374,"state":"QLD","localities":["KALUNGA"],"SA4_NAME_2016":"Cairns"},{"postcode":"4888","lat":-17.499336,"long":145.491052,"state":"QLD","localities":["EVELYN","KABAN","MILLSTREAM","RAVENSHOE","TUMOULIN"],"SA4_NAME_2016":"Cairns"},{"postcode":"4890","lat":-17.741867,"long":141.185062,"state":"QLD","localities":["HOWITT","NORMAN","NORMANTON"],"SA4_NAME_2016":"Queensland - Outback"},{"postcode":"4891","lat":-17.447378,"long":140.92883,"state":"QLD","localities":["KARUMBA"],"SA4_NAME_2016":"Queensland - Outback"},{"postcode":"4892","lat":-17.79980535,"long":143.4395495,"state":"QLD","localities":["ABINGDON DOWNS"],"SA4_NAME_2016":"Queensland - Outback"},{"postcode":"4892","lat":-17.0861,"long":144.0132,"state":"QLD","localities":["ARBOUIN"],"SA4_NAME_2016":"Queensland - Outback"},{"postcode":"4892","lat":-13.41253462,"long":142.2834743,"state":"QLD","localities":["ARCHER RIVER"],"SA4_NAME_2016":"Queensland - Outback"},{"postcode":"4892","lat":-12.5758,"long":142.1567,"state":"QLD","localities":["AURUKUN"],"SA4_NAME_2016":"Queensland - Outback"},{"postcode":"4892","lat":-16.6338,"long":144.2636,"state":"QLD","localities":["BELLEVUE"],"SA4_NAME_2016":"Queensland - Outback"},{"postcode":"4892","lat":-13.8089,"long":143.351,"state":"QLD","localities":["COEN"],"SA4_NAME_2016":"Queensland - Outback"},{"postcode":"4892","lat":-15.3798,"long":143.2422,"state":"QLD","localities":["DIXIE"],"SA4_NAME_2016":"Queensland - Outback"},{"postcode":"4892","lat":-14.94470878,"long":142.3617725,"state":"QLD","localities":["EDWARD RIVER"],"SA4_NAME_2016":"Queensland - Outback"},{"postcode":"4892","lat":-16.4248,"long":143.491,"state":"QLD","localities":["GAMBOOLA"],"SA4_NAME_2016":"Queensland - Outback"},{"postcode":"4892","lat":-16.3895,"long":144.3621,"state":"QLD","localities":["GROGANVILLE"],"SA4_NAME_2016":"Queensland - Outback"},{"postcode":"4892","lat":-16.3223,"long":143.0015,"state":"QLD","localities":["HIGHBURY"],"SA4_NAME_2016":"Queensland - Outback"},{"postcode":"4892","lat":-14.13331977,"long":142.4805978,"state":"QLD","localities":["HOLROYD RIVER"],"SA4_NAME_2016":"Queensland - Outback"},{"postcode":"4892","lat":-15.2791,"long":141.8167,"state":"QLD","localities":["KOWANYAMA"],"SA4_NAME_2016":"Queensland - Outback"},{"postcode":"4892","lat":-14.7008,"long":144.2233,"state":"QLD","localities":["LAKEFIELD"],"SA4_NAME_2016":"Queensland - Outback"},{"postcode":"4892","lat":-15.4486,"long":144.0752,"state":"QLD","localities":["LAURA"],"SA4_NAME_2016":"Queensland - Outback"},{"postcode":"4892","lat":-14.7544,"long":145.3537,"state":"QLD","localities":["LIZARD"],"SA4_NAME_2016":""},{"postcode":"4892","lat":-13.09012087,"long":143.4070798,"state":"QLD","localities":["LOCKHART RIVER"],"SA4_NAME_2016":"Queensland - Outback"},{"postcode":"4892","lat":-16.9153,"long":143.5439,"state":"QLD","localities":["LYNDSIDE"],"SA4_NAME_2016":"Queensland - Outback"},{"postcode":"4892","lat":-16.1161,"long":142.3599,"state":"QLD","localities":["MARAMIE"],"SA4_NAME_2016":"Queensland - Outback"},{"postcode":"4892","lat":-16.27385462,"long":143.9908483,"state":"QLD","localities":["MOUNT MULGRAVE"],"SA4_NAME_2016":"Queensland - Outback"},{"postcode":"4892","lat":-15.9788,"long":143.5243,"state":"QLD","localities":["PALMER"],"SA4_NAME_2016":"Queensland - Outback"},{"postcode":"4892","lat":-14.7403,"long":141.8337,"state":"QLD","localities":["PORMPURAAW"],"SA4_NAME_2016":"Queensland - Outback"},{"postcode":"4892","lat":-17.2899,"long":143.7087,"state":"QLD","localities":["RAVENSWORTH"],"SA4_NAME_2016":"Queensland - Outback"},{"postcode":"4892","lat":-17.44040819,"long":143.3357733,"state":"QLD","localities":["RED RIVER"],"SA4_NAME_2016":"Queensland - Outback"},{"postcode":"4892","lat":-17.06688112,"long":139.4925619,"state":"QLD","localities":["SOUTH WELLESLEY ISLANDS"],"SA4_NAME_2016":"Queensland - Outback"},{"postcode":"4892","lat":-16.5907,"long":142.9048,"state":"QLD","localities":["STAATEN"],"SA4_NAME_2016":"Queensland - Outback"},{"postcode":"4892","lat":-16.55572317,"long":139.3952283,"state":"QLD","localities":["WELLESLEY ISLANDS"],"SA4_NAME_2016":"Queensland - Outback"},{"postcode":"4892","lat":-16.70906941,"long":139.1630508,"state":"QLD","localities":["WEST WELLESLEY ISLANDS"],"SA4_NAME_2016":"Queensland - Outback"},{"postcode":"4892","lat":-16.6407,"long":143.9145,"state":"QLD","localities":["WROTHAM"],"SA4_NAME_2016":"Queensland - Outback"},{"postcode":"4892","lat":-15.8047,"long":141.8836,"state":"QLD","localities":["YAGOONYA"],"SA4_NAME_2016":"Queensland - Outback"},{"postcode":"4892","lat":-14.6604,"long":143.3735,"state":"QLD","localities":["YARRADEN"],"SA4_NAME_2016":"Queensland - Outback"},{"postcode":"4895","lat":-16.04948936,"long":145.3380453,"state":"QLD","localities":["BLOOMFIELD"],"SA4_NAME_2016":"Queensland - Outback"},{"postcode":"4895","lat":-15.54325984,"long":145.180006,"state":"QLD","localities":["COOKTOWN"],"SA4_NAME_2016":"Queensland - Outback"},{"postcode":"4895","lat":-15.94342392,"long":145.3422653,"state":"QLD","localities":["DEGARRA"],"SA4_NAME_2016":"Queensland - Outback"},{"postcode":"4895","lat":-15.707322,"long":145.222621,"state":"QLD","localities":["HELENVALE"],"SA4_NAME_2016":"Queensland - Outback"},{"postcode":"4895","lat":-15.15786303,"long":145.247184,"state":"QLD","localities":["HOPE VALE"],"SA4_NAME_2016":"Queensland - Outback"},{"postcode":"4895","lat":-15.79626907,"long":145.2418843,"state":"QLD","localities":["ROSSVILLE"],"SA4_NAME_2016":"Queensland - Outback"},{"postcode":"4895","lat":-14.76854069,"long":144.7525301,"state":"QLD","localities":["STARCKE"],"SA4_NAME_2016":"Queensland - Outback"},{"postcode":"4895","lat":-15.9723604,"long":145.3121238,"state":"QLD","localities":["WUJAL WUJAL"],"SA4_NAME_2016":"Queensland - Outback"}]