[{"postcode":"7000","lat":-42.878355,"long":147.308002,"state":"TAS","localities":["BATHURST STREET PO","GLEBE","HOBART","MOUNT STUART","NORTH HOBART","QUEENS DOMAIN","WEST HOBART"],"SA4_NAME_2016":"Hobart"},{"postcode":"7001","lat":-43.535913,"long":146.356055,"state":"TAS","localities":["HOBART","TASMAN ISLAND"],"SA4_NAME_2016":"Hobart"},{"postcode":"7004","lat":-42.890148,"long":147.328928,"state":"TAS","localities":["BATTERY POINT","SOUTH HOBART"],"SA4_NAME_2016":"Hobart"},{"postcode":"7005","lat":-42.916204,"long":147.3368,"state":"TAS","localities":["DYNNYRNE","LOWER SANDY BAY","SANDY BAY","UNIVERSITY OF TASMANIA"],"SA4_NAME_2016":"Hobart"},{"postcode":"7007","lat":-42.922863,"long":147.319501,"state":"TAS","localities":["MOUNT NELSON","TOLMANS HILL"],"SA4_NAME_2016":"Hobart"},{"postcode":"7008","lat":-42.861932,"long":147.293268,"state":"TAS","localities":["CORNELIAN BAY","LENAH VALLEY","NEW TOWN"],"SA4_NAME_2016":"Hobart"},{"postcode":"7009","lat":-42.842607,"long":147.289682,"state":"TAS","localities":["DERWENT PARK","LUTANA","MOONAH","WEST MOONAH"],"SA4_NAME_2016":"Hobart"},{"postcode":"7010","lat":-42.85913,"long":147.212366,"state":"TAS","localities":["DOWSING POINT","ELWICK","GLENORCHY","GOODWOOD","MONTROSE","ROSETTA"],"SA4_NAME_2016":"Hobart"},{"postcode":"7011","lat":-42.793393,"long":147.230065,"state":"TAS","localities":["AUSTINS FERRY","BERRIEDALE","CHIGWELL","CLAREMONT"],"SA4_NAME_2016":"Hobart"},{"postcode":"7012","lat":-42.833718,"long":147.174382,"state":"TAS","localities":["COLLINSVALE","GLENLUSK"],"SA4_NAME_2016":"Hobart"},{"postcode":"7015","lat":-42.83903,"long":147.360174,"state":"TAS","localities":["FLAGSTAFF GULLY","GEILSTON BAY","LINDISFARNE","ROSE BAY"],"SA4_NAME_2016":"Hobart"},{"postcode":"7016","lat":-42.813551,"long":147.346381,"state":"TAS","localities":["RISDON VALE"],"SA4_NAME_2016":"Hobart"},{"postcode":"7017","lat":-42.719274,"long":147.315111,"state":"TAS","localities":["GRASSTREE HILL","HONEYWOOD","OLD BEACH","OTAGO","RISDON","TEA TREE"],"SA4_NAME_2016":"Hobart"},{"postcode":"7018","lat":-42.877588,"long":147.385681,"state":"TAS","localities":["BELLERIVE","HOWRAH","MONTAGU BAY","MORNINGTON","ROSNY","ROSNY PARK","TRANMERE","WARRANE"],"SA4_NAME_2016":"Hobart"},{"postcode":"7019","lat":-42.898778,"long":147.433337,"state":"TAS","localities":["CLARENDON VALE","OAKDOWNS","ROKEBY"],"SA4_NAME_2016":"Hobart"},{"postcode":"7020","lat":-42.965741,"long":147.47851,"state":"TAS","localities":["CLIFTON BEACH","SANDFORD"],"SA4_NAME_2016":"Hobart"},{"postcode":"7021","lat":-42.906796,"long":147.480017,"state":"TAS","localities":["LAUDERDALE"],"SA4_NAME_2016":"Hobart"},{"postcode":"7022","lat":-43.053156,"long":147.47988,"state":"TAS","localities":["SOUTH ARM"],"SA4_NAME_2016":"Hobart"},{"postcode":"7023","lat":-42.988314,"long":147.409324,"state":"TAS","localities":["OPOSSUM BAY"],"SA4_NAME_2016":"Hobart"},{"postcode":"7024","lat":-42.950412,"long":147.512182,"state":"TAS","localities":["CREMORNE"],"SA4_NAME_2016":"Hobart"},{"postcode":"7025","lat":-42.730264,"long":147.439671,"state":"TAS","localities":["DULCOT","RICHMOND"],"SA4_NAME_2016":"Hobart"},{"postcode":"7026","lat":-42.646044,"long":147.451363,"state":"TAS","localities":["CAMPANIA"],"SA4_NAME_2016":"South East"},{"postcode":"7027","lat":-42.536377,"long":147.383495,"state":"TAS","localities":["COLEBROOK"],"SA4_NAME_2016":"South East"},{"postcode":"7030","lat":-42.304288,"long":146.958381,"state":"TAS","localities":["APSLEY","ARTHURS LAKE","BAGDAD","BAGDAD NORTH","BOTHWELL","BRIDGEWATER","BRIGHTON","BROADMARSH","CRAMPS BAY","DROMEDARY","DYSART","ELDERSLIE","FLINTSTONE","GAGEBROOK","GRANTON","HERMITAGE","INTERLAKEN","JERICHO","KEMPTON","LAKE SORELL","LIAWENEE","LOWER MARSHES","MANGALORE","MELTON MOWBRAY","MIENA","MILLERS BLUFF","MORASS BAY","PELHAM","PONTVILLE","SHANNON","STEPPES","TODS CORNER","WADDAMANA","WILBURVILLE"],"SA4_NAME_2016":"South East"},{"postcode":"7030","lat":-42.75066477,"long":147.2648366,"state":"TAS","localities":["HERDSMANS COVE"],"SA4_NAME_2016":"Hobart"},{"postcode":"7050","lat":-42.975502,"long":147.298181,"state":"TAS","localities":["ALBION HEIGHTS","KINGSTON","KINGSTON BEACH"],"SA4_NAME_2016":"Hobart"},{"postcode":"7052","lat":-43.008052,"long":147.309302,"state":"TAS","localities":["BLACKMANS BAY"],"SA4_NAME_2016":"Hobart"},{"postcode":"7053","lat":-42.947314,"long":147.334695,"state":"TAS","localities":["BONNET HILL","TAROONA"],"SA4_NAME_2016":"Hobart"},{"postcode":"7054","lat":-43.00658,"long":147.256698,"state":"TAS","localities":["BARRETTA","CONINGHAM","ELECTRONA","FERN TREE","HOWDEN","LESLIE VALE","LOWER SNUG","MARGATE","NEIKA","NIERINNA","PIERSONS POINT","RIDGEWAY","SNUG","TINDERBOX","WELLINGTON PARK"],"SA4_NAME_2016":"Hobart"},{"postcode":"7055","lat":-42.994715,"long":147.285203,"state":"TAS","localities":["HUNTINGFIELD"],"SA4_NAME_2016":"Hobart"},{"postcode":"7109","lat":-43.571087,"long":146.524064,"state":"TAS","localities":["CATAMARAN","CRABTREE","CRADOC","GLAZIERS BAY","GLEN HUON","GLENDEVIE","GROVE","HASTINGS","HUONVILLE","IDA BAY","JUDBURY","LONNAVALE","LOWER LONGLEY","LOWER WATTLE GROVE","LUCASTON","LUNE RIVER","LYMINGTON","MOUNTAIN RIVER","PETCHEYS BAY","RAMINEA","RANELAGH","RECHERCHE","SOUTHPORT","SOUTHPORT LAGOON","STRATHBLANE","WATERLOO","WATTLE GROVE","WOODSTOCK"],"SA4_NAME_2016":"South East"},{"postcode":"7112","lat":-43.291937,"long":147.140014,"state":"TAS","localities":["ABELS BAY","CHARLOTTE COVE","CYGNET","DEEP BAY","EGGS AND BACON BAY","GARDEN ISLAND CREEK","GARDNERS BAY","NICHOLLS RIVULET","RANDALLS BAY","VERONA SANDS"],"SA4_NAME_2016":"South East"},{"postcode":"7113","lat":-43.091051,"long":146.970489,"state":"TAS","localities":["FRANKLIN"],"SA4_NAME_2016":"South East"},{"postcode":"7116","lat":-43.262123,"long":147.03435,"state":"TAS","localities":["BROOKS BAY","CAIRNS BAY","CASTLE FORBES BAY","GEEVESTON","POLICE POINT","PORT HUON","SURGES BAY","SURVEYORS BAY"],"SA4_NAME_2016":"South East"},{"postcode":"7117","lat":-43.338435,"long":147.040135,"state":"TAS","localities":["DOVER"],"SA4_NAME_2016":"South East"},{"postcode":"7119","lat":-42.431887,"long":147.365372,"state":"TAS","localities":["STONOR"],"SA4_NAME_2016":"South East"},{"postcode":"7120","lat":-42.31694,"long":147.48727,"state":"TAS","localities":["ANDOVER","ANTILL PONDS","BADEN","LEMONT","LEVENDALE","MOUNT SEYMOUR","OATLANDS","PARATTAH","PAWTELLA","RHYNDASTON","STONEHENGE","SWANSTON","TIBERIAS","TUNBRIDGE","TUNNACK","WHITEFOORD","WOODBURY","WOODSDALE","YORK PLAINS"],"SA4_NAME_2016":"South East"},{"postcode":"7139","lat":-42.715494,"long":145.925302,"state":"TAS","localities":["STRATHGORDON"],"SA4_NAME_2016":"South East"},{"postcode":"7140","lat":-42.544215,"long":146.45502,"state":"TAS","localities":["BLACK HILLS","BOYER","BRADYS LAKE","BRONTE PARK","BUSHY PARK","BUTLERS GORGE","DEE","DERWENT BRIDGE","ELLENDALE","FENTONBURY","FITZGERALD","FLORENTINE","GLENFERN","GLENORA","GRETNA","HAMILTON","HAYES","HOLLOW TREE","KARANJA","LACHLAN","LAKE ST CLAIR","LAWITTA","LITTLE PINE LAGOON","LONDON LAKES","MACQUARIE PLAINS","MAGRA","MALBINA","MAYDENA","MEADOWBANK","MOLESWORTH","MOOGARA","MOUNT FIELD","MOUNT LLOYD","NATIONAL PARK","NEW NORFOLK","OSTERLEY","OUSE","PLENTY","ROSEGARLAND","SORELL CREEK","STRICKLAND","STYX","TARRALEAH","TYENNA","UXBRIDGE","VICTORIA VALLEY","WAYATINAH","WESTERWAY"],"SA4_NAME_2016":"South East"},{"postcode":"7150","lat":-43.077586,"long":147.958441,"state":"TAS","localities":["ADVENTURE BAY","ALLENS RIVULET","ALONNAH","APOLLO BAY","BARNES BAY","DENNES POINT","GORDON","GREAT BAY","KAOOTA","KILLORA","LONGLEY","LUNAWANNA","NORTH BRUNY","OYSTER COVE","PELVERATA","SANDFLY","SIMPSONS BAY","SOUTH BRUNY","UPPER WOODSTOCK"],"SA4_NAME_2016":"South East"},{"postcode":"7151","lat":-41.518719,"long":146.64266,"state":"TAS","localities":["CASEY","DAVIS","MACQUARIE","MACQUARIE ISLAND","MAWSON"],"SA4_NAME_2016":"West and North West"},{"postcode":"7155","lat":-43.128868,"long":147.216918,"state":"TAS","localities":["KETTERING"],"SA4_NAME_2016":"South East"},{"postcode":"7162","lat":-43.158652,"long":147.209628,"state":"TAS","localities":["BIRCHS BAY","WOODBRIDGE"],"SA4_NAME_2016":"South East"},{"postcode":"7163","lat":-43.209774,"long":147.227479,"state":"TAS","localities":["FLOWERPOT","MIDDLETON"],"SA4_NAME_2016":"South East"},{"postcode":"7170","lat":-42.85132,"long":147.449794,"state":"TAS","localities":["ACTON PARK","CAMBRIDGE","MOUNT RUMNEY","ROCHES BEACH","SEVEN MILE BEACH"],"SA4_NAME_2016":"Hobart"},{"postcode":"7171","lat":-42.78011,"long":147.488282,"state":"TAS","localities":["MIDWAY POINT","PENNA"],"SA4_NAME_2016":"Hobart"},{"postcode":"7172","lat":-42.730285,"long":147.631695,"state":"TAS","localities":["NUGENT","ORIELTON","PAWLEENA","SORELL","WATTLE HILL"],"SA4_NAME_2016":"Hobart"},{"postcode":"7173","lat":-42.823649,"long":147.630737,"state":"TAS","localities":["CARLTON","CARLTON RIVER","CONNELLYS MARSH","DODGES FERRY","FORCETT","LEWISHAM","PRIMROSE SANDS"],"SA4_NAME_2016":"Hobart"},{"postcode":"7174","lat":-42.807682,"long":147.743285,"state":"TAS","localities":["COPPING"],"SA4_NAME_2016":"Hobart"},{"postcode":"7175","lat":-42.818606,"long":147.828594,"state":"TAS","localities":["BREAM CREEK","MARION BAY"],"SA4_NAME_2016":"Hobart"},{"postcode":"7176","lat":-42.753098,"long":147.837675,"state":"TAS","localities":["KELLEVIE"],"SA4_NAME_2016":"Hobart"},{"postcode":"7177","lat":-42.884195,"long":147.976495,"state":"TAS","localities":["BOOMER BAY","DUNALLEY"],"SA4_NAME_2016":"Hobart"},{"postcode":"7178","lat":-42.958471,"long":147.906152,"state":"TAS","localities":["MURDUNNA"],"SA4_NAME_2016":"South East"},{"postcode":"7179","lat":-43.033826,"long":147.944957,"state":"TAS","localities":["EAGLEHAWK NECK"],"SA4_NAME_2016":"South East"},{"postcode":"7180","lat":-43.138712,"long":148.006561,"state":"TAS","localities":["TARANNA"],"SA4_NAME_2016":"South East"},{"postcode":"7182","lat":-43.18182603,"long":147.9387592,"state":"TAS","localities":["CAPE PILLAR"],"SA4_NAME_2016":"South East"},{"postcode":"7182","lat":-43.170598,"long":147.822931,"state":"TAS","localities":["FORTESCUE","PORT ARTHUR"],"SA4_NAME_2016":"South East"},{"postcode":"7183","lat":-43.171185,"long":147.750593,"state":"TAS","localities":["HIGHCROFT"],"SA4_NAME_2016":"South East"},{"postcode":"7184","lat":-43.2198235,"long":147.7904396,"state":"TAS","localities":["CAPE RAOUL"],"SA4_NAME_2016":"South East"},{"postcode":"7184","lat":-43.152512,"long":147.70789,"state":"TAS","localities":["NUBEENA","STORMLEA","WHITE BEACH"],"SA4_NAME_2016":"South East"},{"postcode":"7185","lat":-43.062899,"long":147.753782,"state":"TAS","localities":["PREMAYDENA"],"SA4_NAME_2016":"South East"},{"postcode":"7186","lat":-43.029525,"long":147.663981,"state":"TAS","localities":["SALTWATER RIVER","SLOPING MAIN"],"SA4_NAME_2016":"South East"},{"postcode":"7187","lat":-43.027742,"long":147.848028,"state":"TAS","localities":["KOONYA"],"SA4_NAME_2016":"South East"},{"postcode":"7190","lat":-42.62988,"long":148.091696,"state":"TAS","localities":["APSLAWN","BUCKLAND","CRANBROOK","DOLPHIN SANDS","LITTLE SWANPORT","MARIA ISLAND","ORFORD","PONTYPOOL","RHEBAN","ROCKY HILLS","RUNNYMEDE","SPRING BEACH","SWANSEA","TRIABUNNA"],"SA4_NAME_2016":"South East"},{"postcode":"7209","lat":-42.104584,"long":147.614307,"state":"TAS","localities":["ROSS","TOOMS LAKE"],"SA4_NAME_2016":"Launceston and North East"},{"postcode":"7210","lat":-41.915923,"long":147.410747,"state":"TAS","localities":["CAMPBELL TOWN","LAKE LEAKE"],"SA4_NAME_2016":"Launceston and North East"},{"postcode":"7211","lat":-41.788619,"long":147.317089,"state":"TAS","localities":["CLEVELAND","CONARA","EPPING FOREST"],"SA4_NAME_2016":"Launceston and North East"},{"postcode":"7212","lat":-41.567876,"long":147.488412,"state":"TAS","localities":["BEN LOMOND","BLESSINGTON","BURNS CREEK","DEDDINGTON","EVANDALE","NILE","UPPER BLESSINGTON","WESTERN JUNCTION"],"SA4_NAME_2016":"Launceston and North East"},{"postcode":"7213","lat":-41.828496,"long":147.781593,"state":"TAS","localities":["AVOCA","ROSSARDEN","ROYAL GEORGE"],"SA4_NAME_2016":"Launceston and North East"},{"postcode":"7214","lat":-41.600719,"long":147.897402,"state":"TAS","localities":["FINGAL","MANGANA","MATHINNA","UPPER ESK"],"SA4_NAME_2016":"Launceston and North East"},{"postcode":"7215","lat":-42.314526,"long":148.281407,"state":"TAS","localities":["BEAUMARIS","BICHENO","CHAIN OF LAGOONS","COLES BAY","CORNWALL","DOUGLAS RIVER","FALMOUTH","FOUR MILE CREEK","FREYCINET","FRIENDLY BEACHES","GRAY","SCAMANDER","SEYMOUR","ST MARYS","UPPER SCAMANDER"],"SA4_NAME_2016":"Launceston and North East"},{"postcode":"7215","lat":-41.78527181,"long":148.1873473,"state":"TAS","localities":["DOUGLAS-APSLEY"],"SA4_NAME_2016":"Launceston and North East"},{"postcode":"7216","lat":-41.284242,"long":148.076401,"state":"TAS","localities":["AKAROA","ANSONS BAY","BINALONG BAY","GOSHEN","GOULDS COUNTRY","LOTTAH","PYENGANA","ST HELENS","STIEGLITZ","THE GARDENS"],"SA4_NAME_2016":"Launceston and North East"},{"postcode":"7248","lat":-41.397239,"long":147.130185,"state":"TAS","localities":["ALANVALE","INVERESK","INVERMAY","MAYFIELD","MOWBRAY","MOWBRAY HEIGHTS","NEWNHAM","ROCHERLEA"],"SA4_NAME_2016":"Launceston and North East"},{"postcode":"7249","lat":-41.472435,"long":147.157786,"state":"TAS","localities":["GLEN DHU","KINGS MEADOWS","PUNCHBOWL","SANDHILL","SOUTH LAUNCESTON","YOUNGTOWN"],"SA4_NAME_2016":"Launceston and North East"},{"postcode":"7250","lat":-41.432254,"long":147.077589,"state":"TAS","localities":["BLACKSTONE HEIGHTS","EAST LAUNCESTON","ELPHIN","LAUNCESTON","NEWSTEAD","NORWOOD","NORWOOD AVENUE PO","PROSPECT","PROSPECT VALE","RAVENSWOOD","RIVERSIDE","ST LEONARDS","SUMMERHILL","TRAVELLERS REST","TREVALLYN","WAVERLEY","WEST LAUNCESTON"],"SA4_NAME_2016":"Launceston and North East"},{"postcode":"7252","lat":-41.148031,"long":146.99252,"state":"TAS","localities":["BEECHFORD","DILSTON","HILLWOOD","LEFROY","LULWORTH","MOUNT DIRECTION","PIPERS RIVER","STONY HEAD","SWAN BAY","WEYMOUTH","WINDERMERE"],"SA4_NAME_2016":"Launceston and North East"},{"postcode":"7253","lat":-41.117415,"long":146.83066,"state":"TAS","localities":["BELL BAY","GEORGE TOWN","LONG REACH","LOW HEAD"],"SA4_NAME_2016":"Launceston and North East"},{"postcode":"7254","lat":-41.13407,"long":147.198018,"state":"TAS","localities":["BELLINGHAM","GOLCONDA","LEBRINA","PIPERS BROOK","RETREAT","TUNNEL","WYENA"],"SA4_NAME_2016":"Launceston and North East"},{"postcode":"7255","lat":-39.949379,"long":148.329247,"state":"TAS","localities":["BLUE ROCKS","EMITA","KILLIECRANKIE","LACKRANA","LADY BARRON","LEEKA","LOCCOTA","LUGHRATA","MEMANA","PALANA","RANGA","STRZELECKI","WHITEMARK","WINGAROO"],"SA4_NAME_2016":"Launceston and North East"},{"postcode":"7256","lat":-39.830946,"long":144.159775,"state":"TAS","localities":["BUNGAREE","CURRIE","EGG LAGOON","GRASSY","LOORANA","LYMWOOD","NARACOOPA","NUGARA","PEARSHAPE","PEGARAH","REEKARA","SEA ELEPHANT","SURPRISE BAY","WICKHAM","YAMBACOONA","YARRA CREEK"],"SA4_NAME_2016":"West and North West"},{"postcode":"7257","lat":-40.505978,"long":148.338962,"state":"TAS","localities":["CAPE BARREN ISLAND"],"SA4_NAME_2016":"Launceston and North East"},{"postcode":"7258","lat":-41.499942,"long":147.209446,"state":"TAS","localities":["BREADALBANE","RELBIA","WHITE HILLS"],"SA4_NAME_2016":"Launceston and North East"},{"postcode":"7259","lat":-41.358817,"long":147.357686,"state":"TAS","localities":["MYRTLE BANK","NUNAMARA","PATERSONIA","TARGA","TAYENE"],"SA4_NAME_2016":"Launceston and North East"},{"postcode":"7260","lat":-41.158791,"long":147.502082,"state":"TAS","localities":["BLUMONT","CUCKOO","FORESTER","JETSONVILLE","KAMONA","LIETINNA","LISLE","NABOWLA","NORTH SCOTTSDALE","SCOTTSDALE","SOUTH SPRINGFIELD","SPRINGFIELD","TONGANAH","TULENDEENA","WEST SCOTTSDALE"],"SA4_NAME_2016":"Launceston and North East"},{"postcode":"7261","lat":-41.12694,"long":147.567819,"state":"TAS","localities":["BRANXHOLM","WARRENTINNA"],"SA4_NAME_2016":"Launceston and North East"},{"postcode":"7262","lat":-40.801511,"long":147.630044,"state":"TAS","localities":["BRIDPORT","TOMAHAWK","WATERHOUSE"],"SA4_NAME_2016":"Launceston and North East"},{"postcode":"7263","lat":-41.308785,"long":147.702655,"state":"TAS","localities":["ALBERTON","LEGERWOOD","RINGAROOMA","TALAWA","TRENAH"],"SA4_NAME_2016":"Launceston and North East"},{"postcode":"7264","lat":-41.08241309,"long":148.1887585,"state":"TAS","localities":["ANSONS BAY"],"SA4_NAME_2016":"Launceston and North East"},{"postcode":"7264","lat":-41.015197,"long":148.026137,"state":"TAS","localities":["BOOBYALLA","CAPE PORTLAND","DERBY","EDDYSTONE","EDDYSTONE POINT","GLADSTONE","HERRICK","MOORINA","MUSSELROE BAY","PIONEER","RUSHY LAGOON","SOUTH MOUNT CAMERON","TELITA","WELDBOROUGH"],"SA4_NAME_2016":"Launceston and North East"},{"postcode":"7264","lat":-40.96643115,"long":148.2737423,"state":"TAS","localities":["MOUNT WILLIAM"],"SA4_NAME_2016":"Launceston and North East"},{"postcode":"7265","lat":-41.08106,"long":147.823431,"state":"TAS","localities":["BANCA","WINNALEAH"],"SA4_NAME_2016":"Launceston and North East"},{"postcode":"7267","lat":-41.264912,"long":147.086396,"state":"TAS","localities":["BANGOR","KAROOLA","LALLA","LOWER TURNERS MARSH","TURNERS MARSH"],"SA4_NAME_2016":"Launceston and North East"},{"postcode":"7268","lat":-41.333887,"long":147.152757,"state":"TAS","localities":["LILYDALE","NORTH LILYDALE","UNDERWOOD"],"SA4_NAME_2016":"Launceston and North East"},{"postcode":"7270","lat":-41.177924,"long":146.783947,"state":"TAS","localities":["BADGER HEAD","BEACONSFIELD","BEAUTY POINT","CLARENCE POINT","FLOWERY GULLY","GREENS BEACH","ILFRAVILLE","KAYENA","KELSO","ROWELLA","SIDMOUTH","YORK TOWN"],"SA4_NAME_2016":"Launceston and North East"},{"postcode":"7275","lat":-41.319891,"long":146.835317,"state":"TAS","localities":["BLACKWALL","DEVIOT","EXETER","FRANKFORD","GLENGARRY","HOLWELL","LANENA","LOIRA","NOTLEY HILLS","ROBIGANA","SWAN POINT","WINKLEIGH"],"SA4_NAME_2016":"Launceston and North East"},{"postcode":"7276","lat":-41.293081,"long":146.972023,"state":"TAS","localities":["GRAVELLY BEACH"],"SA4_NAME_2016":"Launceston and North East"},{"postcode":"7277","lat":-41.366416,"long":146.996977,"state":"TAS","localities":["BRIDGENORTH","GRINDELWALD","LEGANA","ROSEVEARS"],"SA4_NAME_2016":"Launceston and North East"},{"postcode":"7290","lat":-41.512507,"long":147.068603,"state":"TAS","localities":["HADSPEN"],"SA4_NAME_2016":"Launceston and North East"},{"postcode":"7291","lat":-41.530631,"long":147.013597,"state":"TAS","localities":["CARRICK"],"SA4_NAME_2016":"Launceston and North East"},{"postcode":"7292","lat":-41.472098,"long":146.944728,"state":"TAS","localities":["HAGLEY","QUAMBY BEND","ROSEVALE","SELBOURNE","WESTWOOD"],"SA4_NAME_2016":"Launceston and North East"},{"postcode":"7300","lat":-41.616219,"long":147.223173,"state":"TAS","localities":["DEVON HILLS","PERTH","POWRANNA"],"SA4_NAME_2016":"Launceston and North East"},{"postcode":"7301","lat":-41.600123,"long":147.046481,"state":"TAS","localities":["BISHOPSBOURNE","BLACKWOOD CREEK","LIFFEY","LONGFORD","TOIBERRY"],"SA4_NAME_2016":"Launceston and North East"},{"postcode":"7302","lat":-41.70457,"long":146.988293,"state":"TAS","localities":["BRACKNELL","CRESSY","POATINA"],"SA4_NAME_2016":"Launceston and North East"},{"postcode":"7303","lat":-41.594913,"long":146.815084,"state":"TAS","localities":["BIRRALEE","CLUAN","EXTON","OAKS","OSMASTON","WESTBURY","WHITEMORE"],"SA4_NAME_2016":"Launceston and North East"},{"postcode":"7304","lat":-41.710417,"long":146.165998,"state":"TAS","localities":["BRANDUM","BREONA","CAVESIDE","CENTRAL PLATEAU","CHUDLEIGH","DAIRY PLAINS","DELORAINE","DOCTORS POINT","DUNORLAN","ELIZABETH TOWN","GOLDEN VALLEY","JACKEYS MARSH","KIMBERLEY","LIENA","MAYBERRY","MEANDER","MERSEY FOREST","MOLE CREEK","MOLTEMA","MONTANA","NEEDLES","PARKHAM","QUAMBY BROOK","RED HILLS","REEDY MARSH","REYNOLDS NECK","WEEGENA","WEETAH","WESTERN CREEK"],"SA4_NAME_2016":"South East"},{"postcode":"7304","lat":-41.90160572,"long":146.25261,"state":"TAS","localities":["WALLS OF JERUSALEM"],"SA4_NAME_2016":"Launceston and North East"},{"postcode":"7305","lat":-41.352322,"long":146.412127,"state":"TAS","localities":["MERSEYLEA","RAILTON","SUNNYSIDE"],"SA4_NAME_2016":"West and North West"},{"postcode":"7306","lat":-41.465311,"long":146.193428,"state":"TAS","localities":["ACACIA HILLS","BARRINGTON","BEULAH","CETHANA","CLAUDE ROAD","CRADLE MOUNTAIN","GOWRIE PARK","LORINNA","LOWER BARRINGTON","LOWER BEULAH","MIDDLESEX","NOOK","NOWHERE ELSE","PARADISE","PROMISED LAND","ROLAND","SHEFFIELD","STAVERTON","STOODLEY","WEST KENTISH"],"SA4_NAME_2016":"West and North West"},{"postcode":"7306","lat":-41.50002926,"long":146.2497639,"state":"TAS","localities":["MOUNT ROLAND"],"SA4_NAME_2016":"West and North West"},{"postcode":"7307","lat":-41.210495,"long":146.57356,"state":"TAS","localities":["BAKERS BEACH","HARFORD","HAWLEY BEACH","LATROBE","MORIARTY","NORTHDOWN","PORT SORELL","SASSAFRAS","SHEARWATER","SQUEAKING POINT","THIRLSTANE","WESLEY VALE"],"SA4_NAME_2016":"West and North West"},{"postcode":"7310","lat":-41.237355,"long":146.239406,"state":"TAS","localities":["ABERDEEN","AMBLESIDE","DEVONPORT","DON","EAST DEVONPORT","ERRIBA","EUGENANA","FORTH","FORTHSIDE","KINDRED","LILLICO","LOWER WILMOT","MELROSE","MIANDETTA","MOINA","PALOONA","QUOIBA","SOUTH SPREYTON","SPREYTON","STONY RISE","TARLETON","TUGRAH","WEST DEVONPORT","WILMOT"],"SA4_NAME_2016":"West and North West"},{"postcode":"7315","lat":-41.303174,"long":146.072407,"state":"TAS","localities":["ABBOTSHAM","CASTRA","GAWLER","GUNNS PLAINS","LEITH","LOONGANA","NIETTA","NORTH MOTTON","PRESTON","SOUTH NIETTA","SOUTH PRESTON","SPALFORD","SPRENT","TURNERS BEACH","ULVERSTONE","UPPER CASTRA","WEST ULVERSTONE"],"SA4_NAME_2016":"West and North West"},{"postcode":"7316","lat":-41.269708,"long":145.931776,"state":"TAS","localities":["CAMENA","CUPRONA","HEYBRIDGE","HOWTH","LOYETEA","PENGUIN","PRESERVATION BAY","RIANA","SOUTH RIANA","SULPHUR CREEK","WEST PINE"],"SA4_NAME_2016":"West and North West"},{"postcode":"7320","lat":-41.08422,"long":145.862079,"state":"TAS","localities":["ACTON","BROOKLYN","BURNIE","CAMDALE","COOEE","DOWNLANDS","EMU HEIGHTS","HAVENVIEW","HILLCREST","MONTELLO","OCEAN VISTA","PARK GROVE","PARKLANDS","ROMAINE","ROUND HILL","SHOREWELL PARK","SOUTH BURNIE","UPPER BURNIE","WIVENHOE"],"SA4_NAME_2016":"West and North West"},{"postcode":"7321","lat":-41.456389,"long":145.503726,"state":"TAS","localities":["BLACK RIVER","BOAT HARBOUR","BOAT HARBOUR BEACH","CHASM CREEK","CORINNA","COWRIE POINT","CRAYFISH CREEK","DETENTION","EAST CAM","EAST RIDGLEY","EDGCUMBE BEACH","GUILDFORD","HAMPSHIRE","HELLYER","HIGHCLERE","LUINA","MAWBANNA","MONTUMANA","MOOREVILLE","NATONE","PARRAWE","PORT LATTA","RIDGLEY","ROCKY CAPE","SAVAGE RIVER","SISTERS BEACH","STOWPORT","TEWKESBURY","TULLAH","UPPER NATONE","UPPER STOWPORT","WARATAH","WEST MOOREVILLE","WEST RIDGLEY","WILTSHIRE"],"SA4_NAME_2016":"West and North West"},{"postcode":"7322","lat":-41.044472,"long":145.804533,"state":"TAS","localities":["SOMERSET"],"SA4_NAME_2016":"West and North West"},{"postcode":"7325","lat":-41.100305,"long":145.607556,"state":"TAS","localities":["CALDER","DOCTORS ROCKS","ELLIOTT","FLOWERDALE","HENRIETTA","LAPOINYA","MEUNNA","MILABENA","MOORLEAH","MOUNT HICKS","MYALLA","OLDINA","OONAH","PREOLENNA","SEABROOK","SISTERS CREEK","TABLE CAPE","TAKONE","WEST TAKONE","WYNYARD","YOLLA"],"SA4_NAME_2016":"West and North West"},{"postcode":"7330","lat":-40.782341,"long":145.057623,"state":"TAS","localities":["ALCOMIE","ARTHUR RIVER","BRITTONS SWAMP","BROADMEADOWS","CHRISTMAS HILLS","COUTA ROCKS","EDITH CREEK","FOREST","HUNTER ISLAND","IRISHTOWN","LILEAH","MARRAWAH","MELLA","MENGHA","MONTAGU","NABAGEENA","NELSON BAY","REDPA","ROBBINS ISLAND","ROGER RIVER","SCOPUS","SCOTCHTOWN","SMITHTON","SOUTH FOREST","TEMMA","THREE HUMMOCK ISLAND","TOGARI","TROWUTTA","WEST MONTAGU","WOOLNORTH"],"SA4_NAME_2016":"West and North West"},{"postcode":"7331","lat":-40.758553,"long":145.275421,"state":"TAS","localities":["STANLEY"],"SA4_NAME_2016":"West and North West"},{"postcode":"7466","lat":-42.291313,"long":145.807453,"state":"TAS","localities":["GORMANSTON"],"SA4_NAME_2016":"West and North West"},{"postcode":"7467","lat":-42.093728,"long":145.529693,"state":"TAS","localities":["LAKE MARGARET","QUEENSTOWN"],"SA4_NAME_2016":"West and North West"},{"postcode":"7468","lat":-42.706031,"long":145.537671,"state":"TAS","localities":["MACQUARIE HEADS","STRAHAN"],"SA4_NAME_2016":"West and North West"},{"postcode":"7469","lat":-41.784391,"long":145.201632,"state":"TAS","localities":["GRANVILLE HARBOUR","RENISON BELL","TRIAL HARBOUR","ZEEHAN"],"SA4_NAME_2016":"West and North West"},{"postcode":"7470","lat":-41.902129,"long":145.500566,"state":"TAS","localities":["ROSEBERY"],"SA4_NAME_2016":"West and North West"}]