[{"postcode":"3000","lat":-37.817403,"long":144.956776,"state":"VIC","localities":["MELBOURNE","NORTH POLE"],"SA4_NAME_2016":"Melbourne - Inner"},{"postcode":"3002","lat":-37.818517,"long":144.982207,"state":"VIC","localities":["EAST MELBOURNE"],"SA4_NAME_2016":"Melbourne - Inner"},{"postcode":"3003","lat":-37.810871,"long":144.949592,"state":"VIC","localities":["WEST MELBOURNE"],"SA4_NAME_2016":"Melbourne - Inner"},{"postcode":"3004","lat":-37.844246,"long":144.970161,"state":"VIC","localities":["MELBOURNE","ST KILDA ROAD CENTRAL","ST KILDA ROAD CENTRAL"],"SA4_NAME_2016":"Melbourne - Inner"},{"postcode":"3005","lat":-37.824608,"long":144.950858,"state":"VIC","localities":["WORLD TRADE CENTRE"],"SA4_NAME_2016":"Melbourne - Inner"},{"postcode":"3006","lat":-37.82528675,"long":144.9520744,"state":"VIC","localities":["SOUTH WHARF"],"SA4_NAME_2016":"Melbourne - Inner"},{"postcode":"3006","lat":-37.823258,"long":144.965926,"state":"VIC","localities":["SOUTHBANK"],"SA4_NAME_2016":"Melbourne - Inner"},{"postcode":"3008","lat":-37.814719,"long":144.948039,"state":"VIC","localities":["DOCKLANDS","DOCKLANDS"],"SA4_NAME_2016":"Melbourne - Inner"},{"postcode":"3010","lat":-37.796152,"long":144.961351,"state":"VIC","localities":["UNIVERSITY OF MELBOURNE"],"SA4_NAME_2016":"Melbourne - Inner"},{"postcode":"3011","lat":-37.807101,"long":144.907953,"state":"VIC","localities":["FOOTSCRAY","SEDDON","SEDDON WEST"],"SA4_NAME_2016":"Melbourne - West"},{"postcode":"3012","lat":-37.807135,"long":144.861162,"state":"VIC","localities":["BROOKLYN","KINGSVILLE","KINGSVILLE WEST","MAIDSTONE","TOTTENHAM","WEST FOOTSCRAY"],"SA4_NAME_2016":"Melbourne - West"},{"postcode":"3013","lat":-37.814183,"long":144.888686,"state":"VIC","localities":["YARRAVILLE","YARRAVILLE WEST"],"SA4_NAME_2016":"Melbourne - West"},{"postcode":"3015","lat":-37.838242,"long":144.880556,"state":"VIC","localities":["NEWPORT","SOUTH KINGSVILLE","SPOTSWOOD"],"SA4_NAME_2016":"Melbourne - West"},{"postcode":"3016","lat":-37.863743,"long":144.888461,"state":"VIC","localities":["WILLIAMSTOWN","WILLIAMSTOWN NORTH"],"SA4_NAME_2016":"Melbourne - West"},{"postcode":"3018","lat":-37.86172,"long":144.812736,"state":"VIC","localities":["ALTONA","SEAHOLME"],"SA4_NAME_2016":"Melbourne - West"},{"postcode":"3019","lat":-37.784683,"long":144.854014,"state":"VIC","localities":["BRAYBROOK","BRAYBROOK NORTH","ROBINSON"],"SA4_NAME_2016":"Melbourne - West"},{"postcode":"3020","lat":-37.777204,"long":144.829945,"state":"VIC","localities":["ALBION","GLENGALA","SUNSHINE","SUNSHINE NORTH","SUNSHINE WEST"],"SA4_NAME_2016":"Melbourne - West"},{"postcode":"3021","lat":-37.743361,"long":144.796693,"state":"VIC","localities":["ALBANVALE","KEALBA","KINGS PARK","ST ALBANS"],"SA4_NAME_2016":"Melbourne - West"},{"postcode":"3022","lat":-37.795937,"long":144.793961,"state":"VIC","localities":["ARDEER","DEER PARK EAST"],"SA4_NAME_2016":"Melbourne - West"},{"postcode":"3023","lat":-37.78272,"long":144.770641,"state":"VIC","localities":["BURNSIDE","CAIRNLEA","CAROLINE SPRINGS","DEER PARK","DEER PARK NORTH","RAVENHALL"],"SA4_NAME_2016":"Melbourne - West"},{"postcode":"3023","lat":-37.73218752,"long":144.755657,"state":"VIC","localities":["BURNSIDE HEIGHTS"],"SA4_NAME_2016":"Melbourne - West"},{"postcode":"3024","lat":-37.75045631,"long":144.649936,"state":"VIC","localities":["FIELDSTONE"],"SA4_NAME_2016":"Melbourne - West"},{"postcode":"3024","lat":-37.899873,"long":144.556552,"state":"VIC","localities":["MAMBOURIN","MOUNT COTTRELL","WYNDHAM VALE"],"SA4_NAME_2016":"Melbourne - West"},{"postcode":"3024","lat":-37.86694209,"long":144.5812323,"state":"VIC","localities":["MANOR LAKES"],"SA4_NAME_2016":"Melbourne - West"},{"postcode":"3025","lat":-37.835562,"long":144.839704,"state":"VIC","localities":["ALTONA EAST","ALTONA GATE","ALTONA NORTH"],"SA4_NAME_2016":"Melbourne - West"},{"postcode":"3026","lat":-37.829923,"long":144.774986,"state":"VIC","localities":["LAVERTON NORTH"],"SA4_NAME_2016":"Melbourne - West"},{"postcode":"3027","lat":-37.932419,"long":144.754147,"state":"VIC","localities":["LAVERTON RAAF","WILLIAMS RAAF"],"SA4_NAME_2016":"Melbourne - West"},{"postcode":"3027","lat":-37.86199812,"long":144.7430155,"state":"VIC","localities":["WILLIAMS LANDING"],"SA4_NAME_2016":"Melbourne - West"},{"postcode":"3028","lat":-37.875066,"long":144.777165,"state":"VIC","localities":["ALTONA MEADOWS","LAVERTON","SEABROOK"],"SA4_NAME_2016":"Melbourne - West"},{"postcode":"3029","lat":-37.837165,"long":144.705831,"state":"VIC","localities":["HOPPERS CROSSING","TARNEIT","TRUGANINA"],"SA4_NAME_2016":"Melbourne - West"},{"postcode":"3030","lat":-37.91624,"long":144.64209,"state":"VIC","localities":["CHARTWELL","COCOROC","DERRIMUT","POINT COOK","QUANDONG","WERRIBEE","WERRIBEE SOUTH"],"SA4_NAME_2016":"Melbourne - West"},{"postcode":"3031","lat":-37.79119,"long":144.923403,"state":"VIC","localities":["FLEMINGTON","KENSINGTON"],"SA4_NAME_2016":"Melbourne - Inner"},{"postcode":"3032","lat":-37.774486,"long":144.897221,"state":"VIC","localities":["ASCOT VALE","HIGHPOINT CITY","MARIBYRNONG","TRAVANCORE"],"SA4_NAME_2016":"Melbourne - Inner"},{"postcode":"3033","lat":-37.74107,"long":144.857638,"state":"VIC","localities":["KEILOR EAST"],"SA4_NAME_2016":"Melbourne - North West"},{"postcode":"3034","lat":-37.761235,"long":144.86194,"state":"VIC","localities":["AVONDALE HEIGHTS"],"SA4_NAME_2016":"Melbourne - North West"},{"postcode":"3036","lat":-37.705324,"long":144.82246,"state":"VIC","localities":["KEILOR","KEILOR NORTH"],"SA4_NAME_2016":"Melbourne - North West"},{"postcode":"3037","lat":-37.715579,"long":144.780474,"state":"VIC","localities":["CALDER PARK","DELAHEY","HILLSIDE","PLUMPTON","SYDENHAM","TAYLORS HILL"],"SA4_NAME_2016":"Melbourne - West"},{"postcode":"3038","lat":-37.700454,"long":144.766873,"state":"VIC","localities":["KEILOR DOWNS","KEILOR LODGE","TAYLORS LAKES","WATERGARDENS"],"SA4_NAME_2016":"Melbourne - West"},{"postcode":"3039","lat":-37.766184,"long":144.922995,"state":"VIC","localities":["MOONEE PONDS"],"SA4_NAME_2016":"Melbourne - Inner"},{"postcode":"3040","lat":-37.751845,"long":144.902556,"state":"VIC","localities":["ABERFELDIE","ESSENDON","ESSENDON WEST"],"SA4_NAME_2016":"Melbourne - Inner"},{"postcode":"3041","lat":-37.72674618,"long":144.9011039,"state":"VIC","localities":["ESSENDON FIELDS"],"SA4_NAME_2016":"Melbourne - North West"},{"postcode":"3041","lat":-37.731464,"long":144.904815,"state":"VIC","localities":["ESSENDON NORTH","STRATHMORE","STRATHMORE HEIGHTS"],"SA4_NAME_2016":"Melbourne - Inner"},{"postcode":"3042","lat":-37.727529,"long":144.866305,"state":"VIC","localities":["AIRPORT WEST","KEILOR PARK","NIDDRIE"],"SA4_NAME_2016":"Melbourne - North West"},{"postcode":"3043","lat":-37.691916,"long":144.888368,"state":"VIC","localities":["GLADSTONE PARK","GOWANBRAE","TULLAMARINE"],"SA4_NAME_2016":"Melbourne - North West"},{"postcode":"3044","lat":-37.731138,"long":144.936356,"state":"VIC","localities":["PASCOE VALE","PASCOE VALE SOUTH"],"SA4_NAME_2016":"Melbourne - North West"},{"postcode":"3045","lat":-37.674739,"long":144.836195,"state":"VIC","localities":["MELBOURNE AIRPORT"],"SA4_NAME_2016":"Melbourne - North West"},{"postcode":"3046","lat":-37.706578,"long":144.927968,"state":"VIC","localities":["GLENROY","HADFIELD","OAK PARK"],"SA4_NAME_2016":"Melbourne - North West"},{"postcode":"3047","lat":-37.681105,"long":144.930247,"state":"VIC","localities":["BROADMEADOWS","DALLAS","JACANA"],"SA4_NAME_2016":"Melbourne - North West"},{"postcode":"3048","lat":-37.653917,"long":144.923609,"state":"VIC","localities":["COOLAROO","MEADOW HEIGHTS"],"SA4_NAME_2016":"Melbourne - North West"},{"postcode":"3049","lat":-37.673182,"long":144.888492,"state":"VIC","localities":["ATTWOOD","WESTMEADOWS"],"SA4_NAME_2016":"Melbourne - North West"},{"postcode":"3050","lat":-37.800324,"long":144.954581,"state":"VIC","localities":["ROYAL MELBOURNE HOSPITAL"],"SA4_NAME_2016":"Melbourne - Inner"},{"postcode":"3051","lat":-37.8006,"long":144.943559,"state":"VIC","localities":["HOTHAM HILL","NORTH MELBOURNE"],"SA4_NAME_2016":"Melbourne - Inner"},{"postcode":"3052","lat":-37.788996,"long":144.948903,"state":"VIC","localities":["MELBOURNE UNIVERSITY","PARKVILLE"],"SA4_NAME_2016":"Melbourne - Inner"},{"postcode":"3053","lat":-37.803569,"long":144.966112,"state":"VIC","localities":["CARLTON","CARLTON SOUTH"],"SA4_NAME_2016":"Melbourne - Inner"},{"postcode":"3054","lat":-37.786971,"long":144.96724,"state":"VIC","localities":["CARLTON NORTH","PRINCES HILL"],"SA4_NAME_2016":"Melbourne - Inner"},{"postcode":"3055","lat":-37.763584,"long":144.942222,"state":"VIC","localities":["BRUNSWICK SOUTH","BRUNSWICK WEST","MOONEE VALE","MORELAND WEST"],"SA4_NAME_2016":"Melbourne - Inner"},{"postcode":"3056","lat":-37.766292,"long":144.960108,"state":"VIC","localities":["BRUNSWICK","BRUNSWICK LOWER","BRUNSWICK NORTH"],"SA4_NAME_2016":"Melbourne - Inner"},{"postcode":"3057","lat":-37.770012,"long":144.97728,"state":"VIC","localities":["BRUNSWICK EAST","LYGON STREET NORTH"],"SA4_NAME_2016":"Melbourne - Inner"},{"postcode":"3057","lat":-37.772232,"long":144.98034,"state":"VIC","localities":["SUMNER"],"SA4_NAME_2016":"Melbourne - Inner"},{"postcode":"3058","lat":-37.739901,"long":144.964524,"state":"VIC","localities":["BATMAN","COBURG","COBURG NORTH","MERLYNSTON","MORELAND"],"SA4_NAME_2016":"Melbourne - Inner"},{"postcode":"3059","lat":-37.639887,"long":144.879626,"state":"VIC","localities":["GREENVALE"],"SA4_NAME_2016":"Melbourne - North West"},{"postcode":"3060","lat":-37.707326,"long":144.967874,"state":"VIC","localities":["FAWKNER","FAWKNER EAST","FAWKNER NORTH"],"SA4_NAME_2016":"Melbourne - North West"},{"postcode":"3061","lat":-37.666265,"long":144.956763,"state":"VIC","localities":["CAMPBELLFIELD"],"SA4_NAME_2016":"Melbourne - North West"},{"postcode":"3062","lat":-37.632986,"long":144.932557,"state":"VIC","localities":["SOMERTON"],"SA4_NAME_2016":"Melbourne - North West"},{"postcode":"3063","lat":-37.595015,"long":144.856082,"state":"VIC","localities":["OAKLANDS JUNCTION","YUROKE"],"SA4_NAME_2016":"Melbourne - North West"},{"postcode":"3064","lat":-37.546522,"long":144.942199,"state":"VIC","localities":["CRAIGIEBURN","DONNYBROOK","KALKALLO","MICKLEHAM","ROXBURGH PARK"],"SA4_NAME_2016":"Melbourne - North West"},{"postcode":"3065","lat":-37.802608,"long":144.977795,"state":"VIC","localities":["FITZROY"],"SA4_NAME_2016":"Melbourne - Inner"},{"postcode":"3066","lat":-37.804846,"long":144.986906,"state":"VIC","localities":["COLLINGWOOD","COLLINGWOOD NORTH"],"SA4_NAME_2016":"Melbourne - Inner"},{"postcode":"3067","lat":-37.803515,"long":144.998203,"state":"VIC","localities":["ABBOTSFORD"],"SA4_NAME_2016":"Melbourne - Inner"},{"postcode":"3068","lat":-37.790974,"long":144.98622,"state":"VIC","localities":["CLIFTON HILL","FITZROY NORTH"],"SA4_NAME_2016":"Melbourne - Inner"},{"postcode":"3070","lat":-37.774064,"long":144.999745,"state":"VIC","localities":["NORTHCOTE","NORTHCOTE SOUTH"],"SA4_NAME_2016":"Melbourne - Inner"},{"postcode":"3071","lat":-37.759426,"long":145.007006,"state":"VIC","localities":["THORNBURY"],"SA4_NAME_2016":"Melbourne - Inner"},{"postcode":"3072","lat":-37.74247,"long":145.005702,"state":"VIC","localities":["GILBERTON","NORTHLAND CENTRE","PRESTON","PRESTON LOWER","PRESTON SOUTH","PRESTON WEST","REGENT WEST","SYLVESTER"],"SA4_NAME_2016":"Melbourne - North East"},{"postcode":"3073","lat":-37.712474,"long":145.005955,"state":"VIC","localities":["KEON PARK","RESERVOIR","RESERVOIR EAST","RESERVOIR NORTH","RESERVOIR SOUTH"],"SA4_NAME_2016":"Melbourne - North East"},{"postcode":"3074","lat":-37.684684,"long":145.006644,"state":"VIC","localities":["THOMASTOWN"],"SA4_NAME_2016":"Melbourne - North East"},{"postcode":"3075","lat":-37.66607,"long":145.002679,"state":"VIC","localities":["LALOR","LALOR PLAZA"],"SA4_NAME_2016":"Melbourne - North East"},{"postcode":"3076","lat":-37.643598,"long":145.022137,"state":"VIC","localities":["EPPING","EPPING DC"],"SA4_NAME_2016":"Melbourne - North East"},{"postcode":"3078","lat":-37.778298,"long":145.025853,"state":"VIC","localities":["ALPHINGTON","FAIRFIELD"],"SA4_NAME_2016":"Melbourne - Inner"},{"postcode":"3079","lat":-37.772675,"long":145.048573,"state":"VIC","localities":["IVANHOE","IVANHOE EAST","IVANHOE NORTH"],"SA4_NAME_2016":"Melbourne - North East"},{"postcode":"3081","lat":-37.743008,"long":145.046401,"state":"VIC","localities":["BELLFIELD","HEIDELBERG HEIGHTS","HEIDELBERG RGH","HEIDELBERG WEST"],"SA4_NAME_2016":"Melbourne - North East"},{"postcode":"3082","lat":-37.664858,"long":145.065658,"state":"VIC","localities":["MILL PARK"],"SA4_NAME_2016":"Melbourne - North East"},{"postcode":"3083","lat":-37.701346,"long":145.056223,"state":"VIC","localities":["BUNDOORA","KINGSBURY","LA TROBE UNIVERSITY"],"SA4_NAME_2016":"Melbourne - North East"},{"postcode":"3084","lat":-37.744406,"long":145.082685,"state":"VIC","localities":["BANYULE","EAGLEMONT","HEIDELBERG","ROSANNA","VIEWBANK"],"SA4_NAME_2016":"Melbourne - North East"},{"postcode":"3085","lat":-37.724398,"long":145.06988,"state":"VIC","localities":["MACLEOD","MACLEOD WEST","YALLAMBIE"],"SA4_NAME_2016":"Melbourne - North East"},{"postcode":"3086","lat":-37.721328,"long":145.047012,"state":"VIC","localities":["LA TROBE UNIVERSITY"],"SA4_NAME_2016":"Melbourne - North East"},{"postcode":"3087","lat":-37.711787,"long":145.082426,"state":"VIC","localities":["WATSONIA","WATSONIA NORTH"],"SA4_NAME_2016":"Melbourne - North East"},{"postcode":"3088","lat":-37.700175,"long":145.108339,"state":"VIC","localities":["BRIAR HILL","GREENSBOROUGH","SAINT HELENA"],"SA4_NAME_2016":"Melbourne - North East"},{"postcode":"3088","lat":-37.68949912,"long":145.1294801,"state":"VIC","localities":["ST HELENA"],"SA4_NAME_2016":"Melbourne - North East"},{"postcode":"3089","lat":-37.667713,"long":145.150369,"state":"VIC","localities":["DIAMOND CREEK"],"SA4_NAME_2016":"Melbourne - North East"},{"postcode":"3090","lat":-37.668408,"long":145.107802,"state":"VIC","localities":["PLENTY"],"SA4_NAME_2016":"Melbourne - North East"},{"postcode":"3091","lat":-37.637478,"long":145.136688,"state":"VIC","localities":["YARRAMBAT"],"SA4_NAME_2016":"Melbourne - North East"},{"postcode":"3093","lat":-37.73919,"long":145.115208,"state":"VIC","localities":["LOWER PLENTY"],"SA4_NAME_2016":"Melbourne - North East"},{"postcode":"3094","lat":-37.719759,"long":145.124727,"state":"VIC","localities":["MONTMORENCY"],"SA4_NAME_2016":"Melbourne - North East"},{"postcode":"3095","lat":-37.713299,"long":145.158579,"state":"VIC","localities":["ELTHAM","ELTHAM NORTH","RESEARCH"],"SA4_NAME_2016":"Melbourne - North East"},{"postcode":"3096","lat":-37.670851,"long":145.185826,"state":"VIC","localities":["WATTLE GLEN"],"SA4_NAME_2016":"Melbourne - North East"},{"postcode":"3097","lat":-37.695254,"long":145.224204,"state":"VIC","localities":["BEND OF ISLANDS","KANGAROO GROUND","WATSONS CREEK"],"SA4_NAME_2016":"Melbourne - North East"},{"postcode":"3099","lat":-37.592101,"long":145.192854,"state":"VIC","localities":["ARTHURS CREEK","COTTLES BRIDGE","HURSTBRIDGE","NUTFIELD","STRATHEWEN"],"SA4_NAME_2016":"Melbourne - North East"},{"postcode":"3101","lat":-37.807397,"long":145.036575,"state":"VIC","localities":["COTHAM","KEW"],"SA4_NAME_2016":"Melbourne - Inner East"},{"postcode":"3102","lat":-37.793805,"long":145.05219,"state":"VIC","localities":["KEW EAST"],"SA4_NAME_2016":"Melbourne - Inner East"},{"postcode":"3103","lat":-37.811738,"long":145.074116,"state":"VIC","localities":["BALWYN","BALWYN EAST","DEEPDENE DC"],"SA4_NAME_2016":"Melbourne - Inner East"},{"postcode":"3103","lat":-37.81141396,"long":145.0658595,"state":"VIC","localities":["DEEPDENE"],"SA4_NAME_2016":"Melbourne - Inner East"},{"postcode":"3104","lat":-37.793695,"long":145.081714,"state":"VIC","localities":["BALWYN NORTH","GREYTHORN"],"SA4_NAME_2016":"Melbourne - Inner East"},{"postcode":"3105","lat":-37.772477,"long":145.084806,"state":"VIC","localities":["BULLEEN","BULLEEN SOUTH"],"SA4_NAME_2016":"Melbourne - Inner East"},{"postcode":"3106","lat":-37.758335,"long":145.142675,"state":"VIC","localities":["TEMPLESTOWE"],"SA4_NAME_2016":"Melbourne - Inner East"},{"postcode":"3107","lat":-37.765225,"long":145.110677,"state":"VIC","localities":["TEMPLESTOWE LOWER"],"SA4_NAME_2016":"Melbourne - Inner East"},{"postcode":"3108","lat":-37.786429,"long":145.125797,"state":"VIC","localities":["DONCASTER"],"SA4_NAME_2016":"Melbourne - Inner East"},{"postcode":"3109","lat":-37.784786,"long":145.161649,"state":"VIC","localities":["DONCASTER EAST","DONCASTER HEIGHTS","THE PINES","TUNSTALL SQUARE PO"],"SA4_NAME_2016":"Melbourne - Inner East"},{"postcode":"3111","lat":-37.794054,"long":145.186334,"state":"VIC","localities":["DONVALE"],"SA4_NAME_2016":"Melbourne - Outer East"},{"postcode":"3113","lat":-37.752123,"long":145.204689,"state":"VIC","localities":["NORTH WARRANDYTE","WARRANDYTE"],"SA4_NAME_2016":"Melbourne - North East"},{"postcode":"3114","lat":-37.778595,"long":145.212599,"state":"VIC","localities":["PARK ORCHARDS"],"SA4_NAME_2016":"Melbourne - Outer East"},{"postcode":"3115","lat":-37.736734,"long":145.267586,"state":"VIC","localities":["WONGA PARK"],"SA4_NAME_2016":"Melbourne - Outer East"},{"postcode":"3116","lat":-37.737629,"long":145.313086,"state":"VIC","localities":["CHIRNSIDE PARK"],"SA4_NAME_2016":"Melbourne - Outer East"},{"postcode":"3121","lat":-37.823303,"long":145.001788,"state":"VIC","localities":["BURNLEY","CREMORNE","RICHMOND","RICHMOND EAST","RICHMOND NORTH","RICHMOND SOUTH","VICTORIA GARDENS"],"SA4_NAME_2016":"Melbourne - Inner"},{"postcode":"3121","lat":-37.826869,"long":145.007098,"state":"VIC","localities":["BURNLEY NORTH"],"SA4_NAME_2016":"Melbourne - Inner"},{"postcode":"3122","lat":-37.822725,"long":145.030602,"state":"VIC","localities":["AUBURN SOUTH","GLENFERRIE SOUTH","HAWTHORN","HAWTHORN NORTH","HAWTHORN WEST"],"SA4_NAME_2016":"Melbourne - Inner East"},{"postcode":"3123","lat":-37.829752,"long":145.049415,"state":"VIC","localities":["AUBURN","HAWTHORN EAST"],"SA4_NAME_2016":"Melbourne - Inner East"},{"postcode":"3124","lat":-37.840867,"long":145.068191,"state":"VIC","localities":["CAMBERWELL","CAMBERWELL NORTH","CAMBERWELL SOUTH","CAMBERWELL WEST","HARTWELL","MIDDLE CAMBERWELL"],"SA4_NAME_2016":"Melbourne - Inner East"},{"postcode":"3125","lat":-37.851305,"long":145.101,"state":"VIC","localities":["BENNETTSWOOD","BURWOOD","SURREY HILLS SOUTH"],"SA4_NAME_2016":"Melbourne - Inner East"},{"postcode":"3126","lat":-37.827203,"long":145.075748,"state":"VIC","localities":["CAMBERWELL EAST","CANTERBURY"],"SA4_NAME_2016":"Melbourne - Inner East"},{"postcode":"3127","lat":-37.825173,"long":145.097236,"state":"VIC","localities":["MONT ALBERT","SURREY HILLS","SURREY HILLS NORTH"],"SA4_NAME_2016":"Melbourne - Inner East"},{"postcode":"3128","lat":-37.828866,"long":145.122393,"state":"VIC","localities":["BOX HILL","BOX HILL CENTRAL","BOX HILL SOUTH","HOUSTON","WATTLE PARK"],"SA4_NAME_2016":"Melbourne - Inner East"},{"postcode":"3129","lat":-37.806965,"long":145.125084,"state":"VIC","localities":["BOX HILL NORTH","KERRIMUIR","MONT ALBERT NORTH"],"SA4_NAME_2016":"Melbourne - Inner East"},{"postcode":"3130","lat":-37.81805,"long":145.149653,"state":"VIC","localities":["BLACKBURN","BLACKBURN NORTH","BLACKBURN SOUTH","LABURNUM"],"SA4_NAME_2016":"Melbourne - Inner East"},{"postcode":"3131","lat":-37.817798,"long":145.174489,"state":"VIC","localities":["BRENTFORD SQUARE","FOREST HILL","NUNAWADING"],"SA4_NAME_2016":"Melbourne - Outer East"},{"postcode":"3132","lat":-37.819222,"long":145.196686,"state":"VIC","localities":["MITCHAM","MITCHAM NORTH","RANGEVIEW"],"SA4_NAME_2016":"Melbourne - Outer East"},{"postcode":"3133","lat":-37.848786,"long":145.192303,"state":"VIC","localities":["VERMONT","VERMONT SOUTH"],"SA4_NAME_2016":"Melbourne - Outer East"},{"postcode":"3134","lat":-37.823058,"long":145.257929,"state":"VIC","localities":["HEATHWOOD"],"SA4_NAME_2016":"Melbourne - Outer East"},{"postcode":"3134","lat":-37.796091,"long":145.232557,"state":"VIC","localities":["RINGWOOD","RINGWOOD NORTH","WARRANDYTE SOUTH","WARRANWOOD"],"SA4_NAME_2016":"Melbourne - Outer East"},{"postcode":"3135","lat":-37.819594,"long":145.248209,"state":"VIC","localities":["BEDFORD ROAD","HEATHMONT","RINGWOOD EAST"],"SA4_NAME_2016":"Melbourne - Outer East"},{"postcode":"3136","lat":-37.779876,"long":145.282396,"state":"VIC","localities":["CROYDON","CROYDON HILLS","CROYDON NORTH","CROYDON SOUTH"],"SA4_NAME_2016":"Melbourne - Outer East"},{"postcode":"3137","lat":-37.819364,"long":145.313346,"state":"VIC","localities":["KILSYTH","KILSYTH SOUTH"],"SA4_NAME_2016":"Melbourne - Outer East"},{"postcode":"3138","lat":-37.78391,"long":145.322794,"state":"VIC","localities":["MOOROOLBARK"],"SA4_NAME_2016":"Melbourne - Outer East"},{"postcode":"3139","lat":-37.814506,"long":145.532666,"state":"VIC","localities":["BEENAK","DON VALLEY","HODDLES CREEK","LAUNCHING PLACE","SEVILLE","SEVILLE EAST","WANDIN EAST","WANDIN NORTH","WOORI YALLOCK","YELLINGBO"],"SA4_NAME_2016":"Melbourne - Outer East"},{"postcode":"3140","lat":-37.759154,"long":145.363185,"state":"VIC","localities":["LILYDALE"],"SA4_NAME_2016":"Melbourne - Outer East"},{"postcode":"3141","lat":-37.840679,"long":144.991264,"state":"VIC","localities":["CHAPEL STREET NORTH","DOMAIN ROAD PO","SOUTH YARRA"],"SA4_NAME_2016":"Melbourne - Inner"},{"postcode":"3142","lat":-37.84411,"long":145.017732,"state":"VIC","localities":["HAWKSBURN","TOORAK"],"SA4_NAME_2016":"Melbourne - Inner"},{"postcode":"3143","lat":-37.858918,"long":145.019393,"state":"VIC","localities":["ARMADALE","ARMADALE NORTH"],"SA4_NAME_2016":"Melbourne - Inner"},{"postcode":"3144","lat":-37.857443,"long":145.034127,"state":"VIC","localities":["KOOYONG","MALVERN","MALVERN NORTH"],"SA4_NAME_2016":"Melbourne - Inner South"},{"postcode":"3145","lat":-37.873557,"long":145.049328,"state":"VIC","localities":["CAULFIELD EAST","CENTRAL PARK","DARLING","DARLING SOUTH","MALVERN EAST","WATTLETREE ROAD PO"],"SA4_NAME_2016":"Melbourne - Inner South"},{"postcode":"3146","lat":-37.857116,"long":145.057833,"state":"VIC","localities":["GLEN IRIS"],"SA4_NAME_2016":"Melbourne - Inner South"},{"postcode":"3147","lat":-37.867864,"long":145.092946,"state":"VIC","localities":["ASHBURTON","ASHWOOD"],"SA4_NAME_2016":"Melbourne - Inner East"},{"postcode":"3148","lat":-37.882562,"long":145.090149,"state":"VIC","localities":["CHADSTONE","CHADSTONE CENTRE","HOLMESGLEN"],"SA4_NAME_2016":"Melbourne - South East"},{"postcode":"3148","lat":-37.8736,"long":145.112084,"state":"VIC","localities":["JORDANVILLE"],"SA4_NAME_2016":"Melbourne - South East"},{"postcode":"3149","lat":-37.880748,"long":145.128118,"state":"VIC","localities":["MOUNT WAVERLEY","PINEWOOD","SYNDAL"],"SA4_NAME_2016":"Melbourne - South East"},{"postcode":"3150","lat":-37.914383,"long":145.168834,"state":"VIC","localities":["BRANDON PARK"],"SA4_NAME_2016":"Melbourne - South East"},{"postcode":"3150","lat":-37.876968,"long":145.170841,"state":"VIC","localities":["GLEN WAVERLEY","WHEELERS HILL"],"SA4_NAME_2016":"Melbourne - South East"},{"postcode":"3151","lat":-37.85523,"long":145.151119,"state":"VIC","localities":["BURWOOD EAST","BURWOOD HEIGHTS"],"SA4_NAME_2016":"Melbourne - Inner East"},{"postcode":"3152","lat":-37.864951,"long":145.221695,"state":"VIC","localities":["KNOX CITY CENTRE","STUDFIELD","WANTIRNA","WANTIRNA SOUTH"],"SA4_NAME_2016":"Melbourne - Outer East"},{"postcode":"3153","lat":-37.845116,"long":145.270141,"state":"VIC","localities":["BAYSWATER","BAYSWATER NORTH"],"SA4_NAME_2016":"Melbourne - Outer East"},{"postcode":"3154","lat":-37.856009,"long":145.31784,"state":"VIC","localities":["THE BASIN"],"SA4_NAME_2016":"Melbourne - Outer East"},{"postcode":"3155","lat":-37.861799,"long":145.284418,"state":"VIC","localities":["BORONIA"],"SA4_NAME_2016":"Melbourne - Outer East"},{"postcode":"3156","lat":-37.917932,"long":145.292895,"state":"VIC","localities":["FERNTREE GULLY","LYSTERFIELD","LYSTERFIELD SOUTH","MOUNTAIN GATE","UPPER FERNTREE GULLY"],"SA4_NAME_2016":"Melbourne - Outer East"},{"postcode":"3158","lat":-37.910077,"long":145.324468,"state":"VIC","localities":["UPWEY"],"SA4_NAME_2016":"Melbourne - Outer East"},{"postcode":"3159","lat":-37.921894,"long":145.3892,"state":"VIC","localities":["MENZIES CREEK","SELBY"],"SA4_NAME_2016":"Melbourne - Outer East"},{"postcode":"3160","lat":-37.935097,"long":145.350821,"state":"VIC","localities":["BELGRAVE","BELGRAVE HEIGHTS","BELGRAVE SOUTH","TECOMA"],"SA4_NAME_2016":"Melbourne - Outer East"},{"postcode":"3161","lat":-37.873733,"long":145.019929,"state":"VIC","localities":["CAULFIELD JUNCTION","CAULFIELD NORTH"],"SA4_NAME_2016":"Melbourne - Inner South"},{"postcode":"3162","lat":-37.892139,"long":145.023394,"state":"VIC","localities":["CAULFIELD","CAULFIELD SOUTH","HOPETOUN GARDENS"],"SA4_NAME_2016":"Melbourne - Inner South"},{"postcode":"3163","lat":-37.896497,"long":145.057237,"state":"VIC","localities":["BOORAN ROAD PO","CARNEGIE","GLEN HUNTLY","MURRUMBEENA"],"SA4_NAME_2016":"Melbourne - Inner South"},{"postcode":"3165","lat":-37.922369,"long":145.059426,"state":"VIC","localities":["BENTLEIGH EAST","COATESVILLE"],"SA4_NAME_2016":"Melbourne - Inner South"},{"postcode":"3166","lat":-37.902805,"long":145.089719,"state":"VIC","localities":["HUGHESDALE","HUNTINGDALE","OAKLEIGH","OAKLEIGH EAST"],"SA4_NAME_2016":"Melbourne - Inner South"},{"postcode":"3167","lat":-37.923345,"long":145.087614,"state":"VIC","localities":["OAKLEIGH SOUTH"],"SA4_NAME_2016":"Melbourne - South East"},{"postcode":"3168","lat":-37.91342,"long":145.12665,"state":"VIC","localities":["CLAYTON","NOTTING HILL"],"SA4_NAME_2016":"Melbourne - South East"},{"postcode":"3169","lat":-37.945149,"long":145.115271,"state":"VIC","localities":["CLARINDA","CLAYTON SOUTH"],"SA4_NAME_2016":"Melbourne - South East"},{"postcode":"3170","lat":-37.920945,"long":145.167859,"state":"VIC","localities":["MULGRAVE","WAVERLEY GARDENS"],"SA4_NAME_2016":"Melbourne - South East"},{"postcode":"3171","lat":-37.944608,"long":145.156783,"state":"VIC","localities":["SANDOWN VILLAGE","SPRINGVALE"],"SA4_NAME_2016":"Melbourne - South East"},{"postcode":"3172","lat":-37.975981,"long":145.13465,"state":"VIC","localities":["DINGLEY VILLAGE","SPRINGVALE SOUTH"],"SA4_NAME_2016":"Melbourne - South East"},{"postcode":"3173","lat":-38.006771,"long":145.164863,"state":"VIC","localities":["KEYSBOROUGH"],"SA4_NAME_2016":"Melbourne - South East"},{"postcode":"3174","lat":-37.966218,"long":145.17877,"state":"VIC","localities":["NOBLE PARK","NOBLE PARK EAST","NOBLE PARK NORTH"],"SA4_NAME_2016":"Melbourne - South East"},{"postcode":"3175","lat":-38.016114,"long":145.208504,"state":"VIC","localities":["BANGHOLME","DANDENONG","DANDENONG EAST","DANDENONG NORTH","DANDENONG SOUTH","DUNEARN"],"SA4_NAME_2016":"Melbourne - South East"},{"postcode":"3176","lat":-37.8992,"long":145.23,"state":"VIC","localities":["SCORESBY BC"],"SA4_NAME_2016":"Melbourne - Outer East"},{"postcode":"3177","lat":-37.990985,"long":145.237462,"state":"VIC","localities":["DOVETON","EUMEMMERRING"],"SA4_NAME_2016":"Melbourne - South East"},{"postcode":"3178","lat":-37.924431,"long":145.241589,"state":"VIC","localities":["ROWVILLE"],"SA4_NAME_2016":"Melbourne - Outer East"},{"postcode":"3179","lat":-37.897137,"long":145.222634,"state":"VIC","localities":["SCORESBY"],"SA4_NAME_2016":"Melbourne - Outer East"},{"postcode":"3180","lat":-37.893263,"long":145.246731,"state":"VIC","localities":["KNOXFIELD"],"SA4_NAME_2016":"Melbourne - Outer East"},{"postcode":"3181","lat":-37.854683,"long":144.995504,"state":"VIC","localities":["PRAHRAN","PRAHRAN EAST","WINDSOR"],"SA4_NAME_2016":"Melbourne - Inner"},{"postcode":"3182","lat":-37.865322,"long":144.979478,"state":"VIC","localities":["ST KILDA","ST KILDA SOUTH","ST KILDA WEST"],"SA4_NAME_2016":"Melbourne - Inner"},{"postcode":"3183","lat":-37.869072,"long":144.999026,"state":"VIC","localities":["BALACLAVA","ST KILDA EAST"],"SA4_NAME_2016":"Melbourne - Inner"},{"postcode":"3184","lat":-37.881414,"long":144.984034,"state":"VIC","localities":["BRIGHTON ROAD","ELWOOD"],"SA4_NAME_2016":"Melbourne - Inner"},{"postcode":"3185","lat":-37.891841,"long":145.002571,"state":"VIC","localities":["ELSTERNWICK","GARDENVALE","RIPPONLEA"],"SA4_NAME_2016":"Melbourne - Inner South"},{"postcode":"3186","lat":-37.915066,"long":144.996329,"state":"VIC","localities":["BRIGHTON","BRIGHTON NORTH","DENDY","WERE STREET PO"],"SA4_NAME_2016":"Melbourne - Inner South"},{"postcode":"3187","lat":-37.925371,"long":145.013593,"state":"VIC","localities":["BRIGHTON EAST","NORTH ROAD"],"SA4_NAME_2016":"Melbourne - Inner South"},{"postcode":"3188","lat":-37.938889,"long":145.007238,"state":"VIC","localities":["HAMPTON","HAMPTON EAST","HAMPTON NORTH"],"SA4_NAME_2016":"Melbourne - Inner South"},{"postcode":"3189","lat":-37.942021,"long":145.047802,"state":"VIC","localities":["MOORABBIN","MOORABBIN EAST","WISHART"],"SA4_NAME_2016":"Melbourne - Inner South"},{"postcode":"3190","lat":-37.951394,"long":145.038147,"state":"VIC","localities":["HIGHETT"],"SA4_NAME_2016":"Melbourne - Inner South"},{"postcode":"3191","lat":-37.956585,"long":145.013472,"state":"VIC","localities":["SANDRINGHAM"],"SA4_NAME_2016":"Melbourne - Inner South"},{"postcode":"3192","lat":-37.965655,"long":145.0623,"state":"VIC","localities":["CHELTENHAM","CHELTENHAM EAST","CHELTENHAM NORTH","SOUTHLAND CENTRE"],"SA4_NAME_2016":"Melbourne - Inner South"},{"postcode":"3193","lat":-37.978698,"long":145.031561,"state":"VIC","localities":["BEAUMARIS","BLACK ROCK","BLACK ROCK NORTH","CROMER"],"SA4_NAME_2016":"Melbourne - Inner South"},{"postcode":"3194","lat":-37.985059,"long":145.067356,"state":"VIC","localities":["MENTONE","MENTONE EAST","MOORABBIN AIRPORT"],"SA4_NAME_2016":"Melbourne - Inner South"},{"postcode":"3195","lat":-38.007024,"long":145.104105,"state":"VIC","localities":["ASPENDALE","ASPENDALE GARDENS","BRAESIDE","MORDIALLOC","MORDIALLOC NORTH","PARKDALE","WATERWAYS"],"SA4_NAME_2016":"Melbourne - Inner South"},{"postcode":"3196","lat":-38.046479,"long":145.122762,"state":"VIC","localities":["BONBEACH","CHELSEA","CHELSEA HEIGHTS","EDITHVALE"],"SA4_NAME_2016":"Melbourne - Inner South"},{"postcode":"3197","lat":-38.072748,"long":145.134111,"state":"VIC","localities":["CARRUM","PATTERSON LAKES"],"SA4_NAME_2016":"Melbourne - Inner South"},{"postcode":"3198","lat":-38.103194,"long":145.137811,"state":"VIC","localities":["BELVEDERE PARK","SEAFORD"],"SA4_NAME_2016":"Mornington Peninsula"},{"postcode":"3199","lat":-38.162578,"long":145.135961,"state":"VIC","localities":["FRANKSTON","FRANKSTON EAST","FRANKSTON HEIGHTS","FRANKSTON SOUTH","KARINGAL","KARINGAL CENTRE"],"SA4_NAME_2016":"Mornington Peninsula"},{"postcode":"3200","lat":-38.126458,"long":145.157574,"state":"VIC","localities":["FRANKSTON NORTH","PINES FOREST"],"SA4_NAME_2016":"Mornington Peninsula"},{"postcode":"3201","lat":-38.092874,"long":145.177905,"state":"VIC","localities":["CARRUM DOWNS"],"SA4_NAME_2016":"Mornington Peninsula"},{"postcode":"3202","lat":-37.960555,"long":145.092698,"state":"VIC","localities":["HEATHERTON"],"SA4_NAME_2016":"Melbourne - Inner South"},{"postcode":"3204","lat":-37.916956,"long":145.036783,"state":"VIC","localities":["BENTLEIGH","MCKINNON","ORMOND","PATTERSON"],"SA4_NAME_2016":"Melbourne - Inner South"},{"postcode":"3205","lat":-37.831693,"long":144.958176,"state":"VIC","localities":["SOUTH MELBOURNE","SOUTH MELBOURNE DC"],"SA4_NAME_2016":"Melbourne - Inner"},{"postcode":"3206","lat":-37.846534,"long":144.95086,"state":"VIC","localities":["ALBERT PARK","MIDDLE PARK"],"SA4_NAME_2016":"Melbourne - Inner"},{"postcode":"3207","lat":-37.832179,"long":144.918044,"state":"VIC","localities":["GARDEN CITY","PORT MELBOURNE"],"SA4_NAME_2016":"Melbourne - Inner"},{"postcode":"3211","lat":-37.943586,"long":144.498479,"state":"VIC","localities":["LITTLE RIVER"],"SA4_NAME_2016":"Geelong"},{"postcode":"3212","lat":-38.039958,"long":144.422666,"state":"VIC","localities":["AVALON","LARA","POINT WILSON"],"SA4_NAME_2016":"Geelong"},{"postcode":"3213","lat":-37.9406,"long":144.2894,"state":"VIC","localities":["ANAKIE"],"SA4_NAME_2016":"Geelong"},{"postcode":"3213","lat":-38.091,"long":144.2779,"state":"VIC","localities":["BATESFORD"],"SA4_NAME_2016":"Geelong"},{"postcode":"3213","lat":-38.04070313,"long":144.3223578,"state":"VIC","localities":["LOVELY BANKS"],"SA4_NAME_2016":"Geelong"},{"postcode":"3213","lat":-38.038,"long":144.2771,"state":"VIC","localities":["MOORABOOL"],"SA4_NAME_2016":"Geelong"},{"postcode":"3214","lat":-38.084781,"long":144.352385,"state":"VIC","localities":["CORIO","NORLANE","NORTH SHORE"],"SA4_NAME_2016":"Geelong"},{"postcode":"3215","lat":-38.111002,"long":144.33452,"state":"VIC","localities":["BELL PARK","BELL POST HILL","DRUMCONDRA","GEELONG NORTH","HAMLYN HEIGHTS","NORTH GEELONG","RIPPLESIDE"],"SA4_NAME_2016":"Geelong"},{"postcode":"3216","lat":-38.215906,"long":144.334005,"state":"VIC","localities":["BELMONT","FRESHWATER CREEK","GROVEDALE","GROVEDALE EAST","HIGHTON","MARSHALL","MOUNT DUNEED","WANDANA HEIGHTS","WAURN PONDS"],"SA4_NAME_2016":"Geelong"},{"postcode":"3217","lat":-38.23413976,"long":144.3707843,"state":"VIC","localities":["ARMSTRONG CREEK"],"SA4_NAME_2016":"Geelong"},{"postcode":"3217","lat":-38.21558906,"long":144.3683696,"state":"VIC","localities":["CHARLEMONT"],"SA4_NAME_2016":"Geelong"},{"postcode":"3217","lat":-38.200349,"long":144.301029,"state":"VIC","localities":["DEAKIN UNIVERSITY"],"SA4_NAME_2016":"Melbourne - Inner East"},{"postcode":"3217","lat":-38.27029834,"long":144.249583,"state":"VIC","localities":["FRESHWATER CREEK"],"SA4_NAME_2016":"Geelong"},{"postcode":"3217","lat":-38.24983474,"long":144.3127944,"state":"VIC","localities":["MOUNT DUNEED"],"SA4_NAME_2016":"Geelong"},{"postcode":"3218","lat":-38.13028025,"long":144.2894883,"state":"VIC","localities":["FYANSFORD"],"SA4_NAME_2016":"Geelong"},{"postcode":"3218","lat":-38.138728,"long":144.330986,"state":"VIC","localities":["GEELONG WEST","HERNE HILL","MANIFOLD HEIGHTS"],"SA4_NAME_2016":"Geelong"},{"postcode":"3218","lat":-38.09450396,"long":144.1418215,"state":"VIC","localities":["MURGHEBOLUC"],"SA4_NAME_2016":"Geelong"},{"postcode":"3218","lat":-38.1220442,"long":144.223441,"state":"VIC","localities":["STONEHAVEN"],"SA4_NAME_2016":"Geelong"},{"postcode":"3219","lat":-38.17277,"long":144.389533,"state":"VIC","localities":["BREAKWATER","EAST GEELONG","NEWCOMB","ST ALBANS PARK","THOMSON","WHITTINGTON"],"SA4_NAME_2016":"Geelong"},{"postcode":"3220","lat":-38.157038,"long":144.34652,"state":"VIC","localities":["BAREENA","GEELONG","NEWTOWN","SOUTH GEELONG"],"SA4_NAME_2016":"Geelong"},{"postcode":"3221","lat":-38.181608,"long":144.427419,"state":"VIC","localities":["ANAKIE","BARRABOOL","BATESFORD","BELLARINE","CERES","FYANSFORD","GEELONG MC","GNARWARRE","GREY RIVER","KENNETT RIVER","LOVELY BANKS","MOOLAP","MOORABOOL","MURGHEBOLUC","SEPARATION CREEK","STAUGHTON VALE","STONEHAVEN","SUGARLOAF","WALLINGTON","WONGARRA","WYE RIVER"],"SA4_NAME_2016":"Geelong"},{"postcode":"3222","lat":-38.209921,"long":144.572989,"state":"VIC","localities":["CLIFTON SPRINGS","CURLEWIS","DRYSDALE","MANNERIM","MARCUS HILL"],"SA4_NAME_2016":"Geelong"},{"postcode":"3222","lat":-38.22638039,"long":144.5118946,"state":"VIC","localities":["WALLINGTON"],"SA4_NAME_2016":"Geelong"},{"postcode":"3223","lat":-38.13622989,"long":144.6217267,"state":"VIC","localities":["BELLARINE"],"SA4_NAME_2016":"Geelong"},{"postcode":"3223","lat":-38.147989,"long":144.668477,"state":"VIC","localities":["INDENTED HEAD","PORTARLINGTON","ST LEONARDS"],"SA4_NAME_2016":"Geelong"},{"postcode":"3224","lat":-38.202905,"long":144.462401,"state":"VIC","localities":["LEOPOLD"],"SA4_NAME_2016":"Geelong"},{"postcode":"3224","lat":-38.17988326,"long":144.4248188,"state":"VIC","localities":["MOOLAP"],"SA4_NAME_2016":"Geelong"},{"postcode":"3225","lat":-38.271074,"long":144.614191,"state":"VIC","localities":["POINT LONSDALE","QUEENSCLIFF","SWAN BAY","SWAN ISLAND"],"SA4_NAME_2016":"Geelong"},{"postcode":"3226","lat":-38.263811,"long":144.523761,"state":"VIC","localities":["OCEAN GROVE"],"SA4_NAME_2016":"Geelong"},{"postcode":"3227","lat":-38.263052,"long":144.40814,"state":"VIC","localities":["BARWON HEADS","BREAMLEA","CONNEWARRE"],"SA4_NAME_2016":"Geelong"},{"postcode":"3228","lat":-38.307545,"long":144.299978,"state":"VIC","localities":["BELLBRAE","BELLS BEACH","JAN JUC","TORQUAY"],"SA4_NAME_2016":"Geelong"},{"postcode":"3230","lat":-38.409363,"long":144.176397,"state":"VIC","localities":["ANGLESEA"],"SA4_NAME_2016":"Geelong"},{"postcode":"3231","lat":-38.459435,"long":144.106892,"state":"VIC","localities":["AIREYS INLET","EASTERN VIEW","FAIRHAVEN","MOGGS CREEK"],"SA4_NAME_2016":"Geelong"},{"postcode":"3231","lat":-38.47820971,"long":144.0079299,"state":"VIC","localities":["BIG HILL"],"SA4_NAME_2016":"Geelong"},{"postcode":"3232","lat":-38.544977,"long":143.970167,"state":"VIC","localities":["BIG HILL","LORNE"],"SA4_NAME_2016":"Geelong"},{"postcode":"3233","lat":-38.679417,"long":143.671777,"state":"VIC","localities":["APOLLO BAY","CAPE OTWAY","MARENGO","PETTICOAT CREEK","SKENES CREEK","SKENES CREEK NORTH"],"SA4_NAME_2016":"Warrnambool and South West"},{"postcode":"3234","lat":-38.6791182,"long":143.832394,"state":"VIC","localities":["GREY RIVER"],"SA4_NAME_2016":"Warrnambool and South West"},{"postcode":"3234","lat":-38.63847255,"long":143.8049086,"state":"VIC","localities":["KENNETT RIVER"],"SA4_NAME_2016":"Warrnambool and South West"},{"postcode":"3234","lat":-38.58813123,"long":143.8732037,"state":"VIC","localities":["SEPARATION CREEK"],"SA4_NAME_2016":"Warrnambool and South West"},{"postcode":"3234","lat":-38.69,"long":143.7961,"state":"VIC","localities":["SUGARLOAF"],"SA4_NAME_2016":"Warrnambool and South West"},{"postcode":"3234","lat":-38.6747,"long":143.7986,"state":"VIC","localities":["WONGARRA"],"SA4_NAME_2016":"Warrnambool and South West"},{"postcode":"3234","lat":-38.62497369,"long":143.8493949,"state":"VIC","localities":["WYE RIVER"],"SA4_NAME_2016":"Warrnambool and South West"},{"postcode":"3235","lat":-38.411964,"long":143.924288,"state":"VIC","localities":["BENWERRIN","DEANS MARSH","PENNYROYAL"],"SA4_NAME_2016":"Geelong"},{"postcode":"3235","lat":-38.42875898,"long":143.979689,"state":"VIC","localities":["BOONAH"],"SA4_NAME_2016":"Geelong"},{"postcode":"3236","lat":-38.521903,"long":143.712384,"state":"VIC","localities":["FORREST","MOUNT SABINE"],"SA4_NAME_2016":"Warrnambool and South West"},{"postcode":"3237","lat":-38.716838,"long":143.474392,"state":"VIC","localities":["AIRE VALLEY","BEECH FOREST","FERGUSON","GELLIBRAND LOWER","WATTLE HILL","WEEAPROINAH","WYELANGTA","YUULONG"],"SA4_NAME_2016":"Warrnambool and South West"},{"postcode":"3238","lat":-38.781787,"long":143.429978,"state":"VIC","localities":["GLENAIRE","HORDERN VALE","JOHANNA","LAVERS HILL"],"SA4_NAME_2016":"Warrnambool and South West"},{"postcode":"3239","lat":-38.564014,"long":143.448102,"state":"VIC","localities":["CARLISLE RIVER","CHAPPLE VALE","GELLIBRAND","KENNEDYS CREEK"],"SA4_NAME_2016":"Warrnambool and South West"},{"postcode":"3240","lat":-38.263005,"long":144.174411,"state":"VIC","localities":["BUCKLEY","GHERANG","MODEWARRE","MORIAC","MOUNT MORIAC","PARAPARAP"],"SA4_NAME_2016":"Geelong"},{"postcode":"3241","lat":-38.20363,"long":143.892824,"state":"VIC","localities":["BAMBRA","OMBERSLEY","WENSLEYDALE","WINCHELSEA","WINCHELSEA SOUTH","WURDIBOLUC"],"SA4_NAME_2016":"Geelong"},{"postcode":"3242","lat":-38.346704,"long":143.740326,"state":"VIC","localities":["BIRREGURRA"],"SA4_NAME_2016":"Warrnambool and South West"},{"postcode":"3243","lat":-38.364034,"long":143.82588,"state":"VIC","localities":["BARWON DOWNS","GERANGAMETE","MURROON","WARNCOORT","WHOOREL"],"SA4_NAME_2016":"Warrnambool and South West"},{"postcode":"3249","lat":-38.388291,"long":143.557159,"state":"VIC","localities":["ALVIE","BALINTORE","BARONGAROOK","BARONGAROOK WEST","BARRAMUNGA","CORAGULAC","CORUNNUN","DREEITE","DREEITE SOUTH","IRREWARRA","IRREWILLIPE","IRREWILLIPE EAST","KAWARREN","LARPENT","NALANGIL","ONDIT","PIRRON YALLOCK","POMBORNEIT EAST","SWAN MARSH","TANYBRYN","WARRION","WOOL WOOL","YEO","YEODENE"],"SA4_NAME_2016":"Warrnambool and South West"},{"postcode":"3249","lat":-38.45296591,"long":143.6947758,"state":"VIC","localities":["GERANGAMETE"],"SA4_NAME_2016":"Warrnambool and South West"},{"postcode":"3250","lat":-38.311513,"long":143.584742,"state":"VIC","localities":["COLAC","COLAC EAST","COLAC WEST","ELLIMINYT"],"SA4_NAME_2016":"Warrnambool and South West"},{"postcode":"3251","lat":-38.155186,"long":143.648479,"state":"VIC","localities":["BEEAC","CUNDARE NORTH","EURACK","WEERING"],"SA4_NAME_2016":"Warrnambool and South West"},{"postcode":"3251","lat":-38.146253,"long":143.5923322,"state":"VIC","localities":["CUNDARE"],"SA4_NAME_2016":"Warrnambool and South West"},{"postcode":"3254","lat":-38.289636,"long":143.52228,"state":"VIC","localities":["COROROOKE"],"SA4_NAME_2016":"Warrnambool and South West"},{"postcode":"3260","lat":-38.209584,"long":143.244766,"state":"VIC","localities":["BOOKAAR","BOSTOCKS CREEK","BUNGADOR","CAMPERDOWN","CARPENDEIT","CHOCOLYN","GNOTUK","KARIAH","KOALLAH","LESLIE MANOR","POMBORNEIT","POMBORNEIT NORTH","SKIBO","SOUTH PURRUMBETE","STONYFORD","TANDAROOK","TESBURY","WEERITE"],"SA4_NAME_2016":"Warrnambool and South West"},{"postcode":"3264","lat":-38.232443,"long":142.884394,"state":"VIC","localities":["TERANG"],"SA4_NAME_2016":"Warrnambool and South West"},{"postcode":"3265","lat":-38.178237,"long":142.952372,"state":"VIC","localities":["BOORCAN","CUDGEE","DIXIE","ECKLIN SOUTH","ELLERSLIE","FRAMLINGHAM","FRAMLINGHAM EAST","GARVOC","GLENORMISTON NORTH","GLENORMISTON SOUTH","KOLORA","LAANG","NOORAT","NOORAT EAST","PANMURE","TAROON","THE SISTERS"],"SA4_NAME_2016":"Warrnambool and South West"},{"postcode":"3266","lat":-38.407094,"long":143.133721,"state":"VIC","localities":["BULLAHARRE","COBDEN","COBRICO","ELINGAMITE","ELINGAMITE NORTH","GLENFYNE","JANCOURT","JANCOURT EAST","NAROGHID","SIMPSON"],"SA4_NAME_2016":"Warrnambool and South West"},{"postcode":"3267","lat":-38.466647,"long":143.06073,"state":"VIC","localities":["SCOTTS CREEK"],"SA4_NAME_2016":"Warrnambool and South West"},{"postcode":"3268","lat":-38.535802,"long":142.908911,"state":"VIC","localities":["AYRFORD","BRUCKNELL","COORIEMUNGLE","COWLEYS CREEK","CURDIE VALE","CURDIES RIVER","HEYTESBURY LOWER","NEWFIELD","NIRRANDA","NIRRANDA EAST","NIRRANDA SOUTH","NULLAWARRE","NULLAWARRE EAST","PAARATTE","THE COVE","TIMBOON","TIMBOON WEST"],"SA4_NAME_2016":"Warrnambool and South West"},{"postcode":"3268","lat":-38.51854992,"long":142.8644071,"state":"VIC","localities":["CURDIEVALE"],"SA4_NAME_2016":"Warrnambool and South West"},{"postcode":"3268","lat":-38.43795764,"long":142.7964155,"state":"VIC","localities":["NULLAWARRE NORTH"],"SA4_NAME_2016":"Warrnambool and South West"},{"postcode":"3269","lat":-38.660637,"long":143.177116,"state":"VIC","localities":["PORT CAMPBELL","PRINCETOWN","WAARRE"],"SA4_NAME_2016":"Warrnambool and South West"},{"postcode":"3270","lat":-38.602117,"long":142.870164,"state":"VIC","localities":["PETERBOROUGH"],"SA4_NAME_2016":"Warrnambool and South West"},{"postcode":"3271","lat":-37.888549,"long":142.98753,"state":"VIC","localities":["DARLINGTON","DUNDONNELL","PURA PURA"],"SA4_NAME_2016":"Warrnambool and South West"},{"postcode":"3272","lat":-37.982186,"long":142.853634,"state":"VIC","localities":["MORTLAKE","WOORNDOO"],"SA4_NAME_2016":"Warrnambool and South West"},{"postcode":"3273","lat":-37.981249,"long":142.660643,"state":"VIC","localities":["HEXHAM"],"SA4_NAME_2016":"Warrnambool and South West"},{"postcode":"3274","lat":-37.960778,"long":142.478612,"state":"VIC","localities":["CARAMUT"],"SA4_NAME_2016":"Warrnambool and South West"},{"postcode":"3275","lat":-38.301794,"long":142.457611,"state":"VIC","localities":["MAILER FLAT","MAILORS FLAT"],"SA4_NAME_2016":"Warrnambool and South West"},{"postcode":"3276","lat":-38.0538178,"long":142.481806,"state":"VIC","localities":["MINJAH"],"SA4_NAME_2016":"Warrnambool and South West"},{"postcode":"3276","lat":-38.180923,"long":142.409105,"state":"VIC","localities":["WOOLSTHORPE"],"SA4_NAME_2016":"Warrnambool and South West"},{"postcode":"3277","lat":-38.389835,"long":142.660221,"state":"VIC","localities":["ALLANSFORD","MEPUNGA","MEPUNGA EAST","MEPUNGA WEST","NARINGAL","NARINGAL EAST"],"SA4_NAME_2016":"Warrnambool and South West"},{"postcode":"3278","lat":-38.278013,"long":142.624719,"state":"VIC","localities":["PURNIM"],"SA4_NAME_2016":"Warrnambool and South West"},{"postcode":"3278","lat":-38.29668931,"long":142.554533,"state":"VIC","localities":["PURNIM WEST"],"SA4_NAME_2016":"Warrnambool and South West"},{"postcode":"3279","lat":-38.214555,"long":142.657483,"state":"VIC","localities":["BALLANGEICH","WANGOOM"],"SA4_NAME_2016":"Warrnambool and South West"},{"postcode":"3280","lat":-38.37884,"long":142.482889,"state":"VIC","localities":["DENNINGTON","MINJAH","WARRNAMBOOL","WARRNAMBOOL EAST","WARRNAMBOOL WEST"],"SA4_NAME_2016":"Warrnambool and South West"},{"postcode":"3281","lat":-38.254454,"long":142.630109,"state":"VIC","localities":["BUSHFIELD","GRASSMERE","WINSLOW","WOODFORD"],"SA4_NAME_2016":"Warrnambool and South West"},{"postcode":"3282","lat":-38.268176,"long":142.351658,"state":"VIC","localities":["ILLOWA","KOROIT"],"SA4_NAME_2016":"Warrnambool and South West"},{"postcode":"3283","lat":-38.313434,"long":142.328761,"state":"VIC","localities":["CROSSLEY","KILLARNEY","KIRKSTALL","SOUTHERN CROSS","TARRONE","TOWER HILL","WARRONG","WILLATOOK","YANGERY","YARPTURK"],"SA4_NAME_2016":"Warrnambool and South West"},{"postcode":"3284","lat":-38.270398,"long":142.119266,"state":"VIC","localities":["ORFORD","PORT FAIRY"],"SA4_NAME_2016":"Warrnambool and South West"},{"postcode":"3285","lat":-38.290199,"long":142.058916,"state":"VIC","localities":["CODRINGTON","NARRAWONG","ROSEBROOK","ST HELENS","TOOLONG","TYRENDARRA","TYRENDARRA EAST","YAMBUK"],"SA4_NAME_2016":"Warrnambool and South West"},{"postcode":"3286","lat":-37.9711005,"long":141.8361176,"state":"VIC","localities":["CONDAH SWAMP"],"SA4_NAME_2016":"Warrnambool and South West"},{"postcode":"3286","lat":-38.036038,"long":141.963223,"state":"VIC","localities":["KNEBSWORTH","MACARTHUR","RIPPONHURST"],"SA4_NAME_2016":"Warrnambool and South West"},{"postcode":"3286","lat":-37.98614494,"long":142.0716061,"state":"VIC","localities":["WARRABKOOK"],"SA4_NAME_2016":"Warrnambool and South West"},{"postcode":"3287","lat":-38.059868,"long":142.31953,"state":"VIC","localities":["HAWKESDALE","MINHAMITE"],"SA4_NAME_2016":"Warrnambool and South West"},{"postcode":"3289","lat":-37.893196,"long":142.227754,"state":"VIC","localities":["GAZETTE","PENSHURST","PURDEET","TABOR"],"SA4_NAME_2016":"Warrnambool and South West"},{"postcode":"3289","lat":-37.99193127,"long":142.1980995,"state":"VIC","localities":["GERRIGERRUP"],"SA4_NAME_2016":"Warrnambool and South West"},{"postcode":"3292","lat":-38.038873,"long":141.051987,"state":"VIC","localities":["NELSON"],"SA4_NAME_2016":"Warrnambool and South West"},{"postcode":"3293","lat":-37.655945,"long":142.527253,"state":"VIC","localities":["GLENTHOMPSON","NAREEB","NARRAPUMELAP SOUTH"],"SA4_NAME_2016":"Warrnambool and South West"},{"postcode":"3294","lat":-37.573978,"long":142.312764,"state":"VIC","localities":["DUNKELD","KARABEAL","MIRRANATWA","MOUTAJUP","VICTORIA POINT","VICTORIA VALLEY","WOODHOUSE"],"SA4_NAME_2016":"Warrnambool and South West"},{"postcode":"3300","lat":-37.743155,"long":142.013356,"state":"VIC","localities":["BYADUK NORTH","HAMILTON"],"SA4_NAME_2016":"Warrnambool and South West"},{"postcode":"3301","lat":-38.118855,"long":142.034141,"state":"VIC","localities":["BOCHARA","BROADWATER","BUCKLEY SWAMP","BYADUK","CROXTON EAST","HENSLEY PARK","MORGIANA","MOUNT NAPIER","STRATHKELLAR","TAHARA","TARRINGTON","WANNON","WARRAYURE","YATCHAW","YULECART"],"SA4_NAME_2016":"Warrnambool and South West"},{"postcode":"3302","lat":-37.847981,"long":141.706379,"state":"VIC","localities":["BRANXHOLME","GRASSDALE"],"SA4_NAME_2016":"Warrnambool and South West"},{"postcode":"3303","lat":-37.980868,"long":141.789606,"state":"VIC","localities":["BREAKAWAY CREEK","CONDAH","CONDAH SWAMP","HOTSPUR","LAKE CONDAH","WALLACEDALE"],"SA4_NAME_2016":"Warrnambool and South West"},{"postcode":"3304","lat":-38.182084,"long":141.952156,"state":"VIC","localities":["BESSIEBELLE","DARTMOOR","DRIK DRIK","DRUMBORG","GREENWALD","HEYWOOD","HOMERTON","LYONS","MILLTOWN","MUMBANNAR","MYAMYN","WINNAP"],"SA4_NAME_2016":"Warrnambool and South West"},{"postcode":"3305","lat":-38.235475,"long":141.437227,"state":"VIC","localities":["ALLESTREE","BOLWARRA","CAPE BRIDGEWATER","CASHMORE","DUTTON WAY","GORAE","GORAE WEST","HEATHMERE","MOUNT RICHMOND","PORTLAND","PORTLAND NORTH","PORTLAND WEST"],"SA4_NAME_2016":"Warrnambool and South West"},{"postcode":"3309","lat":-37.82644,"long":141.511007,"state":"VIC","localities":["DIGBY"],"SA4_NAME_2016":"Warrnambool and South West"},{"postcode":"3310","lat":-37.70789,"long":141.549163,"state":"VIC","localities":["MERINO","TAHARA WEST"],"SA4_NAME_2016":"Warrnambool and South West"},{"postcode":"3311","lat":-37.468159,"long":141.229722,"state":"VIC","localities":["CASTERTON","CORNDALE","HEATH FIELD","PURALKA"],"SA4_NAME_2016":"Warrnambool and South West"},{"postcode":"3312","lat":-37.6391,"long":141.365747,"state":"VIC","localities":["BAHGALLAH","BRIMBOAL","CARAPOOK","CHETWYND","DERGHOLM","DORODONG","DUNROBIN","HENTY","KILLARA","LAKE MUNDI","LINDSAY","MUNTHAM","NANGEELA","POOLAIJELO","POWERS CREEK","SANDFORD","STRATHDOWNIE","WANDO VALE","WARROCK"],"SA4_NAME_2016":"Warrnambool and South West"},{"postcode":"3312","lat":-37.43928729,"long":141.4238728,"state":"VIC","localities":["WANDO BRIDGE"],"SA4_NAME_2016":"Warrnambool and South West"},{"postcode":"3314","lat":-37.586718,"long":141.935665,"state":"VIC","localities":["BULART","CAVENDISH","GLENISLA","MOORALLA","WOOHLPOOER"],"SA4_NAME_2016":"Warrnambool and South West"},{"postcode":"3314","lat":-37.34896421,"long":142.329907,"state":"VIC","localities":["GRAMPIANS"],"SA4_NAME_2016":"Warrnambool and South West"},{"postcode":"3315","lat":-37.408371,"long":141.687516,"state":"VIC","localities":["BRIT BRIT","CLOVER FLAT","COLERAINE","COOJAR","CULLA","GRINGEGALGONA","GRITJURK","HILGAY","KONONGWOOTONG","MELVILLE FOREST","NAREEN","PARKWOOD","PASCHENDALE","TAHARA BRIDGE","TARRAYOUKYAN","TARRENLEA","WOOTONG VALE"],"SA4_NAME_2016":"Warrnambool and South West"},{"postcode":"3315","lat":-37.5733696,"long":141.5443271,"state":"VIC","localities":["MUNTHAM"],"SA4_NAME_2016":"Warrnambool and South West"},{"postcode":"3317","lat":-37.166673,"long":141.451647,"state":"VIC","localities":["HARROW"],"SA4_NAME_2016":"North West"},{"postcode":"3318","lat":-37.025316,"long":141.269571,"state":"VIC","localities":["CHARAM","CONNEWIRRICOO","EDENHOPE","JALLAKIN","KADNOOK","LANGKOOP","MEEREEK","PATYAH","ULLSWATER"],"SA4_NAME_2016":"North West"},{"postcode":"3319","lat":-36.873961,"long":141.051389,"state":"VIC","localities":["APSLEY","BENAYEO","BRINGALBERT"],"SA4_NAME_2016":"North West"},{"postcode":"3321","lat":-38.087758,"long":143.88056,"state":"VIC","localities":["HESSE","INVERLEIGH","WINGEEL"],"SA4_NAME_2016":"Geelong"},{"postcode":"3322","lat":-38.021333,"long":143.743305,"state":"VIC","localities":["CRESSY"],"SA4_NAME_2016":"Warrnambool and South West"},{"postcode":"3323","lat":-38.026314,"long":143.520934,"state":"VIC","localities":["BERRYBANK","DUVERNEY","FOXHOW"],"SA4_NAME_2016":"Warrnambool and South West"},{"postcode":"3324","lat":-37.941939,"long":143.375414,"state":"VIC","localities":["LISMORE","MINGAY","MOUNT BUTE"],"SA4_NAME_2016":"Warrnambool and South West"},{"postcode":"3325","lat":-37.877452,"long":143.185911,"state":"VIC","localities":["DERRINALLUM","LARRALEA","VITE VITE","VITE VITE NORTH"],"SA4_NAME_2016":"Warrnambool and South West"},{"postcode":"3328","lat":-38.018664,"long":144.043058,"state":"VIC","localities":["TEESDALE"],"SA4_NAME_2016":"Geelong"},{"postcode":"3329","lat":-37.983701,"long":143.908716,"state":"VIC","localities":["BARUNAH PARK","SHELFORD"],"SA4_NAME_2016":"Geelong"},{"postcode":"3329","lat":-38.04453757,"long":143.7726902,"state":"VIC","localities":["BARUNAH PLAINS"],"SA4_NAME_2016":"Warrnambool and South West"},{"postcode":"3330","lat":-37.918437,"long":143.758576,"state":"VIC","localities":["ROKEWOOD"],"SA4_NAME_2016":"Geelong"},{"postcode":"3331","lat":-38.049195,"long":144.194625,"state":"VIC","localities":["BANNOCKBURN","GHERINGHAP","MAUDE","RUSSELLS BRIDGE","SHE OAKS","STEIGLITZ","SUTHERLANDS CREEK"],"SA4_NAME_2016":"Geelong"},{"postcode":"3332","lat":-37.944446,"long":144.097178,"state":"VIC","localities":["LETHBRIDGE"],"SA4_NAME_2016":"Geelong"},{"postcode":"3333","lat":-37.87179,"long":144.04476,"state":"VIC","localities":["BAMGANIE","MEREDITH"],"SA4_NAME_2016":"Geelong"},{"postcode":"3334","lat":-37.75803,"long":144.086089,"state":"VIC","localities":["BUNGAL","CARGERIE","ELAINE","MORRISONS","MOUNT DORAN"],"SA4_NAME_2016":"Ballarat"},{"postcode":"3335","lat":-37.69608887,"long":144.6698898,"state":"VIC","localities":["BONNIE BROOK"],"SA4_NAME_2016":"Melbourne - West"},{"postcode":"3335","lat":-37.7069003,"long":144.6393305,"state":"VIC","localities":["GRANGEFIELDS"],"SA4_NAME_2016":"Melbourne - West"},{"postcode":"3335","lat":-37.724141,"long":144.699671,"state":"VIC","localities":["PLUMPTON","ROCKBANK"],"SA4_NAME_2016":"Melbourne - West"},{"postcode":"3335","lat":-37.73029166,"long":144.624896,"state":"VIC","localities":["THORNHILL PARK"],"SA4_NAME_2016":"Melbourne - West"},{"postcode":"3336","lat":-37.719,"long":144.6684,"state":"VIC","localities":["AINTREE"],"SA4_NAME_2016":"Melbourne - West"},{"postcode":"3336","lat":-37.7332,"long":144.7041,"state":"VIC","localities":["DEANSIDE"],"SA4_NAME_2016":"Melbourne - West"},{"postcode":"3336","lat":-37.70482231,"long":144.7126219,"state":"VIC","localities":["FRASER RISE"],"SA4_NAME_2016":"Melbourne - West"},{"postcode":"3337","lat":-37.65724033,"long":144.5462424,"state":"VIC","localities":["HARKNESS"],"SA4_NAME_2016":"Melbourne - West"},{"postcode":"3337","lat":-37.656057,"long":144.571458,"state":"VIC","localities":["KURUNJANG","MELTON","MELTON WEST","TOOLERN VALE"],"SA4_NAME_2016":"Melbourne - West"},{"postcode":"3338","lat":-37.705529,"long":144.571033,"state":"VIC","localities":["BROOKFIELD","EXFORD","EYNESBURY","MELTON SOUTH"],"SA4_NAME_2016":"Melbourne - West"},{"postcode":"3338","lat":-37.70732038,"long":144.6008548,"state":"VIC","localities":["COBBLEBANK"],"SA4_NAME_2016":"Melbourne - West"},{"postcode":"3338","lat":-37.73398997,"long":144.5969094,"state":"VIC","localities":["STRATHTULLOH"],"SA4_NAME_2016":"Melbourne - West"},{"postcode":"3338","lat":-37.72870467,"long":144.5683367,"state":"VIC","localities":["WEIR VIEWS"],"SA4_NAME_2016":"Melbourne - West"},{"postcode":"3340","lat":-37.787135,"long":144.394442,"state":"VIC","localities":["BACCHUS MARSH","BALLIANG","BALLIANG EAST","COIMADAI","DARLEY","GLENMORE","HOPETOUN PARK","LONG FOREST","MADDINGLEY","MERRIMU","PARWAN","ROWSLEY"],"SA4_NAME_2016":"Melbourne - West"},{"postcode":"3340","lat":-37.84038931,"long":144.2550519,"state":"VIC","localities":["STAUGHTON VALE"],"SA4_NAME_2016":"Geelong"},{"postcode":"3341","lat":-37.573711,"long":144.308232,"state":"VIC","localities":["DALES CREEK","GREENDALE","KOROBEIT","MYRNIONG","PENTLAND HILLS"],"SA4_NAME_2016":"Ballarat"},{"postcode":"3342","lat":-37.651463,"long":144.239102,"state":"VIC","localities":["BALLAN","BEREMBOKE","BLAKEVILLE","BUNDING","COLBROOK","DURDIDWARRAH","FISKVILLE","INGLISTON","MOUNT WALLACE"],"SA4_NAME_2016":"Ballarat"},{"postcode":"3345","lat":-37.5878,"long":144.123664,"state":"VIC","localities":["GORDON"],"SA4_NAME_2016":"Ballarat"},{"postcode":"3350","lat":-37.571941,"long":143.864505,"state":"VIC","localities":["ALFREDTON","BAKERY HILL","BALLARAT","BALLARAT CENTRAL","BALLARAT EAST","BALLARAT NORTH","BALLARAT WEST","BLACK HILL","BROWN HILL","CANADIAN","EUREKA","GOLDEN POINT","INVERMAY PARK","LAKE WENDOUREE","MOUNT CLEAR","MOUNT HELEN","MOUNT PLEASANT","NERRINA","NEWINGTON","REDAN","SOLDIERS HILL","SOVEREIGN HILL"],"SA4_NAME_2016":"Ballarat"},{"postcode":"3350","lat":-37.55411084,"long":143.769084,"state":"VIC","localities":["LUCAS"],"SA4_NAME_2016":"Ballarat"},{"postcode":"3351","lat":-37.758248,"long":143.637463,"state":"VIC","localities":["BERRINGA","BO PEEP","CAPE CLEAR","CARNGHAM","CHEPSTOWE","HADDON","HAPPY VALLEY","HILLCREST","ILLABAROOK","LAKE BOLAC","MININERA","MORTCHUP","MOUNT EMU","NERRIN NERRIN","NEWTOWN","NINTINGBOOL","PIGGOREET","PITFIELD","ROKEWOOD JUNCTION","ROSS CREEK","SCARSDALE","SMYTHES CREEK","SMYTHESDALE","SNAKE VALLEY","SPRINGDALLAH","STAFFORDSHIRE REEF","STREATHAM","WALLINDUC","WESTMERE"],"SA4_NAME_2016":"Ballarat"},{"postcode":"3352","lat":-37.482132,"long":143.662387,"state":"VIC","localities":["ADDINGTON","BALLARAT ROADSIDE DELIVERY","BARKSTEAD","BLOWHARD","BOLWARRAH","BREWSTER","BULLAROOK","BUNGAREE","BUNKERS HILL","BURRUMBEET","CAMBRIAN HILL","CARDIGAN","CARDIGAN VILLAGE","CHAPEL FLAT","CLARENDON","CLARETOWN","CLARKES HILL","CORINDHAP","DEAN","DEREEL","DUNNSTOWN","DURHAM LEAD","ENFIELD","ERCILDOUNE","GARIBALDI","GLEN PARK","GLENBRAE","GONG GONG","GRENVILLE","INVERMAY","LAL LAL","LAMPLOUGH","LANGI KAL KAL","LEARMONTH","LEIGH CREEK","LEXTON","MAGPIE","MILLBROOK","MINERS REST","MITCHELL PARK","MOLLONGGHIP","MOUNT BOLTON","MOUNT EGERTON","MOUNT MERCER","MOUNT MITCHELL","MOUNT ROWAN","NAPOLEONS","NAVIGATORS","POOTILLA","SCOTCHMANS LEAD","SCOTSBURN","SPRINGBANK","SULKY","WALLACE","WARRENHEIP","WATTLE FLAT","WAUBRA","WEATHERBOARD","WERNETH","WINDERMERE","YENDON"],"SA4_NAME_2016":"Ballarat"},{"postcode":"3352","lat":-37.60335408,"long":143.813696,"state":"VIC","localities":["BONSHAW"],"SA4_NAME_2016":"Ballarat"},{"postcode":"3354","lat":-37.560917,"long":143.867158,"state":"VIC","localities":["BALLARAT MC"],"SA4_NAME_2016":"Ballarat"},{"postcode":"3355","lat":-37.530285,"long":143.82561,"state":"VIC","localities":["LAKE GARDENS","MITCHELL PARK","WENDOUREE","WENDOUREE VILLAGE"],"SA4_NAME_2016":"Ballarat"},{"postcode":"3356","lat":-37.592283,"long":143.82846,"state":"VIC","localities":["BONSHAW","DELACOMBE","SEBASTOPOL"],"SA4_NAME_2016":"Ballarat"},{"postcode":"3357","lat":-37.653945,"long":143.883416,"state":"VIC","localities":["BUNINYONG","SCOTSMANS LEAD","YARROWEE"],"SA4_NAME_2016":"Ballarat"},{"postcode":"3358","lat":-37.58012926,"long":143.7928013,"state":"VIC","localities":["WINTER VALLEY"],"SA4_NAME_2016":"Melbourne - North West"},{"postcode":"3360","lat":-37.72758817,"long":143.5955266,"state":"VIC","localities":["HAPPY VALLEY"],"SA4_NAME_2016":"Ballarat"},{"postcode":"3360","lat":-37.779677,"long":143.51253,"state":"VIC","localities":["LINTON","MANNIBADAR","PITTONG","WILLOWVALE"],"SA4_NAME_2016":"Ballarat"},{"postcode":"3361","lat":-37.752643,"long":143.373089,"state":"VIC","localities":["BRADVALE","CARRANBALLAC","SKIPTON"],"SA4_NAME_2016":"Warrnambool and South West"},{"postcode":"3363","lat":-37.420588,"long":143.88637,"state":"VIC","localities":["CRESWICK","CRESWICK NORTH","GLENDARUEL","LANGDONS HILL","MOUNT BECKWORTH","TOURELLO"],"SA4_NAME_2016":"Ballarat"},{"postcode":"3363","lat":-37.45543067,"long":143.9835358,"state":"VIC","localities":["DEAN"],"SA4_NAME_2016":"Ballarat"},{"postcode":"3364","lat":-37.334655,"long":143.907186,"state":"VIC","localities":["ALLENDALE","ASCOT","BALD HILLS","BLAMPIED","BROOMFIELD","CABBAGE TREE","CAMPBELLTOWN","COGHILLS CREEK","GLENDONNELL","KINGSTON","KOOROOCHEANG","LAWRENCE","MOUNT PROSPECT","NEWLYN","NEWLYN NORTH","ROCKLYN","SMEATON","SMOKEY TOWN","SPRINGMOUNT","STRATHLEA","ULLINA","WERONA"],"SA4_NAME_2016":"Ballarat"},{"postcode":"3364","lat":-37.47880506,"long":144.0999652,"state":"VIC","localities":["BARKSTEAD"],"SA4_NAME_2016":"Ballarat"},{"postcode":"3364","lat":-37.36045587,"long":143.8443538,"state":"VIC","localities":["GLENDONALD"],"SA4_NAME_2016":"Ballarat"},{"postcode":"3364","lat":-37.08856117,"long":143.9880643,"state":"VIC","localities":["JOYCES CREEK"],"SA4_NAME_2016":"Bendigo"},{"postcode":"3364","lat":-37.40001075,"long":143.9221405,"state":"VIC","localities":["SMOKEYTOWN"],"SA4_NAME_2016":"Ballarat"},{"postcode":"3370","lat":-37.252718,"long":143.815613,"state":"VIC","localities":["CLUNES","GLENGOWER","MOUNT CAMERON"],"SA4_NAME_2016":"Ballarat"},{"postcode":"3370","lat":-37.27629787,"long":143.8880006,"state":"VIC","localities":["ULLINA"],"SA4_NAME_2016":"Ballarat"},{"postcode":"3371","lat":-37.196938,"long":143.635622,"state":"VIC","localities":["AMHERST","BURNBANK","CARALULUP","DUNACH","EVANSFORD","LILLICUR","MOUNT GLASGOW","STONY CREEK","TALBOT"],"SA4_NAME_2016":"Ballarat"},{"postcode":"3371","lat":-37.1766686,"long":143.7666842,"state":"VIC","localities":["RED LION"],"SA4_NAME_2016":"Ballarat"},{"postcode":"3373","lat":-37.457785,"long":143.343429,"state":"VIC","localities":["BEAUFORT","CHUTE","CROSS ROADS","LAKE GOLDSMITH","LAKE WONGAN","MAIN LEAD","MENA PARK","NERRING","RAGLAN","SHIRLEY","STOCKYARD HILL","STONELEIGH","TRAWALLA","WATERLOO"],"SA4_NAME_2016":"Ballarat"},{"postcode":"3374","lat":-37.231524,"long":142.956916,"state":"VIC","localities":["GREAT WESTERN","AMPHITHEATRE","ARARAT","ARARAT EAST","ARMSTRONG","BEN NEVIS","CATHCART","CROWLANDS","DENICULL CREEK","DOBIE","DUNNEWORTHY","EVERSLEY","GREAT WESTERN","JALLUKUR","LANGI LOGAN","MAROONA","MOUNT COLE","MOUNT COLE CREEK","MOUNT LONARCH","MOYSTON","NORVAL","RHYMNEY","ROCKY POINT","ROSSBRIDGE","WARRAK"],"SA4_NAME_2016":"North West"},{"postcode":"3375","lat":-37.424288,"long":143.143621,"state":"VIC","localities":["BALLYROGAN","BAYINDEEN","BUANGOR","MIDDLE CREEK"],"SA4_NAME_2016":"North West"},{"postcode":"3377","lat":-37.12975291,"long":142.9948304,"state":"VIC","localities":["BULGANA"],"SA4_NAME_2016":"North West"},{"postcode":"3377","lat":-37.06683249,"long":143.0871367,"state":"VIC","localities":["SHAYS FLAT"],"SA4_NAME_2016":"Ballarat"},{"postcode":"3378","lat":-37.528792,"long":142.985403,"state":"VIC","localities":["TATYOON","YALLA-Y-POORA"],"SA4_NAME_2016":"North West"},{"postcode":"3379","lat":-37.534037,"long":142.521439,"state":"VIC","localities":["BERRAMBOOL","BORNES HILL","CHATSWORTH","MAFEKING","STAVELY","WATGANIA","WICKLIFFE","WILLAURA","WILLAURA NORTH"],"SA4_NAME_2016":"Capital Region"},{"postcode":"3380","lat":-37.0666,"long":142.771159,"state":"VIC","localities":["BELLELLEN","BRIDGE INN","MOKEPILLY","STAWELL","STAWELL WEST","WINJALLOK","WINJALLOK"],"SA4_NAME_2016":"North West"},{"postcode":"3381","lat":-36.988914,"long":142.7154,"state":"VIC","localities":["BARKLY","BELLFIELD","BOLANGUM","CALLAWADDA","CAMPBELLS BRIDGE","CONCONGELLA","DEEP LEAD","FYANS CREEK","GERMANIA","GREENS CREEK","HALLS GAP","ILLAWARRA","JOEL JOEL","JOEL SOUTH","KANYA","LAKE FYANS","LAKE LONSDALE","LUBECK","MORRL MORRL","PARADISE","POMONAL","ROSTRON","WAL WAL","WALLALOO","WALLALOO EAST","PARADISE","ROSTRON"],"SA4_NAME_2016":"Ballarat"},{"postcode":"3381","lat":-37.13783665,"long":142.6925099,"state":"VIC","localities":["BELLELLEN"],"SA4_NAME_2016":"North West"},{"postcode":"3381","lat":-37.1348818,"long":142.7641486,"state":"VIC","localities":["BLACK RANGE"],"SA4_NAME_2016":"North West"},{"postcode":"3381","lat":-37.09290738,"long":142.6448077,"state":"VIC","localities":["MOKEPILLY"],"SA4_NAME_2016":"North West"},{"postcode":"3381","lat":-37.04638597,"long":142.5318605,"state":"VIC","localities":["MOUNT DRYDEN"],"SA4_NAME_2016":"North West"},{"postcode":"3384","lat":-36.93829078,"long":143.2173081,"state":"VIC","localities":["BARKLY"],"SA4_NAME_2016":"Ballarat"},{"postcode":"3384","lat":-37.04625762,"long":142.8740132,"state":"VIC","localities":["CONCONGELLA"],"SA4_NAME_2016":"North West"},{"postcode":"3384","lat":-37.000261,"long":143.126344,"state":"VIC","localities":["FRENCHMANS","LANDSBOROUGH","LANDSBOROUGH WEST","NAVARRE","SHAYS FLAT","WATTLE CREEK"],"SA4_NAME_2016":"Ballarat"},{"postcode":"3384","lat":-37.01984772,"long":142.9867746,"state":"VIC","localities":["JOEL JOEL"],"SA4_NAME_2016":"North West"},{"postcode":"3384","lat":-37.06314423,"long":142.9994761,"state":"VIC","localities":["JOEL SOUTH"],"SA4_NAME_2016":"North West"},{"postcode":"3384","lat":-36.94387585,"long":143.0484349,"state":"VIC","localities":["TULKARA"],"SA4_NAME_2016":"North West"},{"postcode":"3385","lat":-36.904185,"long":142.647565,"state":"VIC","localities":["DADSWELLS BRIDGE","GLENORCHY","LEDCOURT","RIACHELLA"],"SA4_NAME_2016":"North West"},{"postcode":"3385","lat":-36.99999967,"long":142.7110642,"state":"VIC","localities":["DEEP LEAD"],"SA4_NAME_2016":"North West"},{"postcode":"3385","lat":-36.73975806,"long":142.5335742,"state":"VIC","localities":["LUBECK"],"SA4_NAME_2016":"North West"},{"postcode":"3385","lat":-36.97419597,"long":142.4561838,"state":"VIC","localities":["ROSES GAP"],"SA4_NAME_2016":"North West"},{"postcode":"3385","lat":-36.81909176,"long":142.616484,"state":"VIC","localities":["WAL WAL"],"SA4_NAME_2016":"North West"},{"postcode":"3387","lat":-36.71744157,"long":142.9814278,"state":"VIC","localities":["BOLANGUM"],"SA4_NAME_2016":"North West"},{"postcode":"3387","lat":-36.82285865,"long":142.7940368,"state":"VIC","localities":["CALLAWADDA"],"SA4_NAME_2016":"North West"},{"postcode":"3387","lat":-36.92542526,"long":142.7959945,"state":"VIC","localities":["CAMPBELLS BRIDGE"],"SA4_NAME_2016":"North West"},{"postcode":"3387","lat":-36.97659863,"long":142.7584938,"state":"VIC","localities":["GERMANIA"],"SA4_NAME_2016":"North West"},{"postcode":"3387","lat":-36.93245666,"long":142.9444988,"state":"VIC","localities":["GREENS CREEK"],"SA4_NAME_2016":"North West"},{"postcode":"3387","lat":-36.77318828,"long":142.9860744,"state":"VIC","localities":["KANYA"],"SA4_NAME_2016":"North West"},{"postcode":"3387","lat":-36.666391,"long":142.876262,"state":"VIC","localities":["MARNOO"],"SA4_NAME_2016":"North West"},{"postcode":"3387","lat":-36.71153166,"long":142.7794333,"state":"VIC","localities":["MARNOO WEST"],"SA4_NAME_2016":"North West"},{"postcode":"3387","lat":-36.86638119,"long":142.8949426,"state":"VIC","localities":["MORRL MORRL"],"SA4_NAME_2016":"North West"},{"postcode":"3387","lat":-36.74801665,"long":142.9016653,"state":"VIC","localities":["WALLALOO"],"SA4_NAME_2016":"North West"},{"postcode":"3387","lat":-36.80559338,"long":142.9089779,"state":"VIC","localities":["WALLALOO EAST"],"SA4_NAME_2016":"North West"},{"postcode":"3388","lat":-36.597861,"long":142.693946,"state":"VIC","localities":["BANYENA","RUPANYUP"],"SA4_NAME_2016":"North West"},{"postcode":"3390","lat":-36.583744,"long":142.487468,"state":"VIC","localities":["KEWELL","MURTOA"],"SA4_NAME_2016":"North West"},{"postcode":"3391","lat":-36.092132,"long":142.446015,"state":"VIC","localities":["BRIM"],"SA4_NAME_2016":"North West"},{"postcode":"3392","lat":-36.34199038,"long":142.6792298,"state":"VIC","localities":["BOOLITE"],"SA4_NAME_2016":"North West"},{"postcode":"3392","lat":-36.430131,"long":142.677858,"state":"VIC","localities":["MINYIP","SHEEP HILLS"],"SA4_NAME_2016":"North West"},{"postcode":"3393","lat":-36.257725,"long":142.387341,"state":"VIC","localities":["AILSA","ANGIP","AUBREY","BANGERANG","CANNUM","CRYMELON","KELLALAC","LAH","WARRACKNABEAL","WILKUR","WILLENABRINA"],"SA4_NAME_2016":"North West"},{"postcode":"3395","lat":-35.918885,"long":142.441984,"state":"VIC","localities":["BEULAH","KENMARE"],"SA4_NAME_2016":"North West"},{"postcode":"3395","lat":-35.9579551,"long":142.6453073,"state":"VIC","localities":["REEDY DAM"],"SA4_NAME_2016":"North West"},{"postcode":"3395","lat":-35.83347402,"long":142.4214713,"state":"VIC","localities":["ROSEBERY"],"SA4_NAME_2016":"North West"},{"postcode":"3396","lat":-35.7157,"long":142.329159,"state":"VIC","localities":["HOPETOUN","HOPEVALE","YARTO"],"SA4_NAME_2016":"North West"},{"postcode":"3399","lat":-36.608521,"long":142.357023,"state":"VIC","localities":["JUNG","LONGERENONG"],"SA4_NAME_2016":"North West"},{"postcode":"3400","lat":-36.725245,"long":142.203729,"state":"VIC","localities":["BRIMPAEN","HORSHAM","HORSHAM WEST","ST HELENS PLAINS","WARTOOK","WONWONDAH EAST","WONWONDAH SOUTH"],"SA4_NAME_2016":"North West"},{"postcode":"3401","lat":-36.881534,"long":141.940832,"state":"VIC","localities":["BLACKHEATH","BUNGALALLY","CHERRYPOOL","CLEAR LAKE","CONNANGORACH","DAHLEN","DOOEN","DOUGLAS","DRUNG","GREEN LAKE","GYMBOWEN","HAVEN","HORSHAM","JALLUMBA","JILPANGER","KALKEE","KANAGULK","KARNAK","LAHARUM","LOWER NORTON","MCKENZIE CREEK","MIGA LAKE","MITRE","MOCKINYA","MURRA WARRA","NORADJUHA","NURCOUNG","NURRABIEL","PIMPINIO","QUANTONG","REMLAW","RIVERSIDE","ROCKLANDS","TELANGATUK EAST","TOOAN","TOOLONDO","VECTIS","WALLUP","WOMBELANO","WONWONDAH","ZUMSTEINS"],"SA4_NAME_2016":"North West"},{"postcode":"3401","lat":-37.03953686,"long":142.2041883,"state":"VIC","localities":["BRIMPAEN"],"SA4_NAME_2016":"North West"},{"postcode":"3401","lat":-36.57669756,"long":142.3388059,"state":"VIC","localities":["JUNG"],"SA4_NAME_2016":"North West"},{"postcode":"3401","lat":-36.68413291,"long":142.3445593,"state":"VIC","localities":["LONGERENONG"],"SA4_NAME_2016":"North West"},{"postcode":"3401","lat":-36.78558459,"long":142.4320005,"state":"VIC","localities":["ST HELENS PLAINS"],"SA4_NAME_2016":"North West"},{"postcode":"3401","lat":-36.52995528,"long":142.0867071,"state":"VIC","localities":["WAIL"],"SA4_NAME_2016":"North West"},{"postcode":"3401","lat":-37.0307138,"long":142.3452363,"state":"VIC","localities":["WARTOOK"],"SA4_NAME_2016":"North West"},{"postcode":"3407","lat":-37.298061,"long":141.948371,"state":"VIC","localities":["BALMORAL","ENGLEFIELD","GATUM","PIGEON PONDS","VASEY"],"SA4_NAME_2016":"Warrnambool and South West"},{"postcode":"3409","lat":-36.72484337,"long":141.8632367,"state":"VIC","localities":["ARAPILES"],"SA4_NAME_2016":"North West"},{"postcode":"3409","lat":-36.93658009,"long":141.8934852,"state":"VIC","localities":["CLEAR LAKE"],"SA4_NAME_2016":"North West"},{"postcode":"3409","lat":-37.03897482,"long":141.7107285,"state":"VIC","localities":["DOUGLAS"],"SA4_NAME_2016":"North West"},{"postcode":"3409","lat":-36.60694604,"long":141.9140027,"state":"VIC","localities":["DUCHEMBEGARRA"],"SA4_NAME_2016":"North West"},{"postcode":"3409","lat":-36.667303,"long":141.89695,"state":"VIC","localities":["GRASS FLAT","NATIMUK"],"SA4_NAME_2016":"North West"},{"postcode":"3409","lat":-36.91000699,"long":141.7461966,"state":"VIC","localities":["JILPANGER"],"SA4_NAME_2016":"North West"},{"postcode":"3409","lat":-36.85914305,"long":141.6408336,"state":"VIC","localities":["MIGA LAKE"],"SA4_NAME_2016":"North West"},{"postcode":"3409","lat":-36.71831242,"long":141.7727332,"state":"VIC","localities":["MITRE"],"SA4_NAME_2016":"North West"},{"postcode":"3409","lat":-36.84799315,"long":141.9194993,"state":"VIC","localities":["NORADJUHA"],"SA4_NAME_2016":"North West"},{"postcode":"3409","lat":-36.80951649,"long":141.7810211,"state":"VIC","localities":["TOOAN"],"SA4_NAME_2016":"North West"},{"postcode":"3409","lat":-37.02197072,"long":141.570286,"state":"VIC","localities":["WOMBELANO"],"SA4_NAME_2016":"North West"},{"postcode":"3412","lat":-36.658804,"long":141.366071,"state":"VIC","localities":["GOROKE"],"SA4_NAME_2016":"North West"},{"postcode":"3413","lat":-36.699331,"long":141.201068,"state":"VIC","localities":["MINIMAY","NEUARPURR","OZENKADNOOK","PERONNE"],"SA4_NAME_2016":"North West"},{"postcode":"3414","lat":-36.388628,"long":142.093883,"state":"VIC","localities":["ANTWERP","DIMBOOLA","TARRANYURK","WAIL"],"SA4_NAME_2016":"North West"},{"postcode":"3415","lat":-36.352459,"long":141.339702,"state":"VIC","localities":["MIRAM","YARRUNGA"],"SA4_NAME_2016":"North West"},{"postcode":"3418","lat":-36.074144,"long":141.538074,"state":"VIC","localities":["BROUGHTON","GERANG GERUNG","GLENLEE","KIATA","LAWLOIT","LITTLE DESERT","LORQUON","NETHERBY","NHILL","YANAC"],"SA4_NAME_2016":"North West"},{"postcode":"3419","lat":-36.226015,"long":141.101929,"state":"VIC","localities":["KANIVA"],"SA4_NAME_2016":"North West"},{"postcode":"3420","lat":-36.41273,"long":141.017332,"state":"VIC","localities":["LILLIMUR","SERVICETON","TELOPEA DOWNS"],"SA4_NAME_2016":"North West"},{"postcode":"3423","lat":-36.13191,"long":141.940764,"state":"VIC","localities":["JEPARIT","LAKE HINDMARSH"],"SA4_NAME_2016":"North West"},{"postcode":"3424","lat":-35.727789,"long":141.930872,"state":"VIC","localities":["ALBACUTYA","RAINBOW","YAAPEET"],"SA4_NAME_2016":"North West"},{"postcode":"3427","lat":-37.643461,"long":144.707974,"state":"VIC","localities":["DIGGERS REST","PLUMPTON"],"SA4_NAME_2016":"Melbourne - North West"},{"postcode":"3428","lat":-37.591069,"long":144.811494,"state":"VIC","localities":["BULLA"],"SA4_NAME_2016":"Melbourne - North West"},{"postcode":"3429","lat":-37.56762,"long":144.728973,"state":"VIC","localities":["SUNBURY","WILDWOOD"],"SA4_NAME_2016":"Melbourne - North West"},{"postcode":"3430","lat":-37.494056,"long":144.806632,"state":"VIC","localities":["CLARKEFIELD"],"SA4_NAME_2016":"Melbourne - North West"},{"postcode":"3431","lat":-37.474551,"long":144.69202,"state":"VIC","localities":["RIDDELLS CREEK"],"SA4_NAME_2016":"Melbourne - North West"},{"postcode":"3432","lat":-37.448455,"long":144.792581,"state":"VIC","localities":["BOLINDA"],"SA4_NAME_2016":"Melbourne - North West"},{"postcode":"3433","lat":-37.413302,"long":144.752095,"state":"VIC","localities":["MONEGEETTA"],"SA4_NAME_2016":"Melbourne - North West"},{"postcode":"3434","lat":-37.35388,"long":144.750796,"state":"VIC","localities":["CHEROKEE","KERRIE","ROMSEY","SPRINGFIELD"],"SA4_NAME_2016":"Melbourne - North West"},{"postcode":"3435","lat":-37.179453,"long":144.743358,"state":"VIC","localities":["BENLOCH","GOLDIE","LANCEFIELD","NULLA VALE"],"SA4_NAME_2016":"Melbourne - North West"},{"postcode":"3437","lat":-37.501619,"long":144.513018,"state":"VIC","localities":["BULLENGAROOK","GISBORNE","GISBORNE SOUTH"],"SA4_NAME_2016":"Melbourne - North West"},{"postcode":"3438","lat":-37.457528,"long":144.602032,"state":"VIC","localities":["NEW GISBORNE"],"SA4_NAME_2016":"Melbourne - North West"},{"postcode":"3440","lat":-37.413377,"long":144.546151,"state":"VIC","localities":["MACEDON"],"SA4_NAME_2016":"Melbourne - North West"},{"postcode":"3441","lat":-37.399224,"long":144.603892,"state":"VIC","localities":["MOUNT MACEDON"],"SA4_NAME_2016":"Melbourne - North West"},{"postcode":"3442","lat":-37.330661,"long":144.548846,"state":"VIC","localities":["ASHBOURNE","CADELLO","CARLSRUHE","COBAW","HANGING ROCK","HESKET","NEWHAM","ROCHFORD","WOODEND","WOODEND NORTH"],"SA4_NAME_2016":"Bendigo"},{"postcode":"3444","lat":-37.171788,"long":144.544716,"state":"VIC","localities":["BARFOLD","BAYNTON","BAYNTON EAST","EDGECOMBE","GLENHOPE","GREENHILL","KYNETON","KYNETON SOUTH","LANGLEY","LAURISTON","LYAL","METCALFE EAST","MIA MIA","MYRTLE CREEK","PASTORIA","PASTORIA EAST","PIPERS CREEK","REDESDALE","SIDONIA","SPRING HILL","TYLDEN","TYLDEN SOUTH"],"SA4_NAME_2016":"Bendigo"},{"postcode":"3446","lat":-37.184831,"long":144.374338,"state":"VIC","localities":["DRUMMOND NORTH","MALMSBURY"],"SA4_NAME_2016":"Bendigo"},{"postcode":"3447","lat":-37.157744,"long":144.322487,"state":"VIC","localities":["TARADALE"],"SA4_NAME_2016":"Bendigo"},{"postcode":"3448","lat":-37.075364,"long":144.387629,"state":"VIC","localities":["ELPHINSTONE","METCALFE","SUTTON GRANGE"],"SA4_NAME_2016":"Bendigo"},{"postcode":"3450","lat":-37.061635,"long":144.214903,"state":"VIC","localities":["CASTLEMAINE","MOONLIGHT FLAT"],"SA4_NAME_2016":"Bendigo"},{"postcode":"3451","lat":-37.125338,"long":144.21419,"state":"VIC","localities":["BARKERS CREEK","CAMPBELLS CREEK","CHEWTON","CHEWTON BUSHLANDS","FARADAY","FRYERSTOWN","GLENLUCE","GOLDEN POINT","GOWER","GUILDFORD","IRISHTOWN","MCKENZIE HILL","MUCKLEFORD","TARILTA","VAUGHAN","WOODBROOK","YAPEEN"],"SA4_NAME_2016":"Bendigo"},{"postcode":"3453","lat":-36.950365,"long":144.281488,"state":"VIC","localities":["HARCOURT","HARCOURT NORTH","RAVENSWOOD","RAVENSWOOD SOUTH"],"SA4_NAME_2016":"Bendigo"},{"postcode":"3458","lat":-37.424116,"long":144.33471,"state":"VIC","localities":["BARRYS REEF","BLACKWOOD","FERN HILL","LERDERDERG","LITTLE HAMPTON","NEWBURY","NORTH BLACKWOOD","TRENTHAM","TRENTHAM EAST"],"SA4_NAME_2016":"Ballarat"},{"postcode":"3460","lat":-37.351704,"long":144.144216,"state":"VIC","localities":["BASALT","DAYLESFORD"],"SA4_NAME_2016":"Ballarat"},{"postcode":"3461","lat":-37.287848,"long":144.170995,"state":"VIC","localities":["BULLARTO","BULLARTO SOUTH","CLYDESDALE","COOMOORA","DENVER","DRUMMOND","DRY DIGGINGS","EGANSTOWN","ELEVATED PLAINS","FRANKLINFORD","GLENLYON","HEPBURN","HEPBURN SPRINGS","KORWEINGUBOORA","LEONARDS HILL","LYONVILLE","MOUNT FRANKLIN","MUSK","MUSK VALE","PORCUPINE RIDGE","SAILORS FALLS","SAILORS HILL","SHEPHERDS FLAT","SPARGO CREEK","STRANGWAYS","WHEATSHEAF","YANDOIT","YANDOIT HILLS"],"SA4_NAME_2016":"Ballarat"},{"postcode":"3462","lat":-37.083561,"long":144.053611,"state":"VIC","localities":["GREEN GULLY","JOYCES CREEK","MUCKLEFORD SOUTH","NEWSTEAD","SANDON","WELSHMANS REEF"],"SA4_NAME_2016":"Bendigo"},{"postcode":"3463","lat":-36.957983,"long":144.05651,"state":"VIC","localities":["BARINGHUP","BARINGHUP WEST","BRADFORD","EASTVILLE","LAANECOORIE","MALDON","NEEREMAN","NUGGETTY","PERKINS REEF","PORCUPINE FLAT","SHELBOURNE","TARRENGOWER","WALMER","WOODSTOCK WEST"],"SA4_NAME_2016":"Bendigo"},{"postcode":"3463","lat":-37.02851213,"long":144.0988962,"state":"VIC","localities":["GOWER"],"SA4_NAME_2016":"Bendigo"},{"postcode":"3464","lat":-37.019811,"long":143.841414,"state":"VIC","localities":["CARISBROOK"],"SA4_NAME_2016":"Ballarat"},{"postcode":"3465","lat":-37.021478,"long":143.611335,"state":"VIC","localities":["ADELAIDE LEAD","ALMA","BOWENVALE","BUNG BONG","COTSWOLD","CRAIGIE","DAISY HILL","FLAGSTAFF","GOLDEN POINT","HAVELOCK","HOMEBUSH","MAJORCA","MARYBOROUGH","MOOLORT","MOONLIGHT FLAT","NATTE YALLOCK","RATHSCAR","RATHSCAR WEST","RODBOROUGH","SIMSON","TIMOR","TIMOR WEST","WAREEK"],"SA4_NAME_2016":"Ballarat"},{"postcode":"3467","lat":-37.105993,"long":143.412675,"state":"VIC","localities":["AVOCA","MOYREISK","MOYREISK"],"SA4_NAME_2016":"Ballarat"},{"postcode":"3468","lat":-37.261481,"long":143.379493,"state":"VIC","localities":["AMPHITHEATRE","MOUNT LONARCH"],"SA4_NAME_2016":"Ballarat"},{"postcode":"3469","lat":-37.172964,"long":143.280627,"state":"VIC","localities":["ELMHURST","GLENLOFTY","GLENLOGIE","GLENPATRICK","NOWHERE CREEK"],"SA4_NAME_2016":"Ballarat"},{"postcode":"3472","lat":-36.864952,"long":143.657638,"state":"VIC","localities":["BET BET","BETLEY","BROMLEY","DUNLUCE","DUNOLLY","EDDINGTON","GOLDSBOROUGH","INKERMAN","MCINTYRE","MOLIAGUL","MOUNT HOOGHLY"],"SA4_NAME_2016":"Ballarat"},{"postcode":"3475","lat":-36.70633,"long":143.51213,"state":"VIC","localities":["ARCHDALE","ARCHDALE JUNCTION","BEALIBA","BURKES FLAT","COCHRANES CREEK","EMU","LOGAN"],"SA4_NAME_2016":"Ballarat"},{"postcode":"3477","lat":-36.688551,"long":143.230699,"state":"VIC","localities":["AVON PLAINS","BEAZLEYS BRIDGE","CARAPOOEE","CARAPOOEE WEST","COONOOER BRIDGE","COONOOER WEST","GOOROC","GOWAR EAST","GRE GRE","GRE GRE NORTH","GRE GRE SOUTH","KOOREH","MOOLERR","REDBANK","SLATY CREEK","ST ARNAUD EAST","ST ARNAUD NORTH","STUART MILL","SUTHERLAND","SWANWATER","TOTTINGTON","TRAYNORS LAGOON","AVON PLAINS","BEAZLEYS BRIDGE","BERRIMAL WEST","CARAPOOEE","CARAPOOEE WEST","COONOOER BRIDGE","COONOOER WEST","DARKBONEE","DOOBOOBETIC","ELBERTON","GOOROC","GOWAR EAST","GRE GRE","GRE GRE NORTH","GRE GRE SOUTH","KOOREH","MEDLYN","MITCHELLS HILL","MOOLERR","MOONAMBEL","PERCYDALE","REDBANK","SLATY CREEK","ST ARNAUD","ST ARNAUD EAST","ST ARNAUD NORTH","STUART MILL","SUTHERLAND","SWANWATER","TANWOOD","TOTTINGTON","TRAYNORS LAGOON","TULKARA","WARRENMANG","YAWONG HILLS"],"SA4_NAME_2016":"North West"},{"postcode":"3477","lat":-36.8061787,"long":143.4180029,"state":"VIC","localities":["DALYENONG"],"SA4_NAME_2016":"North West"},{"postcode":"3477","lat":-36.61840529,"long":142.8997503,"state":"VIC","localities":["GRAYS BRIDGE"],"SA4_NAME_2016":"North West"},{"postcode":"3477","lat":-36.65690656,"long":142.9563966,"state":"VIC","localities":["MARNOO EAST"],"SA4_NAME_2016":"North West"},{"postcode":"3477","lat":-36.58743626,"long":142.9166939,"state":"VIC","localities":["YORK PLAINS"],"SA4_NAME_2016":"North West"},{"postcode":"3480","lat":-36.31227,"long":142.968057,"state":"VIC","localities":["AREEGRA","BANYENONG","BOOLITE","CARRON","COPE COPE","CORACK","CORACK EAST","DONALD","LAEN","LAEN EAST","LAEN NORTH","LAKE BULOKE","LAWLER","LITCHFIELD","RICH AVON","RICH AVON EAST","RICH AVON WEST","SWANWATER WEST"],"SA4_NAME_2016":"North West"},{"postcode":"3480","lat":-36.32166578,"long":143.0409276,"state":"VIC","localities":["GIL GIL"],"SA4_NAME_2016":"North West"},{"postcode":"3480","lat":-36.31902453,"long":143.1383586,"state":"VIC","localities":["JEFFCOTT"],"SA4_NAME_2016":"North West"},{"postcode":"3480","lat":-36.26284609,"long":143.0680468,"state":"VIC","localities":["JEFFCOTT NORTH"],"SA4_NAME_2016":"North West"},{"postcode":"3482","lat":-36.17028,"long":142.766588,"state":"VIC","localities":["MASSEY","MORTON PLAINS","WARMUR","WATCHEM","WATCHEM WEST"],"SA4_NAME_2016":"North West"},{"postcode":"3483","lat":-35.901765,"long":142.890804,"state":"VIC","localities":["BALLAPUR","BIRCHIP","BIRCHIP WEST","CURYO","JIL JIL","KARYRIE","KINNABULLA","MARLBED","NARRAPORT","REEDY DAM","WHIRILY"],"SA4_NAME_2016":"North West"},{"postcode":"3485","lat":-35.711533,"long":142.671962,"state":"VIC","localities":["BANYAN","WATCHUPGA","WILLANGIE","WOOMELANG"],"SA4_NAME_2016":"North West"},{"postcode":"3487","lat":-35.515627,"long":142.616079,"state":"VIC","localities":["LASCELLES"],"SA4_NAME_2016":"North West"},{"postcode":"3488","lat":-35.435634,"long":142.427118,"state":"VIC","localities":["SPEED","TURRIFF EAST"],"SA4_NAME_2016":"North West"},{"postcode":"3488","lat":-35.47089941,"long":142.4522756,"state":"VIC","localities":["TURRIFF"],"SA4_NAME_2016":"North West"},{"postcode":"3489","lat":-35.332477,"long":142.425302,"state":"VIC","localities":["TEMPY"],"SA4_NAME_2016":"North West"},{"postcode":"3490","lat":-35.62103426,"long":141.4849679,"state":"VIC","localities":["BIG DESERT"],"SA4_NAME_2016":"North West"},{"postcode":"3490","lat":-34.911674,"long":142.206711,"state":"VIC","localities":["BOINKA","KULWIN","OUYEN","TORRITA","TUTYE"],"SA4_NAME_2016":"North West"},{"postcode":"3490","lat":-35.15426089,"long":142.6222683,"state":"VIC","localities":["MITTYACK"],"SA4_NAME_2016":"North West"},{"postcode":"3490","lat":-34.70931565,"long":141.4764416,"state":"VIC","localities":["MURRAY-SUNSET"],"SA4_NAME_2016":"North West"},{"postcode":"3491","lat":-35.434099,"long":142.218273,"state":"VIC","localities":["PATCHEWOLLOCK"],"SA4_NAME_2016":"North West"},{"postcode":"3494","lat":-34.486406,"long":142.348315,"state":"VIC","localities":["CARWARP","COLIGNAN","IRAAK","NANGILOC"],"SA4_NAME_2016":"North West"},{"postcode":"3496","lat":-34.287804,"long":142.144177,"state":"VIC","localities":["CARDROSS"],"SA4_NAME_2016":"North West"},{"postcode":"3496","lat":-34.277724,"long":141.592628,"state":"VIC","localities":["CULLULLERAINE"],"SA4_NAME_2016":"North West"},{"postcode":"3496","lat":-34.089735,"long":141.596797,"state":"VIC","localities":["LINDSAY POINT"],"SA4_NAME_2016":"North West"},{"postcode":"3496","lat":-34.389148,"long":141.334798,"state":"VIC","localities":["MERINGUR"],"SA4_NAME_2016":"North West"},{"postcode":"3496","lat":-34.370179,"long":141.801957,"state":"VIC","localities":["MERRINEE"],"SA4_NAME_2016":"North West"},{"postcode":"3496","lat":-34.192418,"long":141.597936,"state":"VIC","localities":["MURRAY LOCK NO 9"],"SA4_NAME_2016":"North West"},{"postcode":"3496","lat":-34.130253,"long":141.326064,"state":"VIC","localities":["NEDS CORNER"],"SA4_NAME_2016":"North West"},{"postcode":"3496","lat":-34.307094,"long":142.187995,"state":"VIC","localities":["RED CLIFFS"],"SA4_NAME_2016":"North West"},{"postcode":"3496","lat":-34.286644,"long":142.186246,"state":"VIC","localities":["SUNNYCLIFFS"],"SA4_NAME_2016":"North West"},{"postcode":"3496","lat":-34.386949,"long":141.388479,"state":"VIC","localities":["WERRIMULL"],"SA4_NAME_2016":"North West"},{"postcode":"3498","lat":-34.238385,"long":142.172516,"state":"VIC","localities":["IRYMPLE"],"SA4_NAME_2016":"North West"},{"postcode":"3500","lat":-34.1931,"long":142.154161,"state":"VIC","localities":["MILDURA","MILDURA EAST","MILDURA WEST","PARINGI"],"SA4_NAME_2016":"North West"},{"postcode":"3501","lat":-34.243279,"long":142.100896,"state":"VIC","localities":["HATTAH","KOORLONG","MILDURA CENTRE PLAZA","MILDURA SOUTH","NICHOLS POINT"],"SA4_NAME_2016":"North West"},{"postcode":"3505","lat":-34.180532,"long":142.004192,"state":"VIC","localities":["BIRDWOODTON","CABARITA","MERBEIN","MERBEIN SOUTH","MERBEIN WEST","WARGAN","YELTA"],"SA4_NAME_2016":"North West"},{"postcode":"3506","lat":-35.204199,"long":141.385876,"state":"VIC","localities":["COWANGIE"],"SA4_NAME_2016":"North West"},{"postcode":"3507","lat":-35.120596,"long":142.035659,"state":"VIC","localities":["WALPEUP"],"SA4_NAME_2016":"North West"},{"postcode":"3509","lat":-35.155031,"long":141.680385,"state":"VIC","localities":["LINGA","UNDERBOOL"],"SA4_NAME_2016":"North West"},{"postcode":"3512","lat":-35.39199,"long":141.121226,"state":"VIC","localities":["CARINA","MURRAYVILLE"],"SA4_NAME_2016":"North West"},{"postcode":"3512","lat":-35.12099315,"long":141.0200955,"state":"VIC","localities":["PANITYA"],"SA4_NAME_2016":"North West"},{"postcode":"3515","lat":-36.729444,"long":144.062915,"state":"VIC","localities":["MARONG","WILSONS HILL"],"SA4_NAME_2016":"Bendigo"},{"postcode":"3515","lat":-36.84708994,"long":144.0636842,"state":"VIC","localities":["SHELBOURNE"],"SA4_NAME_2016":"Bendigo"},{"postcode":"3516","lat":-36.607616,"long":144.041722,"state":"VIC","localities":["BRIDGEWATER","BRIDGEWATER NORTH","BRIDGEWATER ON LODDON","DERBY","LEICHARDT","YARRABERB"],"SA4_NAME_2016":"Bendigo"},{"postcode":"3517","lat":-36.483116,"long":143.886832,"state":"VIC","localities":["BEARS LAGOON","BRENANAH","BULLABUL","GLENALBYN","INGLEWOOD","JARKLIN","KINGOWER","KURTING","POWLETT PLAINS","RHEOLA","SALISBURY WEST","SERPENTINE"],"SA4_NAME_2016":"Bendigo"},{"postcode":"3518","lat":-36.474937,"long":143.586215,"state":"VIC","localities":["BERRIMAL","BORUNG","FENTONS CREEK","FERNIHURST","FIERY FLAT","KURRACA","KURRACA WEST","MYSIA","NINE MILE","RICHMOND PLAINS","SKINNERS FLAT","WEDDERBURN","WEDDERBURN JUNCTION","WEHLA","WOOLSHED FLAT","WOOSANG"],"SA4_NAME_2016":"Bendigo"},{"postcode":"3520","lat":-36.405771,"long":143.810786,"state":"VIC","localities":["KINYPANIAL","KORONG VALE","SOUTH KINYPANIAL"],"SA4_NAME_2016":"Bendigo"},{"postcode":"3521","lat":-37.090071,"long":144.912693,"state":"VIC","localities":["PYALONG"],"SA4_NAME_2016":"Hume"},{"postcode":"3522","lat":-37.050037,"long":144.747197,"state":"VIC","localities":["EMU FLAT","TOOBORAC"],"SA4_NAME_2016":"Hume"},{"postcode":"3522","lat":-37.07349322,"long":144.7011112,"state":"VIC","localities":["GLENHOPE EAST"],"SA4_NAME_2016":"Hume"},{"postcode":"3523","lat":-36.837461,"long":144.768359,"state":"VIC","localities":["ARGYLE","COSTERFIELD","DERRINAL","HEATHCOTE","HEATHCOTE SOUTH","KNOWSLEY","LADYS PASS","MOORMBOOL WEST","MOUNT CAMEL","REDCASTLE"],"SA4_NAME_2016":"Bendigo"},{"postcode":"3525","lat":-36.2835,"long":143.364316,"state":"VIC","localities":["BARRAKEE","BUCKRABANYULE","CHARLTON","JEFFCOTT","JEFFCOTT NORTH","LAKE MARMAL","NAREEWILLOCK","TEDDYWADDY","TEDDYWADDY WEST","TERRAPPEE","WOOROONOOK","WYCHITELLA","WYCHITELLA NORTH","YEUNGROON","YEUNGROON EAST"],"SA4_NAME_2016":"North West"},{"postcode":"3525","lat":-36.16805671,"long":143.1280301,"state":"VIC","localities":["CHIRRIP"],"SA4_NAME_2016":"North West"},{"postcode":"3525","lat":-36.21412082,"long":143.1316318,"state":"VIC","localities":["GRANITE FLAT"],"SA4_NAME_2016":"North West"},{"postcode":"3527","lat":-36.07096,"long":143.241334,"state":"VIC","localities":["BUNGULUKE","DUMOSA","GLENLOTH","GLENLOTH EAST","THALIA","TOWANINNY","TOWANINNY SOUTH","WYCHEPROOF","WYCHEPROOF SOUTH"],"SA4_NAME_2016":"North West"},{"postcode":"3527","lat":-36.00182588,"long":143.4513232,"state":"VIC","localities":["JERUK"],"SA4_NAME_2016":"North West"},{"postcode":"3527","lat":-35.95739202,"long":143.4213318,"state":"VIC","localities":["NINYEUNOOK"],"SA4_NAME_2016":"North West"},{"postcode":"3527","lat":-36.19508429,"long":143.3240251,"state":"VIC","localities":["TEDDYWADDY"],"SA4_NAME_2016":"North West"},{"postcode":"3527","lat":-36.19667451,"long":143.2226665,"state":"VIC","localities":["TEDDYWADDY WEST"],"SA4_NAME_2016":"North West"},{"postcode":"3529","lat":-35.824259,"long":143.232677,"state":"VIC","localities":["KALPIENUNG","NULLAWIL"],"SA4_NAME_2016":"North West"},{"postcode":"3530","lat":-35.701439,"long":143.152747,"state":"VIC","localities":["CULGOA","WARNE"],"SA4_NAME_2016":"North West"},{"postcode":"3530","lat":-35.73285433,"long":142.9735632,"state":"VIC","localities":["SUTTON"],"SA4_NAME_2016":"North West"},{"postcode":"3530","lat":-35.691824,"long":143.2608071,"state":"VIC","localities":["WANGIE"],"SA4_NAME_2016":"North West"},{"postcode":"3531","lat":-35.616408,"long":142.943814,"state":"VIC","localities":["BERRIWILLOCK","BOIGBEAT","SPRINGFIELD"],"SA4_NAME_2016":"North West"},{"postcode":"3533","lat":-35.384557,"long":142.839304,"state":"VIC","localities":["BIMBOURIE","LAKE TYRRELL","MITTYACK","NANDALY","NINDA","NYARRIN","SEA LAKE","TYRRELL","TYRRELL DOWNS"],"SA4_NAME_2016":"North West"},{"postcode":"3533","lat":-35.53651946,"long":142.7557043,"state":"VIC","localities":["MYALL"],"SA4_NAME_2016":"North West"},{"postcode":"3533","lat":-35.23730832,"long":142.6920283,"state":"VIC","localities":["PIER MILAN"],"SA4_NAME_2016":"North West"},{"postcode":"3533","lat":-35.37975184,"long":142.5763552,"state":"VIC","localities":["STRATEN"],"SA4_NAME_2016":"North West"},{"postcode":"3533","lat":-35.32433058,"long":142.5758665,"state":"VIC","localities":["TYENNA"],"SA4_NAME_2016":"North West"},{"postcode":"3537","lat":-36.079335,"long":143.744455,"state":"VIC","localities":["BARRAPORT","BARRAPORT WEST","BOORT","CANARY ISLAND","CATUMNAL","GREDGWIN","LEAGHUR","MINMINDIE","YANDO"],"SA4_NAME_2016":"Bendigo"},{"postcode":"3540","lat":-35.89277,"long":143.45008,"state":"VIC","localities":["CANNIE","NINYEUNOOK","OAKVALE","QUAMBATOOK"],"SA4_NAME_2016":"North West"},{"postcode":"3542","lat":-35.700788,"long":143.406398,"state":"VIC","localities":["COKUM","LALBERT","TITYBONG"],"SA4_NAME_2016":"North West"},{"postcode":"3542","lat":-35.75270861,"long":143.363426,"state":"VIC","localities":["TITTYBONG"],"SA4_NAME_2016":"North West"},{"postcode":"3544","lat":-35.51717216,"long":143.1754083,"state":"VIC","localities":["CHINANGIN"],"SA4_NAME_2016":"North West"},{"postcode":"3544","lat":-35.487989,"long":143.14445,"state":"VIC","localities":["GOWANFORD","ULTIMA","WAITCHIE"],"SA4_NAME_2016":"North West"},{"postcode":"3544","lat":-35.61436535,"long":143.2411218,"state":"VIC","localities":["MURNUNGIN"],"SA4_NAME_2016":"North West"},{"postcode":"3544","lat":-35.57476437,"long":143.1143327,"state":"VIC","localities":["SPRINGFIELD"],"SA4_NAME_2016":"North West"},{"postcode":"3544","lat":-35.43230862,"long":143.3741381,"state":"VIC","localities":["ULTIMA EAST"],"SA4_NAME_2016":"North West"},{"postcode":"3546","lat":-35.060163,"long":142.850456,"state":"VIC","localities":["BOLTON","CHINKAPOOK","COCAMBA","MANANGATANG","TUROAR","WINNAMBOOL"],"SA4_NAME_2016":"North West"},{"postcode":"3546","lat":-35.17251379,"long":142.79978,"state":"VIC","localities":["GERAHMIN"],"SA4_NAME_2016":"North West"},{"postcode":"3549","lat":-34.766049,"long":142.820973,"state":"VIC","localities":["ANNUELLO","BANNERTON","HAPPY VALLEY","LIPAROO","ROBINVALE","TOL TOL","WEMEN"],"SA4_NAME_2016":"North West"},{"postcode":"3549","lat":-34.612077,"long":142.789595,"state":"VIC","localities":["ROBINVALE IRRIGATION DISTRICT SECTION B"],"SA4_NAME_2016":"North West"},{"postcode":"3549","lat":-34.626246,"long":142.730687,"state":"VIC","localities":["ROBINVALE IRRIGATION DISTRICT SECTION C"],"SA4_NAME_2016":"North West"},{"postcode":"3549","lat":-34.636393,"long":142.75566,"state":"VIC","localities":["ROBINVALE IRRIGATION DISTRICT SECTION D"],"SA4_NAME_2016":"North West"},{"postcode":"3549","lat":-34.664554,"long":142.759585,"state":"VIC","localities":["ROBINVALE IRRIGATION DISTRICT SECTION E"],"SA4_NAME_2016":"North West"},{"postcode":"3549","lat":-34.82232378,"long":142.9427595,"state":"VIC","localities":["WANDOWN"],"SA4_NAME_2016":"North West"},{"postcode":"3550","lat":-36.764269,"long":144.285267,"state":"VIC","localities":["BENDIGO","BENDIGO SOUTH","DIAMOND HILL","EAST BENDIGO","FLORA HILL","IRONBARK","KENNINGTON","LONG GULLY","NORTH BENDIGO","QUARRY HILL","SANDHURST EAST","SPRING GULLY","STRATHDALE","TYSONS REEF","WEST BENDIGO","WHITE HILLS"],"SA4_NAME_2016":"Bendigo"},{"postcode":"3551","lat":-36.78137,"long":144.457937,"state":"VIC","localities":["ARNOLD","ARNOLD WEST","ASCOT","AXE CREEK","AXEDALE","BAGSHOT","BAGSHOT NORTH","BENDIGO FORWARD","CORNELLA","EMU CREEK","EPPALOCK","EPSOM","HUNTLY","HUNTLY NORTH","JUNORTOUN","KIMBOLTON","LLANELLY","LOCKWOOD","LOCKWOOD SOUTH","LONGLEA","MAIDEN GULLY","MANDURANG","MANDURANG SOUTH","MINTO","MOSQUITO CREEK","MURPHYS CREEK","MYOLA","MYOLA EAST","NEWBRIDGE","PAINSWICK","PILCHERS BRIDGE","SEDGWICK","STRATHFIELDSAYE","TARNAGULLA","TOOLLEEN","WAANYARRA","WELLSFORD","WOODSTOCK ON LODDON"],"SA4_NAME_2016":"Bendigo"},{"postcode":"3551","lat":-36.59845103,"long":144.6456354,"state":"VIC","localities":["CREEK VIEW"],"SA4_NAME_2016":"Bendigo"},{"postcode":"3551","lat":-36.88282226,"long":144.5982185,"state":"VIC","localities":["LAKE EPPALOCK"],"SA4_NAME_2016":"Bendigo"},{"postcode":"3551","lat":-36.93636806,"long":144.4059296,"state":"VIC","localities":["MYRTLE CREEK"],"SA4_NAME_2016":"Bendigo"},{"postcode":"3554","lat":-36.757,"long":144.279,"state":"VIC","localities":["BENDIGO DC"],"SA4_NAME_2016":"Bendigo"},{"postcode":"3555","lat":-36.777226,"long":144.245239,"state":"VIC","localities":["BIG HILL","GOLDEN GULLY","GOLDEN SQUARE","KANGAROO FLAT","LANSELL PLAZA","SPECIMEN HILL"],"SA4_NAME_2016":"Bendigo"},{"postcode":"3556","lat":-36.656422,"long":144.178282,"state":"VIC","localities":["CALIFORNIA GULLY","CAMPBELLS FOREST","COMET HILL","EAGLEHAWK","EAGLEHAWK NORTH","JACKASS FLAT","MYERS FLAT","SAILORS GULLY","SEBASTIAN","WHIPSTICK","WOODVALE"],"SA4_NAME_2016":"Bendigo"},{"postcode":"3557","lat":-36.63511,"long":144.576787,"state":"VIC","localities":["BARNADOWN","FOSTERVILLE","GOORNONG","MUSKERRY","MUSKERRY EAST"],"SA4_NAME_2016":"Bendigo"},{"postcode":"3558","lat":-36.51553,"long":144.638363,"state":"VIC","localities":["BURNEWANG","COROP WEST","CREEK VIEW","ELMORE","HUNTER"],"SA4_NAME_2016":"Shepparton"},{"postcode":"3558","lat":-36.54452949,"long":144.6702395,"state":"VIC","localities":["RUNNYMEDE"],"SA4_NAME_2016":"Shepparton"},{"postcode":"3559","lat":-36.570077,"long":144.805307,"state":"VIC","localities":["AVONMORE","COLBINABBIN","COROP","LYNDALE","MAYREEF","RUNNYMEDE"],"SA4_NAME_2016":"Bendigo"},{"postcode":"3559","lat":-36.53002718,"long":144.8317218,"state":"VIC","localities":["BURRAMBOOT"],"SA4_NAME_2016":"Shepparton"},{"postcode":"3559","lat":-36.67769551,"long":144.8712631,"state":"VIC","localities":["GOBARUP"],"SA4_NAME_2016":"Shepparton"},{"postcode":"3561","lat":-36.321109,"long":144.709543,"state":"VIC","localities":["BALLENDELLA","BAMAWM","BAMAWM EXTENSION","DIGGORA","DIGGORA WEST","FAIRY DELL","NANNEELLA","ROCHESTER","ROCHESTER WEST","THE SETTLEMENT","TIMMERING"],"SA4_NAME_2016":"Shepparton"},{"postcode":"3561","lat":-36.40526528,"long":144.7181934,"state":"VIC","localities":["BONN"],"SA4_NAME_2016":"Shepparton"},{"postcode":"3562","lat":-36.062544,"long":144.46276,"state":"VIC","localities":["TORRUMBARRY"],"SA4_NAME_2016":"Shepparton"},{"postcode":"3563","lat":-36.256251,"long":144.515589,"state":"VIC","localities":["LOCKINGTON"],"SA4_NAME_2016":"Shepparton"},{"postcode":"3564","lat":-36.18096611,"long":144.6014151,"state":"VIC","localities":["BAMAWM EXTENSION"],"SA4_NAME_2016":"Shepparton"},{"postcode":"3564","lat":-36.168997,"long":144.728806,"state":"VIC","localities":["CAMPASPE WEST","ECHUCA","ECHUCA EAST","ECHUCA SOUTH","ECHUCA VILLAGE","ECHUCA WEST","KANYAPELLA","MCEVOYS","PATHO","PATHO WEST","ROSLYNMEAD","SIMMIE","WHARPARILLA"],"SA4_NAME_2016":"Shepparton"},{"postcode":"3565","lat":-36.182336,"long":144.511713,"state":"VIC","localities":["KOTTA"],"SA4_NAME_2016":"Shepparton"},{"postcode":"3566","lat":-35.945748,"long":144.383334,"state":"VIC","localities":["GUNBOWER"],"SA4_NAME_2016":"Shepparton"},{"postcode":"3567","lat":-35.931669,"long":144.262942,"state":"VIC","localities":["HORFIELD","LEITCHVILLE"],"SA4_NAME_2016":"North West"},{"postcode":"3568","lat":-35.809462,"long":144.184089,"state":"VIC","localities":["BURKES BRIDGE","COHUNA","CULLEN","DALTONS BRIDGE","GANNAWARRA","KEELY","MACORNA NORTH","MCMILLANS","MEAD","MINCHA WEST","WEE WEE RUP"],"SA4_NAME_2016":"North West"},{"postcode":"3570","lat":-36.515303,"long":144.28053,"state":"VIC","localities":["AUCHMORE","DRUMMARTIN","KAMAROOKA","NEILBOROUGH","RAYWOOD","SUMMERFIELD"],"SA4_NAME_2016":"Bendigo"},{"postcode":"3571","lat":-36.36819,"long":144.206865,"state":"VIC","localities":["DINGEE","KAMAROOKA NORTH","POMPAPIEL","TANDARRA","YALLOOK"],"SA4_NAME_2016":"Bendigo"},{"postcode":"3572","lat":-36.266642,"long":144.257135,"state":"VIC","localities":["MILLOO","PIAVELLA","PRAIRIE","TENNYSON"],"SA4_NAME_2016":"Shepparton"},{"postcode":"3573","lat":-36.164865,"long":144.297958,"state":"VIC","localities":["CALIVIL","MITIAMO","PINE GROVE","PINE GROVE EAST","TERRICK TERRICK EAST"],"SA4_NAME_2016":"Bendigo"},{"postcode":"3575","lat":-36.055725,"long":144.159028,"state":"VIC","localities":["BALD ROCK","GLADFIELD","JUNGABURRA","LODDON VALE","MINCHA","MOLOGA","PYRAMID HILL","SYLVATERRE","TERRICK TERRICK","YARRAWALLA"],"SA4_NAME_2016":"Bendigo"},{"postcode":"3576","lat":-36.128029,"long":143.917515,"state":"VIC","localities":["DURHAM OX"],"SA4_NAME_2016":"Bendigo"},{"postcode":"3579","lat":-35.767974,"long":143.769445,"state":"VIC","localities":["APPIN","APPIN SOUTH","BAEL BAEL","BENJEROOP","BUDGERUM EAST","CAPELS CROSSING","DINGWALL","EAST YEOBURN","FAIRLEY","GONN CROSSING","KERANG","KERANG EAST","KOROOP","LAKE MERAN","MACORNA","MEERING WEST","MILNES BRIDGE","MURRABIT","MURRABIT WEST","MYALL","MYSTIC PARK","NORMANVILLE","PINE VIEW","REEDY LAKE","SANDHILL LAKE","TEAL POINT","TRAGOWEL","WANDELLA","WESTBY"],"SA4_NAME_2016":"North West"},{"postcode":"3579","lat":-35.62576908,"long":143.6250386,"state":"VIC","localities":["BEAUCHAMP"],"SA4_NAME_2016":"North West"},{"postcode":"3580","lat":-35.639761,"long":144.094672,"state":"VIC","localities":["KOONDROOK"],"SA4_NAME_2016":"North West"},{"postcode":"3581","lat":-35.628333,"long":143.78521,"state":"VIC","localities":["BEAUCHAMP","LAKE CHARM"],"SA4_NAME_2016":"North West"},{"postcode":"3583","lat":-35.509635,"long":143.66458,"state":"VIC","localities":["TRESCO"],"SA4_NAME_2016":"North West"},{"postcode":"3584","lat":-35.431026,"long":143.637617,"state":"VIC","localities":["LAKE BOGA","TRESCO WEST"],"SA4_NAME_2016":"North West"},{"postcode":"3585","lat":-35.348388,"long":143.336906,"state":"VIC","localities":["CASTLE DONNINGTON","CHILLINGOLLAH","FISH POINT","GOSCHEN","KUNAT","MEATIAN","MURRAY DOWNS","NOWIE","NYRRABY","PIRA","SPEEWA","SWAN HILL","SWAN HILL PIONEER","WINLATON"],"SA4_NAME_2016":"North West"},{"postcode":"3585","lat":-35.27926115,"long":143.1473395,"state":"VIC","localities":["POLISBET"],"SA4_NAME_2016":"North West"},{"postcode":"3585","lat":-35.35616986,"long":143.3980395,"state":"VIC","localities":["SWAN HILL WEST"],"SA4_NAME_2016":"North West"},{"postcode":"3586","lat":-35.114021,"long":143.792594,"state":"VIC","localities":["BULGA","MALLAN","MURRAWEE","MURRAYDALE","PENTAL ISLAND","TYNTYNDER","TYNTYNDER SOUTH","ULTIMA EAST"],"SA4_NAME_2016":"North West"},{"postcode":"3588","lat":-35.29429,"long":143.470325,"state":"VIC","localities":["WOORINEN SOUTH"],"SA4_NAME_2016":"North West"},{"postcode":"3589","lat":-35.228436,"long":143.441248,"state":"VIC","localities":["WOORINEN","WOORINEN NORTH"],"SA4_NAME_2016":"North West"},{"postcode":"3590","lat":-35.235708,"long":143.493525,"state":"VIC","localities":["BEVERFORD"],"SA4_NAME_2016":"North West"},{"postcode":"3591","lat":-35.202209,"long":143.394092,"state":"VIC","localities":["VINIFERA"],"SA4_NAME_2016":"North West"},{"postcode":"3594","lat":-35.138155,"long":143.346028,"state":"VIC","localities":["NYAH"],"SA4_NAME_2016":"North West"},{"postcode":"3595","lat":-35.202752,"long":143.351682,"state":"VIC","localities":["NYAH WEST"],"SA4_NAME_2016":"North West"},{"postcode":"3596","lat":-35.123806,"long":143.327682,"state":"VIC","localities":["MIRALIE","TOWAN","WOOD WOOD"],"SA4_NAME_2016":"North West"},{"postcode":"3597","lat":-34.965359,"long":143.189786,"state":"VIC","localities":["KENLEY","KOOLOONONG","LAKE POWELL","NARRUNG","NATYA","PIANGIL"],"SA4_NAME_2016":"North West"},{"postcode":"3599","lat":-34.729742,"long":143.143231,"state":"VIC","localities":["BOUNDARY BEND"],"SA4_NAME_2016":"North West"},{"postcode":"3607","lat":-36.839707,"long":145.179762,"state":"VIC","localities":["TABILK"],"SA4_NAME_2016":"Hume"},{"postcode":"3608","lat":-36.740713,"long":145.095753,"state":"VIC","localities":["BAILIESTON","GOULBURN WEIR","GRAYTOWN","KIRWANS BRIDGE","MITCHELLSTOWN","NAGAMBIE","WAHRING","WIRRATE"],"SA4_NAME_2016":"Hume"},{"postcode":"3610","lat":-36.577628,"long":145.229349,"state":"VIC","localities":["DHURRINGILE","MOORILIM","MURCHISON","MURCHISON EAST","MURCHISON NORTH"],"SA4_NAME_2016":"Shepparton"},{"postcode":"3612","lat":-36.575936,"long":145.019312,"state":"VIC","localities":["MOORA","RUSHWORTH","WANALTA","WARANGA","WHROO"],"SA4_NAME_2016":"Shepparton"},{"postcode":"3612","lat":-36.54807055,"long":145.0911963,"state":"VIC","localities":["WARANGA SHORES"],"SA4_NAME_2016":"Shepparton"},{"postcode":"3614","lat":-36.479193,"long":145.30098,"state":"VIC","localities":["TOOLAMBA"],"SA4_NAME_2016":"Shepparton"},{"postcode":"3614","lat":-36.48360219,"long":145.2688853,"state":"VIC","localities":["TOOLAMBA WEST"],"SA4_NAME_2016":"Shepparton"},{"postcode":"3616","lat":-36.464118,"long":145.145217,"state":"VIC","localities":["COOMA","GILLIESTON","GIRGARRE EAST","HARSTON","MOOROOPNA NORTH WEST","TATURA","TATURA EAST","TOOLAMBA WEST"],"SA4_NAME_2016":"Shepparton"},{"postcode":"3616","lat":-36.49176389,"long":145.068314,"state":"VIC","localities":["WARANGA"],"SA4_NAME_2016":"Shepparton"},{"postcode":"3617","lat":-36.423823,"long":145.178369,"state":"VIC","localities":["BYRNESIDE"],"SA4_NAME_2016":"Shepparton"},{"postcode":"3618","lat":-36.37708,"long":145.125014,"state":"VIC","localities":["MERRIGUM"],"SA4_NAME_2016":"Shepparton"},{"postcode":"3620","lat":-36.284584,"long":145.082735,"state":"VIC","localities":["KYABRAM","LANCASTER","MOUNT SCOBIE","ST GERMAINS","TARIPTA","WYUNA","WYUNA EAST"],"SA4_NAME_2016":"Shepparton"},{"postcode":"3620","lat":-36.38493145,"long":145.0857804,"state":"VIC","localities":["KYABRAM SOUTH"],"SA4_NAME_2016":"Shepparton"},{"postcode":"3621","lat":-36.206055,"long":144.961183,"state":"VIC","localities":["KOYUGA SOUTH","KY VALLEY","KY WEST","TONGALA","YAMBUNA"],"SA4_NAME_2016":"Shepparton"},{"postcode":"3621","lat":-36.28071633,"long":145.0055758,"state":"VIC","localities":["KYVALLEY"],"SA4_NAME_2016":"Shepparton"},{"postcode":"3622","lat":-36.231961,"long":144.87573,"state":"VIC","localities":["CORNELIA CREEK","KOYUGA","STRATHALLAN"],"SA4_NAME_2016":"Shepparton"},{"postcode":"3623","lat":-36.461381,"long":144.976813,"state":"VIC","localities":["CARAG CARAG","STANHOPE","STANHOPE SOUTH"],"SA4_NAME_2016":"Shepparton"},{"postcode":"3624","lat":-36.410186,"long":144.965763,"state":"VIC","localities":["GIRGARRE"],"SA4_NAME_2016":"Shepparton"},{"postcode":"3629","lat":-36.287306,"long":145.260653,"state":"VIC","localities":["ARDMONA","COOMBOONA","MOOROOPNA","MOOROOPNA NORTH","UNDERA"],"SA4_NAME_2016":"Shepparton"},{"postcode":"3630","lat":-36.380853,"long":145.403176,"state":"VIC","localities":["BENARCH","BRANDITT","CANIAMBO","COLLIVER","DUNKIRK","SHEPPARTON","SHEPPARTON SOUTH"],"SA4_NAME_2016":"Shepparton"},{"postcode":"3631","lat":-36.428694,"long":145.526693,"state":"VIC","localities":["ARCADIA","ARCADIA SOUTH","COSGROVE","COSGROVE SOUTH","GRAHAMVALE","KARRAMOMUS","KIALLA","KIALLA EAST","KIALLA WEST","LEMNOS","ORRVALE","PINE LODGE","SHEPPARTON EAST","SHEPPARTON NORTH","TAMLEUGH WEST"],"SA4_NAME_2016":"Shepparton"},{"postcode":"3633","lat":-36.307936,"long":145.46296,"state":"VIC","localities":["CONGUPNA"],"SA4_NAME_2016":"Shepparton"},{"postcode":"3634","lat":-36.224186,"long":145.440315,"state":"VIC","localities":["BUNBARTHA","INVERGORDON SOUTH","KATANDRA","KATANDRA WEST","MARIONVALE","MARUNGI","TALLYGAROOPNA","ZEERUST"],"SA4_NAME_2016":"Shepparton"},{"postcode":"3635","lat":-36.142596,"long":145.30827,"state":"VIC","localities":["KAARIMBA","MUNDOONA","WUNGHNU"],"SA4_NAME_2016":"Shepparton"},{"postcode":"3636","lat":-36.093878,"long":145.479471,"state":"VIC","localities":["DRUMANURE","INVERGORDON","NARING","NUMURKAH"],"SA4_NAME_2016":"Shepparton"},{"postcode":"3637","lat":-36.050686,"long":145.329026,"state":"VIC","localities":["WAAIA","YALCA"],"SA4_NAME_2016":"Shepparton"},{"postcode":"3638","lat":-36.03202,"long":145.246572,"state":"VIC","localities":["KOTUPNA","NATHALIA","YIELIMA"],"SA4_NAME_2016":"Shepparton"},{"postcode":"3639","lat":-36.021295,"long":145.047253,"state":"VIC","localities":["BARMAH","LOWER MOIRA","PICOLA","PICOLA WEST"],"SA4_NAME_2016":"Shepparton"},{"postcode":"3640","lat":-36.00978,"long":145.486015,"state":"VIC","localities":["KATUNGA"],"SA4_NAME_2016":"Shepparton"},{"postcode":"3641","lat":-35.89718,"long":145.428306,"state":"VIC","localities":["BEARII","MYWEE","STRATHMERTON","ULUPNA"],"SA4_NAME_2016":"Shepparton"},{"postcode":"3646","lat":-36.247446,"long":145.704042,"state":"VIC","localities":["DOOKIE","MOUNT MAJOR","NALINGA","WATTVILLE","YABBA NORTH","YABBA SOUTH","YOUANMITE"],"SA4_NAME_2016":"Shepparton"},{"postcode":"3646","lat":-36.24491655,"long":145.7669016,"state":"VIC","localities":["WAGGARANDALL"],"SA4_NAME_2016":"Shepparton"},{"postcode":"3649","lat":-36.082665,"long":145.688671,"state":"VIC","localities":["KATAMATITE","KATAMATITE EAST"],"SA4_NAME_2016":"Shepparton"},{"postcode":"3658","lat":-37.241401,"long":145.111854,"state":"VIC","localities":["BROADFORD","CLONBINANE","FLOWERDALE","HAZELDENE","REEDY CREEK","STRATH CREEK","SUNDAY CREEK","TYAAK","WATERFORD PARK"],"SA4_NAME_2016":"Hume"},{"postcode":"3658","lat":-37.12839823,"long":145.0277018,"state":"VIC","localities":["SUGARLOAF CREEK"],"SA4_NAME_2016":"Hume"},{"postcode":"3659","lat":-37.110344,"long":145.07088,"state":"VIC","localities":["SUGARLOAF CREEK","TALLAROOK"],"SA4_NAME_2016":"Hume"},{"postcode":"3660","lat":-37.035925,"long":145.257867,"state":"VIC","localities":["CAVEAT","DROPMORE","DYSART","HIGHLANDS","KERRISDALE","KOBYBOYN","NORTHWOOD","SEYMOUR","SEYMOUR SOUTH","TRAWOOL","WHITEHEADS CREEK"],"SA4_NAME_2016":"Hume"},{"postcode":"3660","lat":-37.03704373,"long":145.0457777,"state":"VIC","localities":["HILLDENE"],"SA4_NAME_2016":"Hume"},{"postcode":"3662","lat":-36.9356483,"long":144.9486555,"state":"VIC","localities":["PUCKAPUNYAL"],"SA4_NAME_2016":"Hume"},{"postcode":"3662","lat":-36.939204,"long":144.960214,"state":"VIC","localities":["PUCKAPUNYAL MILPO"],"SA4_NAME_2016":"Hume"},{"postcode":"3663","lat":-36.910878,"long":145.158863,"state":"VIC","localities":["MANGALORE"],"SA4_NAME_2016":"Hume"},{"postcode":"3664","lat":-36.927251,"long":145.298203,"state":"VIC","localities":["AVENEL"],"SA4_NAME_2016":"Hume"},{"postcode":"3664","lat":-36.89547953,"long":145.4034627,"state":"VIC","localities":["UPTON HILL"],"SA4_NAME_2016":"Hume"},{"postcode":"3665","lat":-36.844091,"long":145.357627,"state":"VIC","localities":["LOCKSLEY","LONGWOOD","PRANJIP"],"SA4_NAME_2016":"Hume"},{"postcode":"3666","lat":-36.786777,"long":145.565512,"state":"VIC","localities":["BALMATTUM","CREIGHTON","CREIGHTONS CREEK","EUROA","GOORAM","KELVIN VIEW","KITHBROOK","MIEPOLL","MOGLONEMBY","MOLKA","RIGGS CREEK","RUFFY","SHEANS CREEK","STRATHBOGIE","TARCOMBE"],"SA4_NAME_2016":"Hume"},{"postcode":"3666","lat":-36.8382328,"long":145.4559546,"state":"VIC","localities":["LONGWOOD EAST"],"SA4_NAME_2016":"Hume"},{"postcode":"3666","lat":-36.73207618,"long":145.3825696,"state":"VIC","localities":["PRANJIP"],"SA4_NAME_2016":"Hume"},{"postcode":"3669","lat":-36.625333,"long":145.708668,"state":"VIC","localities":["BOHO","BOHO SOUTH","CREEK JUNCTION","EARLSTON","GOWANGARDIE","KOONDA","MARRAWEENEY","TAMLEUGH","TAMLEUGH NORTH","VIOLET TOWN"],"SA4_NAME_2016":"Hume"},{"postcode":"3669","lat":-36.49668169,"long":145.8003272,"state":"VIC","localities":["UPOTIPOTPON"],"SA4_NAME_2016":"Hume"},{"postcode":"3670","lat":-36.623748,"long":145.852449,"state":"VIC","localities":["BADDAGINNIE","TARNOOK","WARRENBAYNE"],"SA4_NAME_2016":"Hume"},{"postcode":"3672","lat":-36.554936,"long":145.977761,"state":"VIC","localities":["BENALLA","BENALLA WEST"],"SA4_NAME_2016":"Hume"},{"postcode":"3673","lat":-36.669929,"long":146.062514,"state":"VIC","localities":["BENALLA","BROKEN CREEK","GOOMALIBEE","KILFEERA","LAKE MOKOAN","LIMA","LIMA EAST","LIMA SOUTH","LURG","MOLYULLAH","MOORNGAG","SAMARIA","SWANPOOL","TATONG","UPOTIPOTPON","UPPER LURG","UPPER RYANS CREEK","WINTON","WINTON NORTH"],"SA4_NAME_2016":"Hume"},{"postcode":"3675","lat":-36.565078,"long":146.266835,"state":"VIC","localities":["BOWEYA","BOWEYA NORTH","GLENROWAN","GLENROWAN WEST","GRETA","GRETA SOUTH","GRETA WEST","HANSONVILLE","MOUNT BRUNO","TAMINICK"],"SA4_NAME_2016":"Shepparton"},{"postcode":"3677","lat":-36.358017,"long":146.330564,"state":"VIC","localities":["APPIN PARK","WANGARATTA","WANGARATTA WEST","YARRUNGA"],"SA4_NAME_2016":"Hume"},{"postcode":"3678","lat":-36.68892,"long":146.482439,"state":"VIC","localities":["BOBINAWARRAH","BOORHAMAN","BOORHAMAN EAST","BOWSER","BYAWATHA","CARBOOR","CHESHUNT","CHESHUNT SOUTH","DOCKER","DOCKERS PLAINS","EAST WANGARATTA","EDI","EDI UPPER","EVERTON","EVERTON UPPER","KILLAWARRA","KING VALLEY","LACEBY","LONDRIGAN","MARKWOOD","MEADOW CREEK","MILAWA","NORTH WANGARATTA","OXLEY","OXLEY FLATS","PEECHELBA","PEECHELBA EAST","ROSE RIVER","TARRAWINGEE","WABONGA","WALDARA","WANGANDARY","WANGARATTA FORWARD","WANGARATTA SOUTH","WHITLANDS"],"SA4_NAME_2016":"Hume"},{"postcode":"3682","lat":-36.174271,"long":146.428656,"state":"VIC","localities":["BORALMA","LILLIPUT","NORONG","SPRINGHURST"],"SA4_NAME_2016":"Hume"},{"postcode":"3683","lat":-36.180787,"long":146.604622,"state":"VIC","localities":["CHILTERN","CHILTERN VALLEY","CORNISHTOWN","INDIGO"],"SA4_NAME_2016":"Hume"},{"postcode":"3685","lat":-36.056449,"long":146.470638,"state":"VIC","localities":["BOORHAMAN NORTH","BRIMIN","BROWNS PLAINS","DUGAYS BRIDGE","GOORAMADDA","GREAT SOUTHERN","LAKE MOODEMERE","NORONG CENTRAL","PRENTICE NORTH","RUTHERGLEN"],"SA4_NAME_2016":"Hume"},{"postcode":"3685","lat":-36.00913619,"long":146.4848179,"state":"VIC","localities":["CARLYLE"],"SA4_NAME_2016":"Hume"},{"postcode":"3687","lat":-36.018771,"long":146.415927,"state":"VIC","localities":["CARLYLE","WAHGUNYAH"],"SA4_NAME_2016":"Hume"},{"postcode":"3688","lat":-36.119195,"long":146.717193,"state":"VIC","localities":["BARNAWARTHA","BARNAWARTHA NORTH","INDIGO UPPER","INDIGO VALLEY"],"SA4_NAME_2016":"Hume"},{"postcode":"3690","lat":-36.135717,"long":146.864361,"state":"VIC","localities":["WEST WODONGA","WODONGA","WODONGA PLAZA"],"SA4_NAME_2016":"Hume"},{"postcode":"3691","lat":-36.027154,"long":147.880991,"state":"VIC","localities":["ALLANS FLAT","BARANDUDA","BELLBRIDGE","BERRINGAMA","BETHANGA","BONEGILLA","BUNGIL","CASTLE CREEK","CORAL BANK","DEDERANG","EBDEN","GATEWAY ISLAND","GLEN CREEK","GUNDOWRING","HUME WEIR","HUON CREEK","KANCOONA","KANCOONA SOUTH","KERGUNYAH","KIEWA","KILLARA","LENEVA","LONE PINE","LUCYVALE","MONGANS BRIDGE","MOUNT ALFRED","RUNNING CREEK","STAGHORN FLAT","TALGARNO","TANGAMBALANGA","THOLOGOLONG","UPPER GUNDOWRING","WODONGA FORWARD"],"SA4_NAME_2016":"Hume"},{"postcode":"3691","lat":-36.13591208,"long":146.9307559,"state":"VIC","localities":["BANDIANA"],"SA4_NAME_2016":"Hume"},{"postcode":"3691","lat":-36.08708986,"long":146.7480309,"state":"VIC","localities":["BARNAWARTHA NORTH"],"SA4_NAME_2016":"Hume"},{"postcode":"3691","lat":-36.42880742,"long":147.0284111,"state":"VIC","localities":["KERGUNYAH SOUTH"],"SA4_NAME_2016":"Hume"},{"postcode":"3691","lat":-36.32062937,"long":146.9091366,"state":"VIC","localities":["OSBORNES FLAT"],"SA4_NAME_2016":"Hume"},{"postcode":"3694","lat":-36.150678,"long":146.919493,"state":"VIC","localities":["BANDIANA","BANDIANA MILPO"],"SA4_NAME_2016":"Hume"},{"postcode":"3695","lat":-36.304285,"long":147.123674,"state":"VIC","localities":["CHARLEROI","HUON","RED BLUFF","SANDY CREEK"],"SA4_NAME_2016":"Hume"},{"postcode":"3697","lat":-36.68753,"long":147.17925,"state":"VIC","localities":["TAWONGA"],"SA4_NAME_2016":"Hume"},{"postcode":"3698","lat":-36.722034,"long":147.149468,"state":"VIC","localities":["TAWONGA SOUTH"],"SA4_NAME_2016":"Hume"},{"postcode":"3699","lat":-36.844307,"long":147.299257,"state":"VIC","localities":["BOGONG","FALLS CREEK","MOUNT BEAUTY"],"SA4_NAME_2016":"Hume"},{"postcode":"3699","lat":-36.83390754,"long":147.3656102,"state":"VIC","localities":["NELSE"],"SA4_NAME_2016":"Latrobe - Gippsland"},{"postcode":"3700","lat":-36.335898,"long":147.35527,"state":"VIC","localities":["BULLIOH","JARVIS CREEK","TALLANGATTA","TALLANGATTA EAST"],"SA4_NAME_2016":"Hume"},{"postcode":"3700","lat":-36.15063277,"long":147.2581548,"state":"VIC","localities":["GEORGES CREEK"],"SA4_NAME_2016":"Hume"},{"postcode":"3701","lat":-36.638769,"long":147.476819,"state":"VIC","localities":["DARTMOUTH","ESKDALE","FERNVALE","GRANITE FLAT","GRANYA","MITTA MITTA","SHELLEY","TALLANGATTA VALLEY"],"SA4_NAME_2016":"Hume"},{"postcode":"3701","lat":-36.20193851,"long":147.249954,"state":"VIC","localities":["OLD TALLANGATTA"],"SA4_NAME_2016":"Hume"},{"postcode":"3701","lat":-36.40132656,"long":147.2207049,"state":"VIC","localities":["TALLANDOON"],"SA4_NAME_2016":"Hume"},{"postcode":"3701","lat":-36.32413828,"long":147.2815733,"state":"VIC","localities":["TALLANGATTA SOUTH"],"SA4_NAME_2016":"Hume"},{"postcode":"3704","lat":-36.132613,"long":147.49344,"state":"VIC","localities":["KOETONG"],"SA4_NAME_2016":"Hume"},{"postcode":"3705","lat":-36.322884,"long":147.769911,"state":"VIC","localities":["CUDGEWA","NARIEL VALLEY"],"SA4_NAME_2016":"Hume"},{"postcode":"3707","lat":-36.586316,"long":148.037958,"state":"VIC","localities":["BIGGARA","BRINGENBRONG","COLAC COLAC","CORRYONG","THOWGLA VALLEY","TOWONG","TOWONG UPPER"],"SA4_NAME_2016":"Hume"},{"postcode":"3707","lat":-36.58238379,"long":147.9286148,"state":"VIC","localities":["NARIEL VALLEY"],"SA4_NAME_2016":"Hume"},{"postcode":"3707","lat":-36.59561902,"long":148.0805746,"state":"VIC","localities":["TOM GROGGIN"],"SA4_NAME_2016":"Hume"},{"postcode":"3708","lat":-36.070928,"long":147.942058,"state":"VIC","localities":["TINTALDRA"],"SA4_NAME_2016":"Hume"},{"postcode":"3709","lat":-36.035908,"long":147.667373,"state":"VIC","localities":["BURROWYE","GUYS FOREST","WALWA"],"SA4_NAME_2016":"Hume"},{"postcode":"3709","lat":-36.00067772,"long":147.6313053,"state":"VIC","localities":["MOUNT ALFRED"],"SA4_NAME_2016":"Hume"},{"postcode":"3709","lat":-36.01189247,"long":147.8327575,"state":"VIC","localities":["PINE MOUNTAIN"],"SA4_NAME_2016":"Hume"},{"postcode":"3711","lat":-37.41047,"long":145.682161,"state":"VIC","localities":["BUXTON"],"SA4_NAME_2016":"Hume"},{"postcode":"3712","lat":-37.3209,"long":145.839057,"state":"VIC","localities":["RUBICON","THORNTON"],"SA4_NAME_2016":"Hume"},{"postcode":"3713","lat":-37.241527,"long":145.90623,"state":"VIC","localities":["EILDON","LAKE EILDON"],"SA4_NAME_2016":"Hume"},{"postcode":"3713","lat":-37.20794843,"long":145.880225,"state":"VIC","localities":["TAYLOR BAY"],"SA4_NAME_2016":"Hume"},{"postcode":"3714","lat":-37.210538,"long":145.687889,"state":"VIC","localities":["ACHERON","ALEXANDRA","CATHKIN","CRYSTAL CREEK","FAWCETT","KORIELLA","TAGGERTY"],"SA4_NAME_2016":"Hume"},{"postcode":"3714","lat":-37.18897433,"long":145.8060118,"state":"VIC","localities":["DEVILS RIVER"],"SA4_NAME_2016":"Hume"},{"postcode":"3714","lat":-37.13112911,"long":145.7781021,"state":"VIC","localities":["MAINTONGOON"],"SA4_NAME_2016":"Hume"},{"postcode":"3714","lat":-37.2189348,"long":145.6196525,"state":"VIC","localities":["WHANREGARWEN"],"SA4_NAME_2016":"Hume"},{"postcode":"3715","lat":-36.985747,"long":145.739419,"state":"VIC","localities":["ANCONA","MERTON","WOODFIELD"],"SA4_NAME_2016":"Hume"},{"postcode":"3717","lat":-37.286611,"long":145.435776,"state":"VIC","localities":["FLOWERDALE","GHIN GHIN","GLENBURN","HOMEWOOD","KILLINGWORTH","LIMESTONE","MURRINDINDI","YEA"],"SA4_NAME_2016":"Hume"},{"postcode":"3718","lat":-37.144067,"long":145.54096,"state":"VIC","localities":["MOLESWORTH"],"SA4_NAME_2016":"Hume"},{"postcode":"3719","lat":-37.041215,"long":145.608491,"state":"VIC","localities":["GOBUR","KANUMBRA","TERIP TERIP","YARCK"],"SA4_NAME_2016":"Hume"},{"postcode":"3720","lat":-37.017241,"long":145.850304,"state":"VIC","localities":["BONNIE DOON"],"SA4_NAME_2016":"Hume"},{"postcode":"3722","lat":-37.202634,"long":146.253268,"state":"VIC","localities":["BARWITE","MANSFIELD","MIRIMBAH"],"SA4_NAME_2016":"Hume"},{"postcode":"3723","lat":-36.894465,"long":146.256507,"state":"VIC","localities":["ARCHERTON","BARJARG","BOOROLITE","BRIDGE CREEK","DELATITE","GAFFNEYS CREEK","GOUGHS BAY","HOWES CREEK","HOWQUA","HOWQUA HILLS","HOWQUA INLET","JAMIESON","KEVINGTON","MACS COVE","MAINDAMPLE","MATLOCK","MERRIJIG","MOUNT BULLER","MOUNTAIN BAY","NILLAHCOOTIE","PIRIES","SAWMILL SETTLEMENT","TOLMIE","WOODS POINT"],"SA4_NAME_2016":"Hume"},{"postcode":"3723","lat":-37.41855045,"long":146.1186202,"state":"VIC","localities":["ENOCHS POINT"],"SA4_NAME_2016":"Hume"},{"postcode":"3723","lat":-37.42570709,"long":146.2594778,"state":"VIC","localities":["KNOCKWOOD"],"SA4_NAME_2016":"Hume"},{"postcode":"3725","lat":-36.414359,"long":145.937326,"state":"VIC","localities":["BOXWOOD","CHESNEY VALE","GOORAMBAT","MAJOR PLAINS","STEWARTON"],"SA4_NAME_2016":"Hume"},{"postcode":"3726","lat":-36.332254,"long":145.960209,"state":"VIC","localities":["BUNGEET","BUNGEET WEST","DEVENISH","THOONA"],"SA4_NAME_2016":"Hume"},{"postcode":"3727","lat":-36.242443,"long":145.957776,"state":"VIC","localities":["ALMONDS","LAKE ROWAN","PELLUEBLA","ST JAMES","WAGGARANDALL","YUNDOOL"],"SA4_NAME_2016":"Shepparton"},{"postcode":"3728","lat":-36.148922,"long":145.959015,"state":"VIC","localities":["BOOMAHNOOMOONAH","TUNGAMAH","WILBY","YOUARANG"],"SA4_NAME_2016":"Shepparton"},{"postcode":"3730","lat":-36.051782,"long":145.974755,"state":"VIC","localities":["BATHUMI","BOOSEY","BUNDALONG","BUNDALONG SOUTH","ESMOND","TELFORD","YARRAWONGA","YARRAWONGA SOUTH"],"SA4_NAME_2016":"Shepparton"},{"postcode":"3730","lat":-36.00973295,"long":145.882739,"state":"VIC","localities":["BURRAMINE"],"SA4_NAME_2016":"Shepparton"},{"postcode":"3730","lat":-36.07318482,"long":145.856688,"state":"VIC","localities":["BURRAMINE SOUTH"],"SA4_NAME_2016":"Shepparton"},{"postcode":"3732","lat":-36.686814,"long":146.313751,"state":"VIC","localities":["MOYHU","MYRRHEE"],"SA4_NAME_2016":"Hume"},{"postcode":"3733","lat":-36.812087,"long":146.316338,"state":"VIC","localities":["WHITFIELD"],"SA4_NAME_2016":"Hume"},{"postcode":"3735","lat":-36.515712,"long":146.603574,"state":"VIC","localities":["BOWMANS FOREST","WHOROULY","WHOROULY EAST","WHOROULY SOUTH"],"SA4_NAME_2016":"Hume"},{"postcode":"3737","lat":-36.554037,"long":146.82759,"state":"VIC","localities":["ABBEYARD","BARWIDGEE","BUFFALO RIVER","DANDONGADALE","GAPSTED","HAVILLAH","MERRIANG","MERRIANG SOUTH","MUDGEGONGA","MYRTLEFORD","NUG NUG","ROSEWHITE"],"SA4_NAME_2016":"Hume"},{"postcode":"3737","lat":-36.623195,"long":146.8967591,"state":"VIC","localities":["HAVILAH"],"SA4_NAME_2016":"Hume"},{"postcode":"3737","lat":-37.06713454,"long":146.9999008,"state":"VIC","localities":["SELWYN"],"SA4_NAME_2016":"Hume"},{"postcode":"3737","lat":-37.13823976,"long":146.8156764,"state":"VIC","localities":["WONNANGATTA"],"SA4_NAME_2016":"Hume"},{"postcode":"3738","lat":-36.587922,"long":146.75397,"state":"VIC","localities":["OVENS"],"SA4_NAME_2016":"Hume"},{"postcode":"3739","lat":-36.641016,"long":146.864194,"state":"VIC","localities":["EUROBIN"],"SA4_NAME_2016":"Hume"},{"postcode":"3740","lat":-36.731686,"long":146.834561,"state":"VIC","localities":["BUCKLAND","MOUNT BUFFALO","POREPUNKAH"],"SA4_NAME_2016":"Hume"},{"postcode":"3741","lat":-36.962316,"long":147.063163,"state":"VIC","localities":["BRIGHT","FREEBURGH","GERMANTOWN","HARRIETVILLE","HOTHAM HEIGHTS","MOUNT HOTHAM","SMOKO"],"SA4_NAME_2016":"Hume"},{"postcode":"3744","lat":-36.788479,"long":146.95979,"state":"VIC","localities":["WANDILIGONG"],"SA4_NAME_2016":"Hume"},{"postcode":"3746","lat":-36.31396,"long":146.51767,"state":"VIC","localities":["ELDORADO"],"SA4_NAME_2016":"Hume"},{"postcode":"3747","lat":-36.361056,"long":146.725705,"state":"VIC","localities":["BAARMUTHA","BEECHWORTH","HURDLE FLAT","MURMUNGEE","SILVER CREEK","STANLEY","WOOLSHED","WOORAGEE"],"SA4_NAME_2016":"Hume"},{"postcode":"3749","lat":-36.42031113,"long":146.8638108,"state":"VIC","localities":["BRUARONG"],"SA4_NAME_2016":"Hume"},{"postcode":"3749","lat":-36.357399,"long":146.842075,"state":"VIC","localities":["YACKANDANDAH"],"SA4_NAME_2016":"Hume"},{"postcode":"3750","lat":-37.596078,"long":145.005578,"state":"VIC","localities":["WOLLERT"],"SA4_NAME_2016":"Melbourne - North East"},{"postcode":"3751","lat":-37.554655,"long":145.052904,"state":"VIC","localities":["WOODSTOCK"],"SA4_NAME_2016":"Melbourne - North East"},{"postcode":"3752","lat":-37.619102,"long":145.074353,"state":"VIC","localities":["MORANG SOUTH","SOUTH MORANG"],"SA4_NAME_2016":"Melbourne - North East"},{"postcode":"3753","lat":-37.476474,"long":144.959512,"state":"VIC","localities":["BEVERIDGE"],"SA4_NAME_2016":"Melbourne - North East"},{"postcode":"3754","lat":-37.593554,"long":145.112985,"state":"VIC","localities":["DOREEN","MERNDA"],"SA4_NAME_2016":"Melbourne - North East"},{"postcode":"3755","lat":-37.563905,"long":145.142035,"state":"VIC","localities":["YAN YEAN"],"SA4_NAME_2016":"Melbourne - North East"},{"postcode":"3756","lat":-37.41233,"long":144.956641,"state":"VIC","localities":["CHINTIN","DARRAWEIT GUIM","HIDDEN VALLEY","UPPER PLENTY","WALLAN","WALLAN EAST"],"SA4_NAME_2016":"Melbourne - North West"},{"postcode":"3757","lat":-37.469784,"long":145.182221,"state":"VIC","localities":["BRUCES CREEK","EDEN PARK","HUMEVALE","KINGLAKE CENTRAL","KINGLAKE WEST","PHEASANT CREEK","WHITTLESEA"],"SA4_NAME_2016":"Melbourne - North East"},{"postcode":"3758","lat":-37.354647,"long":145.052552,"state":"VIC","localities":["HEATHCOTE JUNCTION","WANDONG"],"SA4_NAME_2016":"Melbourne - North East"},{"postcode":"3759","lat":-37.650385,"long":145.247277,"state":"VIC","localities":["PANTON HILL"],"SA4_NAME_2016":"Melbourne - North East"},{"postcode":"3760","lat":-37.624929,"long":145.288073,"state":"VIC","localities":["SMITHS GULLY"],"SA4_NAME_2016":"Melbourne - North East"},{"postcode":"3761","lat":-37.585625,"long":145.292381,"state":"VIC","localities":["ST ANDREWS"],"SA4_NAME_2016":"Melbourne - North East"},{"postcode":"3762","lat":-37.354143,"long":144.936707,"state":"VIC","localities":["BYLANDS"],"SA4_NAME_2016":"Melbourne - North East"},{"postcode":"3763","lat":-37.521863,"long":145.353378,"state":"VIC","localities":["KINGLAKE","MOUNT SLIDE"],"SA4_NAME_2016":"Melbourne - North East"},{"postcode":"3764","lat":-37.263736,"long":144.900644,"state":"VIC","localities":["FORBES","GLENAROUA","HIGH CAMP","KILMORE","KILMORE EAST","MORANDING","TANTARABOO","WILLOWMAVIN"],"SA4_NAME_2016":"Hume"},{"postcode":"3765","lat":-37.814771,"long":145.346621,"state":"VIC","localities":["MONTROSE"],"SA4_NAME_2016":"Melbourne - Outer East"},{"postcode":"3766","lat":-37.817818,"long":145.384955,"state":"VIC","localities":["KALORAMA"],"SA4_NAME_2016":"Melbourne - Outer East"},{"postcode":"3767","lat":-37.839387,"long":145.347505,"state":"VIC","localities":["MOUNT DANDENONG"],"SA4_NAME_2016":"Melbourne - Outer East"},{"postcode":"3770","lat":-37.708784,"long":145.416004,"state":"VIC","localities":["COLDSTREAM","GRUYERE","YERING"],"SA4_NAME_2016":"Melbourne - Outer East"},{"postcode":"3775","lat":-37.642852,"long":145.365993,"state":"VIC","localities":["CHRISTMAS HILLS","DIXONS CREEK","STEELS CREEK","TARRAWARRA","YARRA GLEN"],"SA4_NAME_2016":"Melbourne - North East"},{"postcode":"3777","lat":-37.606088,"long":145.513804,"state":"VIC","localities":["BADGER CREEK","CASTELLA","CHUM CREEK","HEALESVILLE","HEALESVILLE MAIN STREET","HEALESVILLE POST SHOP","MOUNT TOOLEBEWONG","TOOLANGI"],"SA4_NAME_2016":"Melbourne - Outer East"},{"postcode":"3778","lat":-37.537492,"long":145.623011,"state":"VIC","localities":["FERNSHAW","NARBETHONG"],"SA4_NAME_2016":"Melbourne - Outer East"},{"postcode":"3779","lat":-37.539267,"long":145.784751,"state":"VIC","localities":["CAMBARVILLE","MARYSVILLE"],"SA4_NAME_2016":"Hume"},{"postcode":"3781","lat":-37.938471,"long":145.487862,"state":"VIC","localities":["COCKATOO","MOUNT BURNETT","NANGANA"],"SA4_NAME_2016":"Melbourne - South East"},{"postcode":"3782","lat":-37.938068,"long":145.433024,"state":"VIC","localities":["AVONSLEIGH","CLEMATIS","EMERALD","MACCLESFIELD"],"SA4_NAME_2016":"Melbourne - South East"},{"postcode":"3783","lat":-37.947379,"long":145.596576,"state":"VIC","localities":["GEMBROOK"],"SA4_NAME_2016":"Melbourne - South East"},{"postcode":"3785","lat":-37.885138,"long":145.316734,"state":"VIC","localities":["TREMONT"],"SA4_NAME_2016":"Melbourne - Outer East"},{"postcode":"3786","lat":-37.878188,"long":145.332431,"state":"VIC","localities":["FERNY CREEK"],"SA4_NAME_2016":"Melbourne - Outer East"},{"postcode":"3787","lat":-37.866786,"long":145.350888,"state":"VIC","localities":["SASSAFRAS","SASSAFRAS GULLY"],"SA4_NAME_2016":"Melbourne - Outer East"},{"postcode":"3788","lat":-37.848036,"long":145.377128,"state":"VIC","localities":["OLINDA"],"SA4_NAME_2016":"Melbourne - Outer East"},{"postcode":"3789","lat":-37.889767,"long":145.357336,"state":"VIC","localities":["SHERBROOKE"],"SA4_NAME_2016":"Melbourne - Outer East"},{"postcode":"3791","lat":-37.896917,"long":145.379622,"state":"VIC","localities":["KALLISTA"],"SA4_NAME_2016":"Melbourne - Outer East"},{"postcode":"3792","lat":-37.89424,"long":145.405388,"state":"VIC","localities":["THE PATCH"],"SA4_NAME_2016":"Melbourne - Outer East"},{"postcode":"3793","lat":-37.874533,"long":145.429715,"state":"VIC","localities":["MONBULK"],"SA4_NAME_2016":"Melbourne - Outer East"},{"postcode":"3795","lat":-37.836663,"long":145.430311,"state":"VIC","localities":["SILVAN"],"SA4_NAME_2016":"Melbourne - Outer East"},{"postcode":"3796","lat":-37.786977,"long":145.384922,"state":"VIC","localities":["MOUNT EVELYN"],"SA4_NAME_2016":"Melbourne - Outer East"},{"postcode":"3797","lat":-37.867809,"long":145.786343,"state":"VIC","localities":["GILDEROY","GLADYSDALE","POWELLTOWN","THREE BRIDGES","YARRA JUNCTION"],"SA4_NAME_2016":"Melbourne - Outer East"},{"postcode":"3799","lat":-37.727566,"long":145.818512,"state":"VIC","localities":["BIG PATS CREEK","EAST WARBURTON","MCMAHONS CREEK","MILLGROVE","REEFTON","WARBURTON","WESBURN"],"SA4_NAME_2016":"Melbourne - Outer East"},{"postcode":"3800","lat":-37.910545,"long":145.134935,"state":"VIC","localities":["MONASH UNIVERSITY"],"SA4_NAME_2016":"Melbourne - South East"},{"postcode":"3802","lat":-37.971763,"long":145.255599,"state":"VIC","localities":["ENDEAVOUR HILLS"],"SA4_NAME_2016":"Melbourne - South East"},{"postcode":"3803","lat":-38.009435,"long":145.265524,"state":"VIC","localities":["HALLAM"],"SA4_NAME_2016":"Melbourne - South East"},{"postcode":"3804","lat":-37.980059,"long":145.325994,"state":"VIC","localities":["NARRE WARREN EAST","NARRE WARREN NORTH"],"SA4_NAME_2016":"Melbourne - Outer East"},{"postcode":"3805","lat":-38.037026,"long":145.304198,"state":"VIC","localities":["FOUNTAIN GATE","NARRE WARREN","NARRE WARREN SOUTH"],"SA4_NAME_2016":"Melbourne - South East"},{"postcode":"3806","lat":-38.025018,"long":145.349488,"state":"VIC","localities":["BERWICK","HARKAWAY"],"SA4_NAME_2016":"Melbourne - South East"},{"postcode":"3807","lat":-38.048316,"long":145.371635,"state":"VIC","localities":["BEACONSFIELD","GUYS HILL"],"SA4_NAME_2016":"Melbourne - South East"},{"postcode":"3808","lat":-38.002518,"long":145.42327,"state":"VIC","localities":["BEACONSFIELD UPPER","DEWHURST"],"SA4_NAME_2016":"Melbourne - South East"},{"postcode":"3809","lat":-38.069094,"long":145.406887,"state":"VIC","localities":["OFFICER","OFFICER SOUTH"],"SA4_NAME_2016":"Melbourne - South East"},{"postcode":"3810","lat":-38.04658,"long":145.472514,"state":"VIC","localities":["PAKENHAM","PAKENHAM SOUTH","PAKENHAM UPPER","RYTHDALE"],"SA4_NAME_2016":"Melbourne - South East"},{"postcode":"3812","lat":-38.070135,"long":145.565304,"state":"VIC","localities":["MARYKNOLL","NAR NAR GOON","NAR NAR GOON NORTH"],"SA4_NAME_2016":"Melbourne - South East"},{"postcode":"3813","lat":-38.064252,"long":145.634339,"state":"VIC","localities":["TYNONG","TYNONG NORTH"],"SA4_NAME_2016":"Melbourne - South East"},{"postcode":"3814","lat":-38.10718,"long":145.669112,"state":"VIC","localities":["CORA LYNN","GARFIELD","GARFIELD NORTH","VERVALE"],"SA4_NAME_2016":"Melbourne - South East"},{"postcode":"3815","lat":-38.01378,"long":145.726311,"state":"VIC","localities":["BUNYIP","BUNYIP NORTH","IONA","TONIMBUK"],"SA4_NAME_2016":"Melbourne - South East"},{"postcode":"3816","lat":-38.043542,"long":145.787991,"state":"VIC","localities":["LABERTOUCHE","LONGWARRY","LONGWARRY NORTH","MODELLA"],"SA4_NAME_2016":"Latrobe - Gippsland"},{"postcode":"3818","lat":-38.096289,"long":145.867337,"state":"VIC","localities":["ATHLONE","DROUIN","DROUIN EAST","DROUIN SOUTH","DROUIN WEST","HALLORA","JINDIVICK","RIPPLEBROOK","TARAGO"],"SA4_NAME_2016":"Latrobe - Gippsland"},{"postcode":"3820","lat":-38.207476,"long":145.922212,"state":"VIC","localities":["BONA VISTA","LILLICO","WARRAGUL"],"SA4_NAME_2016":"Latrobe - Gippsland"},{"postcode":"3821","lat":-37.919937,"long":145.945214,"state":"VIC","localities":["BRANDY CREEK","BULN BULN","BULN BULN EAST","CROSSOVER","ELLINBANK","FERNDALE","LARDNER","NAYOOK","NEERIM JUNCTION","NEERIM NORTH","NILMA","NILMA NORTH","ROKEBY","SEAVIEW","SHADY CREEK","TETOORA ROAD","WARRAGUL SOUTH","WARRAGUL WEST","NAYOOK","NEERIM JUNCTION","NEERIM NORTH"],"SA4_NAME_2016":"Latrobe - Gippsland"},{"postcode":"3821","lat":-38.08301804,"long":145.9226127,"state":"VIC","localities":["BRAVINGTON"],"SA4_NAME_2016":"Latrobe - Gippsland"},{"postcode":"3821","lat":-38.25783442,"long":145.8742873,"state":"VIC","localities":["TORWOOD"],"SA4_NAME_2016":"Latrobe - Gippsland"},{"postcode":"3822","lat":-38.194379,"long":145.989901,"state":"VIC","localities":["CLOVERLEA","DARNUM","GAINSBOROUGH"],"SA4_NAME_2016":"Latrobe - Gippsland"},{"postcode":"3823","lat":-38.210382,"long":146.065656,"state":"VIC","localities":["ALLAMBEE","YARRAGON","YARRAGON SOUTH"],"SA4_NAME_2016":"Latrobe - Gippsland"},{"postcode":"3824","lat":-38.245649,"long":146.16397,"state":"VIC","localities":["CHILDERS","NARRACAN","THORPDALE SOUTH","TRAFALGAR","TRAFALGAR EAST","TRAFALGAR SOUTH"],"SA4_NAME_2016":"Latrobe - Gippsland"},{"postcode":"3825","lat":-37.978862,"long":146.342932,"state":"VIC","localities":["ABERFELDY","AMOR","CARINGAL","COALVILLE","COOPERS CREEK","ERICA","FUMINA","FUMINA SOUTH","HERNES OAK","HILL END","JACOB CREEK","MOE","MOE SOUTH","MOONDARRA","NEWBOROUGH","NEWBOROUGH EAST","RAWSON","TANJIL","TANJIL SOUTH","THALOO","THOMSON","WALHALLA","WESTBURY","WILLOW GROVE","YALLOURN","YALLOURN NORTH"],"SA4_NAME_2016":"Latrobe - Gippsland"},{"postcode":"3825","lat":-38.0485774,"long":146.4605642,"state":"VIC","localities":["BOOLA"],"SA4_NAME_2016":"Latrobe - Gippsland"},{"postcode":"3825","lat":-37.66622391,"long":146.2288747,"state":"VIC","localities":["JERICHO"],"SA4_NAME_2016":"Latrobe - Gippsland"},{"postcode":"3825","lat":-38.08561743,"long":146.3086546,"state":"VIC","localities":["THALLOO"],"SA4_NAME_2016":"Latrobe - Gippsland"},{"postcode":"3825","lat":-37.72124292,"long":146.4393424,"state":"VIC","localities":["TOOMBON"],"SA4_NAME_2016":"Latrobe - Gippsland"},{"postcode":"3825","lat":-37.9325509,"long":146.5807798,"state":"VIC","localities":["WALHALLA EAST"],"SA4_NAME_2016":"Latrobe - Gippsland"},{"postcode":"3831","lat":-37.993258,"long":146.013136,"state":"VIC","localities":["NEERIM","NEERIM EAST","NEERIM SOUTH"],"SA4_NAME_2016":"Latrobe - Gippsland"},{"postcode":"3833","lat":-37.84222154,"long":145.851865,"state":"VIC","localities":["ADA"],"SA4_NAME_2016":"Latrobe - Gippsland"},{"postcode":"3833","lat":-37.829347,"long":146.077886,"state":"VIC","localities":["BAW BAW","BAW BAW VILLAGE","ICY CREEK","LOCH VALLEY","MT BAW BAW","NOOJEE","PIEDMONT","TANJIL BREN","TOORONGO","VESPER"],"SA4_NAME_2016":"Latrobe - Gippsland"},{"postcode":"3833","lat":-37.93840381,"long":145.8366168,"state":"VIC","localities":["GENTLE ANNIE"],"SA4_NAME_2016":"Latrobe - Gippsland"},{"postcode":"3835","lat":-38.290637,"long":146.175271,"state":"VIC","localities":["THORPDALE"],"SA4_NAME_2016":"Latrobe - Gippsland"},{"postcode":"3840","lat":-38.245215,"long":146.424457,"state":"VIC","localities":["DRIFFIELD","HAZELWOOD","HAZELWOOD NORTH","HAZELWOOD SOUTH","JEERALANG","JEERALANG JUNCTION","MARYVALE","MID VALLEY","MORWELL","MORWELL EAST","MORWELL UPPER"],"SA4_NAME_2016":"Latrobe - Gippsland"},{"postcode":"3841","lat":-37.5832,"long":147.463,"state":"VIC","localities":["GIPPSLAND MC"],"SA4_NAME_2016":"Latrobe - Gippsland"},{"postcode":"3842","lat":-38.315452,"long":146.414358,"state":"VIC","localities":["CHURCHILL"],"SA4_NAME_2016":"Latrobe - Gippsland"},{"postcode":"3844","lat":-38.316869,"long":146.607101,"state":"VIC","localities":["BLACKWARRY","CALLIGNEE","CALLIGNEE NORTH","CARRAJUNG","FLYNN","FLYNNS CREEK","KOORNALLA","LOY YANG","TRARALGON","TRARALGON EAST","TRARALGON SOUTH","TYERS","WILLUNG SOUTH"],"SA4_NAME_2016":"Latrobe - Gippsland"},{"postcode":"3844","lat":-38.38048482,"long":146.6035417,"state":"VIC","localities":["CALLIGNEE SOUTH"],"SA4_NAME_2016":"Latrobe - Gippsland"},{"postcode":"3844","lat":-38.39234478,"long":146.7391131,"state":"VIC","localities":["CARRAJUNG LOWER"],"SA4_NAME_2016":"Latrobe - Gippsland"},{"postcode":"3844","lat":-38.38123128,"long":146.7999955,"state":"VIC","localities":["CARRAJUNG SOUTH"],"SA4_NAME_2016":"Latrobe - Gippsland"},{"postcode":"3844","lat":-38.38862898,"long":146.5618972,"state":"VIC","localities":["MOUNT TASSIE"],"SA4_NAME_2016":"Latrobe - Gippsland"},{"postcode":"3847","lat":-38.166213,"long":146.772991,"state":"VIC","localities":["HIAMDALE","NAMBROK","ROSEDALE","WILLUNG"],"SA4_NAME_2016":"Latrobe - Gippsland"},{"postcode":"3847","lat":-38.32561417,"long":146.8251888,"state":"VIC","localities":["WILLUNG SOUTH"],"SA4_NAME_2016":"Latrobe - Gippsland"},{"postcode":"3850","lat":-38.224191,"long":147.106181,"state":"VIC","localities":["GIFFARD","GUTHRIDGE","SALE","SALE NORTH","WURRUK"],"SA4_NAME_2016":"Latrobe - Gippsland"},{"postcode":"3851","lat":-38.035548,"long":147.084398,"state":"VIC","localities":["AIRLY","BUNDALAGUAH","CLYDEBANK","COBAINS","DARRIMAN","DUTSON","DUTSON DOWNS","FLAMINGO BEACH","FULHAM","GIFFARD WEST","GLOMAR BEACH","GOLDEN BEACH","KILMANY","LAKE WELLINGTON","LOCH SPORT","LONGFORD","MONTGOMERY","MYRTLEBANK","PARADISE BEACH","PEARSONDALE","SEACOMBE","SEASPRAY","SOMERTON PARK","STRADBROKE","THE HEART","THE HONEYSUCKLES"],"SA4_NAME_2016":"Latrobe - Gippsland"},{"postcode":"3851","lat":-38.38411874,"long":147.099754,"state":"VIC","localities":["GIFFARD"],"SA4_NAME_2016":"Latrobe - Gippsland"},{"postcode":"3852","lat":-38.10361729,"long":147.1414369,"state":"VIC","localities":["EAST SALE"],"SA4_NAME_2016":"Latrobe - Gippsland"},{"postcode":"3852","lat":-38.106731,"long":147.134356,"state":"VIC","localities":["EAST SALE RAAF","SALE EAST RAAF"],"SA4_NAME_2016":"Latrobe - Gippsland"},{"postcode":"3854","lat":-38.12413,"long":146.596877,"state":"VIC","localities":["GLENGARRY","GLENGARRY NORTH","GLENGARRY WEST"],"SA4_NAME_2016":"Latrobe - Gippsland"},{"postcode":"3856","lat":-38.063907,"long":146.672206,"state":"VIC","localities":["TOONGABBIE"],"SA4_NAME_2016":"Latrobe - Gippsland"},{"postcode":"3857","lat":-38.018616,"long":146.694894,"state":"VIC","localities":["COWWARR"],"SA4_NAME_2016":"Latrobe - Gippsland"},{"postcode":"3858","lat":-37.3690401,"long":146.8291658,"state":"VIC","localities":["ARBUCKLE"],"SA4_NAME_2016":"Latrobe - Gippsland"},{"postcode":"3858","lat":-37.24480987,"long":146.80983,"state":"VIC","localities":["BILLABONG"],"SA4_NAME_2016":"Latrobe - Gippsland"},{"postcode":"3858","lat":-37.49088696,"long":146.7706256,"state":"VIC","localities":["BURAGWONDUC"],"SA4_NAME_2016":"Latrobe - Gippsland"},{"postcode":"3858","lat":-37.48411474,"long":146.6214281,"state":"VIC","localities":["CROOKAYAN"],"SA4_NAME_2016":"Latrobe - Gippsland"},{"postcode":"3858","lat":-37.821756,"long":146.576101,"state":"VIC","localities":["DAWSON","DENISON","GLEN FALLOCH","GLENMAGGIE","HEYFIELD","LICOLA","LICOLA NORTH","SEATON","TAMBORITHA","WINNINDOO"],"SA4_NAME_2016":"Latrobe - Gippsland"},{"postcode":"3858","lat":-37.7535504,"long":146.7352987,"state":"VIC","localities":["GILLUM"],"SA4_NAME_2016":"Latrobe - Gippsland"},{"postcode":"3858","lat":-37.69372058,"long":146.6296585,"state":"VIC","localities":["GLENFALLOCH"],"SA4_NAME_2016":"Latrobe - Gippsland"},{"postcode":"3858","lat":-37.20631423,"long":146.685872,"state":"VIC","localities":["HOWITT PLAINS"],"SA4_NAME_2016":"Latrobe - Gippsland"},{"postcode":"3858","lat":-37.35595129,"long":146.6252375,"state":"VIC","localities":["REYNARD"],"SA4_NAME_2016":"Latrobe - Gippsland"},{"postcode":"3858","lat":-37.58636148,"long":146.7389535,"state":"VIC","localities":["SARGOOD"],"SA4_NAME_2016":"Latrobe - Gippsland"},{"postcode":"3858","lat":-37.66889173,"long":146.7419767,"state":"VIC","localities":["WORROWING"],"SA4_NAME_2016":"Latrobe - Gippsland"},{"postcode":"3858","lat":-37.82195914,"long":146.5677589,"state":"VIC","localities":["YANGOURA"],"SA4_NAME_2016":"Latrobe - Gippsland"},{"postcode":"3859","lat":-37.886136,"long":146.848259,"state":"VIC","localities":["MAFFRA WEST UPPER","MEWBURN PARK","NEWRY","TINAMBA","TINAMBA WEST"],"SA4_NAME_2016":"Latrobe - Gippsland"},{"postcode":"3860","lat":-37.571707,"long":146.805175,"state":"VIC","localities":["BOISDALE","BRIAGOLONG","BUSHY PARK","COONGULLA","MAFFRA","NUNTIN","RIVERSLEA","VALENCIA CREEK"],"SA4_NAME_2016":"Latrobe - Gippsland"},{"postcode":"3860","lat":-37.72619419,"long":146.9425755,"state":"VIC","localities":["KOOROOL"],"SA4_NAME_2016":"Latrobe - Gippsland"},{"postcode":"3860","lat":-37.78389869,"long":146.8250006,"state":"VIC","localities":["MONOMAK"],"SA4_NAME_2016":"Latrobe - Gippsland"},{"postcode":"3860","lat":-37.48991548,"long":146.9388373,"state":"VIC","localities":["MOROKA"],"SA4_NAME_2016":"Latrobe - Gippsland"},{"postcode":"3860","lat":-37.57861321,"long":146.8458785,"state":"VIC","localities":["NAP NAP MARRA"],"SA4_NAME_2016":"Latrobe - Gippsland"},{"postcode":"3860","lat":-37.61645458,"long":147.0534386,"state":"VIC","localities":["TOOLOME"],"SA4_NAME_2016":"Latrobe - Gippsland"},{"postcode":"3860","lat":-37.69783613,"long":147.0446286,"state":"VIC","localities":["WOOLENOOK"],"SA4_NAME_2016":"Latrobe - Gippsland"},{"postcode":"3860","lat":-37.59554693,"long":146.9492264,"state":"VIC","localities":["WRATHUNG"],"SA4_NAME_2016":"Latrobe - Gippsland"},{"postcode":"3860","lat":-37.68351367,"long":146.8512398,"state":"VIC","localities":["WRIXON"],"SA4_NAME_2016":"Latrobe - Gippsland"},{"postcode":"3862","lat":-37.55304411,"long":147.130018,"state":"VIC","localities":["BUDGEE BUDGEE"],"SA4_NAME_2016":"Latrobe - Gippsland"},{"postcode":"3862","lat":-37.597551,"long":147.228456,"state":"VIC","localities":["CASTLEBURN","COBBANNAH","CROOKED RIVER","DARGO","HAWKHURST","LLOWALONG","MEERLIEU","MUNRO","PERRY BRIDGE","STOCKDALE","STRATFORD","WATERFORD"],"SA4_NAME_2016":"Latrobe - Gippsland"},{"postcode":"3862","lat":-37.39966422,"long":147.1868903,"state":"VIC","localities":["COWA"],"SA4_NAME_2016":"Latrobe - Gippsland"},{"postcode":"3862","lat":-38.04993542,"long":147.4640889,"state":"VIC","localities":["HOLLANDS LANDING"],"SA4_NAME_2016":"Latrobe - Gippsland"},{"postcode":"3862","lat":-37.4711505,"long":147.0748445,"state":"VIC","localities":["MIOWERA"],"SA4_NAME_2016":"Latrobe - Gippsland"},{"postcode":"3862","lat":-37.69919183,"long":147.1704522,"state":"VIC","localities":["MOORNAPA"],"SA4_NAME_2016":"Latrobe - Gippsland"},{"postcode":"3862","lat":-37.25564455,"long":147.0451171,"state":"VIC","localities":["WONGUNGARRA"],"SA4_NAME_2016":"Latrobe - Gippsland"},{"postcode":"3864","lat":-37.860878,"long":147.341513,"state":"VIC","localities":["FERNBANK","GLENALADALE","THE FINGERBOARD"],"SA4_NAME_2016":"Latrobe - Gippsland"},{"postcode":"3865","lat":-37.796743,"long":147.455946,"state":"VIC","localities":["LINDENOW"],"SA4_NAME_2016":"Latrobe - Gippsland"},{"postcode":"3869","lat":-38.364689,"long":146.359836,"state":"VIC","localities":["JUMBUK","YINNAR","YINNAR SOUTH"],"SA4_NAME_2016":"Latrobe - Gippsland"},{"postcode":"3870","lat":-38.437946,"long":146.319351,"state":"VIC","localities":["BOOLARRA","BOOLARRA SOUTH","BUDGEREE","BUDGEREE EAST","JOHNSTONES HILL","MIRBOO EAST"],"SA4_NAME_2016":"Latrobe - Gippsland"},{"postcode":"3870","lat":-38.47229711,"long":146.3992787,"state":"VIC","localities":["GRAND RIDGE"],"SA4_NAME_2016":"Latrobe - Gippsland"},{"postcode":"3871","lat":-38.42207,"long":146.158866,"state":"VIC","localities":["ALLAMBEE RESERVE","ALLAMBEE SOUTH","DARLIMURLA","DELBURN","DOLLAR","LIMONITE","MIRBOO","MIRBOO NORTH","TARWIN EAST"],"SA4_NAME_2016":"Latrobe - Gippsland"},{"postcode":"3871","lat":-38.40304542,"long":146.1775109,"state":"VIC","localities":["BAROMI"],"SA4_NAME_2016":"Latrobe - Gippsland"},{"postcode":"3873","lat":-38.298267,"long":146.708775,"state":"VIC","localities":["GORMANDALE"],"SA4_NAME_2016":"Latrobe - Gippsland"},{"postcode":"3874","lat":-38.514438,"long":146.836248,"state":"VIC","localities":["CARRAJUNG SOUTH","CHERRILONG","MCLOUGHLINS BEACH","WOODSIDE","WOODSIDE BEACH","WOODSIDE NORTH"],"SA4_NAME_2016":"Latrobe - Gippsland"},{"postcode":"3875","lat":-37.826032,"long":147.63201,"state":"VIC","localities":["BAIRNSDALE","BENGWORDEN","BROADLANDS","BULLUMWAAL","CALULU","CLIFTON CREEK","DEPTFORD","EAST BAIRNSDALE","ELLASWOOD","FAIRY DELL","FLAGGY CREEK","FORGE CREEK","GOON NURE","GRANITE ROCK","HILLSIDE","HOLLANDS LANDING","IGUANA CREEK","LINDENOW SOUTH","LUCKNOW","MELWOOD","MERRIJIG","MOUNT TAYLOR","NEWLANDS ARM","SARSFIELD","TABBERABBERA","WALPA","WATERHOLES","WOODGLEN","WUK WUK","WY YUNG"],"SA4_NAME_2016":"Latrobe - Gippsland"},{"postcode":"3875","lat":-37.94900419,"long":147.63201,"state":"VIC","localities":["BANKSIA PENINSULA"],"SA4_NAME_2016":"Latrobe - Gippsland"},{"postcode":"3875","lat":-37.81289131,"long":147.63201,"state":"VIC","localities":["EASTWOOD"],"SA4_NAME_2016":"Latrobe - Gippsland"},{"postcode":"3875","lat":-37.44431597,"long":147.63201,"state":"VIC","localities":["MARTHAVALE"],"SA4_NAME_2016":"Latrobe - Gippsland"},{"postcode":"3875","lat":-37.55196002,"long":147.63201,"state":"VIC","localities":["RYANS"],"SA4_NAME_2016":"Latrobe - Gippsland"},{"postcode":"3875","lat":-37.30864369,"long":147.63201,"state":"VIC","localities":["WENTWORTH"],"SA4_NAME_2016":"Latrobe - Gippsland"},{"postcode":"3878","lat":-37.898544,"long":147.680121,"state":"VIC","localities":["EAGLE POINT"],"SA4_NAME_2016":"Latrobe - Gippsland"},{"postcode":"3880","lat":-37.914728,"long":147.727389,"state":"VIC","localities":["BOOLE POOLE","OCEAN GRANGE","PAYNESVILLE","RAYMOND ISLAND"],"SA4_NAME_2016":"Latrobe - Gippsland"},{"postcode":"3882","lat":-37.812017,"long":147.764385,"state":"VIC","localities":["NICHOLSON"],"SA4_NAME_2016":"Latrobe - Gippsland"},{"postcode":"3885","lat":-37.01610136,"long":148.0696953,"state":"VIC","localities":["BRUMBY"],"SA4_NAME_2016":"Latrobe - Gippsland"},{"postcode":"3885","lat":-37.291807,"long":148.118511,"state":"VIC","localities":["BRUTHEN","BUCHAN","BUCHAN SOUTH","BUTCHERS RIDGE","GELANTIPY","MOSSIFACE","MURRINDAL","SUGGAN BUGGAN","TAMBO UPPER","TIMBARRA","W TREE","WISELEIGH","WULGULMERANG","WULGULMERANG EAST","WULGULMERANG WEST","YALMY"],"SA4_NAME_2016":"Latrobe - Gippsland"},{"postcode":"3886","lat":-37.770977,"long":148.426851,"state":"VIC","localities":["NEWMERELLA"],"SA4_NAME_2016":"Latrobe - Gippsland"},{"postcode":"3887","lat":-37.757895,"long":148.116641,"state":"VIC","localities":["LAKE TYERS","NOWA NOWA","WAIREWA"],"SA4_NAME_2016":"Latrobe - Gippsland"},{"postcode":"3888","lat":-37.39051,"long":148.660943,"state":"VIC","localities":["BENDOC","BETE BOLONG","BETE BOLONG NORTH","BONANG","BRODRIBB RIVER","CABANANDRA","CAPE CONRAN","CORRINGLE","DELEGATE RIVER EAST","DELLICKNORA","GOONGERAH","HAYDENS BOG","JARRAHMOND","LOCHEND","MARLO","MARTINS CREEK","NURRAN","OMEO VALLEY","ORBOST","SIMPSONS CREEK","TOSTAREE","TUBBUT","WAYGARA","WOMBAT CREEK"],"SA4_NAME_2016":"Latrobe - Gippsland"},{"postcode":"3888","lat":-37.05839205,"long":148.4725251,"state":"VIC","localities":["DEDDICK VALLEY"],"SA4_NAME_2016":"Latrobe - Gippsland"},{"postcode":"3888","lat":-37.10937561,"long":148.812726,"state":"VIC","localities":["DELEGATE RIVER"],"SA4_NAME_2016":"Latrobe - Gippsland"},{"postcode":"3889","lat":-37.610841,"long":148.873952,"state":"VIC","localities":["BELL BIRD CREEK","BEMM RIVER","CABBAGE TREE CREEK","CLUB TERRACE","COMBIENBAR","ERRINUNDRA","MANORINA"],"SA4_NAME_2016":"Latrobe - Gippsland"},{"postcode":"3889","lat":-37.63819699,"long":148.814786,"state":"VIC","localities":["BELLBIRD CREEK"],"SA4_NAME_2016":"Latrobe - Gippsland"},{"postcode":"3890","lat":-37.566489,"long":149.217216,"state":"VIC","localities":["BULDAH","CANN RIVER","CHANDLERS CREEK","NOORINBEE","NOORINBEE NORTH","TAMBOON","TONGHI CREEK","WEERAGUA"],"SA4_NAME_2016":"Latrobe - Gippsland"},{"postcode":"3891","lat":-37.567684,"long":149.538907,"state":"VIC","localities":["GENOA","GIPSY POINT","MARAMINGO CREEK","WALLAGARAUGH","WANGARABELL","WINGAN RIVER","WROXHAM"],"SA4_NAME_2016":"Latrobe - Gippsland"},{"postcode":"3892","lat":-37.563775,"long":149.909868,"state":"VIC","localities":["MALLACOOTA"],"SA4_NAME_2016":"Latrobe - Gippsland"},{"postcode":"3893","lat":-37.495349,"long":147.866067,"state":"VIC","localities":["DOUBLE BRIDGES","STIRLING","TAMBO CROSSING"],"SA4_NAME_2016":"Latrobe - Gippsland"},{"postcode":"3895","lat":-37.379331,"long":147.887515,"state":"VIC","localities":["DOCTORS FLAT","ENSAY","ENSAY NORTH","REEDY CREEK"],"SA4_NAME_2016":"Latrobe - Gippsland"},{"postcode":"3895","lat":-37.40606605,"long":147.916566,"state":"VIC","localities":["REEDY FLAT"],"SA4_NAME_2016":"Latrobe - Gippsland"},{"postcode":"3896","lat":-37.264671,"long":147.707962,"state":"VIC","localities":["BINDI","BROOKVILLE","NUNNIONG","SWIFTS CREEK","TONGIO"],"SA4_NAME_2016":"Latrobe - Gippsland"},{"postcode":"3898","lat":-37.066169,"long":147.464799,"state":"VIC","localities":["ANGLERS REST","BINGO","BINGO MUNJIE","BUNDARA","CASSILIS","COBUNGRA","DINNER PLAIN","GLEN VALLEY","GLEN WILLS","HINNOMUNJIE","OMEO","SHANNONVALE"],"SA4_NAME_2016":"Latrobe - Gippsland"},{"postcode":"3898","lat":-36.94711928,"long":147.6157209,"state":"VIC","localities":["OMEO VALLEY"],"SA4_NAME_2016":"Latrobe - Gippsland"},{"postcode":"3900","lat":-36.88053,"long":147.826143,"state":"VIC","localities":["BENAMBRA","COBBERAS","UPLANDS"],"SA4_NAME_2016":"Latrobe - Gippsland"},{"postcode":"3902","lat":-37.797042,"long":147.814894,"state":"VIC","localities":["BUMBERRAH","JOHNSONVILLE"],"SA4_NAME_2016":"Latrobe - Gippsland"},{"postcode":"3903","lat":-37.811303,"long":147.867533,"state":"VIC","localities":["SWAN REACH"],"SA4_NAME_2016":"Latrobe - Gippsland"},{"postcode":"3904","lat":-37.881041,"long":147.839367,"state":"VIC","localities":["METUNG"],"SA4_NAME_2016":"Latrobe - Gippsland"},{"postcode":"3909","lat":-37.821921,"long":147.970237,"state":"VIC","localities":["KALIMNA","KALIMNA WEST","LAKE BUNGA","LAKE TYERS BEACH","LAKES ENTRANCE","NUNGURNER","NYERIMILANG","TOORLOO ARM"],"SA4_NAME_2016":"Latrobe - Gippsland"},{"postcode":"3910","lat":-38.156369,"long":145.198328,"state":"VIC","localities":["LANGWARRIN"],"SA4_NAME_2016":"Mornington Peninsula"},{"postcode":"3911","lat":-38.196908,"long":145.169556,"state":"VIC","localities":["BAXTER","LANGWARRIN SOUTH"],"SA4_NAME_2016":"Mornington Peninsula"},{"postcode":"3912","lat":-38.217991,"long":145.227373,"state":"VIC","localities":["PEARCEDALE","SOMERVILLE"],"SA4_NAME_2016":"Melbourne - South East"},{"postcode":"3913","lat":-38.262273,"long":145.166426,"state":"VIC","localities":["TYABB"],"SA4_NAME_2016":"Mornington Peninsula"},{"postcode":"3915","lat":-38.305806,"long":145.136622,"state":"VIC","localities":["HASTINGS","TUERONG"],"SA4_NAME_2016":"Mornington Peninsula"},{"postcode":"3916","lat":-38.415199,"long":145.050587,"state":"VIC","localities":["MERRICKS","POINT LEO","SHOREHAM"],"SA4_NAME_2016":"Mornington Peninsula"},{"postcode":"3918","lat":-38.339871,"long":145.155546,"state":"VIC","localities":["BITTERN"],"SA4_NAME_2016":"Mornington Peninsula"},{"postcode":"3919","lat":-38.352327,"long":145.199777,"state":"VIC","localities":["CRIB POINT"],"SA4_NAME_2016":"Mornington Peninsula"},{"postcode":"3920","lat":-38.38752,"long":145.19304,"state":"VIC","localities":["FLINDERS NAVAL DEPOT","HMAS CERBERUS"],"SA4_NAME_2016":"Mornington Peninsula"},{"postcode":"3921","lat":-38.41571044,"long":145.3687444,"state":"VIC","localities":["ELIZABETH ISLAND"],"SA4_NAME_2016":"Latrobe - Gippsland"},{"postcode":"3921","lat":-38.419488,"long":145.367079,"state":"VIC","localities":["FRENCH ISLAND","TANKERTON"],"SA4_NAME_2016":"Latrobe - Gippsland"},{"postcode":"3922","lat":-38.482182,"long":145.231974,"state":"VIC","localities":["COWES","SILVERLEAVES","SMITHS BEACH","SUMMERLANDS","SUNDERLAND BAY","SUNSET STRIP","SURF BEACH","VENTNOR","WIMBLEDON HEIGHTS"],"SA4_NAME_2016":"Latrobe - Gippsland"},{"postcode":"3923","lat":-38.465552,"long":145.293632,"state":"VIC","localities":["RHYLL"],"SA4_NAME_2016":"Latrobe - Gippsland"},{"postcode":"3925","lat":-38.528213,"long":145.379683,"state":"VIC","localities":["CAPE WOOLAMAI","CHURCHILL ISLAND","NEWHAVEN","SAN REMO"],"SA4_NAME_2016":"Latrobe - Gippsland"},{"postcode":"3926","lat":-38.355231,"long":145.094502,"state":"VIC","localities":["BALNARRING","BALNARRING BEACH","MERRICKS BEACH","MERRICKS NORTH"],"SA4_NAME_2016":"Mornington Peninsula"},{"postcode":"3927","lat":-38.383368,"long":145.153269,"state":"VIC","localities":["SOMERS"],"SA4_NAME_2016":"Mornington Peninsula"},{"postcode":"3928","lat":-38.407828,"long":144.975131,"state":"VIC","localities":["MAIN RIDGE"],"SA4_NAME_2016":"Mornington Peninsula"},{"postcode":"3929","lat":-38.460965,"long":144.976673,"state":"VIC","localities":["FLINDERS"],"SA4_NAME_2016":"Mornington Peninsula"},{"postcode":"3930","lat":-38.195017,"long":145.093743,"state":"VIC","localities":["KUNYUNG","MOUNT ELIZA"],"SA4_NAME_2016":"Mornington Peninsula"},{"postcode":"3931","lat":-38.230038,"long":145.049503,"state":"VIC","localities":["MORNINGTON"],"SA4_NAME_2016":"Mornington Peninsula"},{"postcode":"3933","lat":-38.261168,"long":145.096992,"state":"VIC","localities":["MOOROODUC"],"SA4_NAME_2016":"Mornington Peninsula"},{"postcode":"3934","lat":-38.2783,"long":145.031598,"state":"VIC","localities":["MOUNT MARTHA"],"SA4_NAME_2016":"Mornington Peninsula"},{"postcode":"3936","lat":-38.326447,"long":145.007626,"state":"VIC","localities":["ARTHURS SEAT","DROMANA","SAFETY BEACH"],"SA4_NAME_2016":"Mornington Peninsula"},{"postcode":"3937","lat":-38.373694,"long":145.01994,"state":"VIC","localities":["RED HILL","RED HILL SOUTH"],"SA4_NAME_2016":"Mornington Peninsula"},{"postcode":"3938","lat":-38.354321,"long":144.931834,"state":"VIC","localities":["MCCRAE"],"SA4_NAME_2016":"Mornington Peninsula"},{"postcode":"3939","lat":-38.42776,"long":144.900413,"state":"VIC","localities":["BONEO","CAPE SCHANCK","FINGAL","ROSEBUD","ROSEBUD PLAZA"],"SA4_NAME_2016":"Mornington Peninsula"},{"postcode":"3940","lat":-38.37363083,"long":144.8754149,"state":"VIC","localities":["CAPEL SOUND"],"SA4_NAME_2016":"Mornington Peninsula"},{"postcode":"3940","lat":-38.383367,"long":144.873115,"state":"VIC","localities":["ROSEBUD WEST"],"SA4_NAME_2016":"Mornington Peninsula"},{"postcode":"3941","lat":-38.396077,"long":144.827203,"state":"VIC","localities":["RYE","ST ANDREWS BEACH","TOOTGAROOK"],"SA4_NAME_2016":"Mornington Peninsula"},{"postcode":"3942","lat":-38.367874,"long":144.768301,"state":"VIC","localities":["BLAIRGOWRIE"],"SA4_NAME_2016":"Mornington Peninsula"},{"postcode":"3943","lat":-38.345527,"long":144.739101,"state":"VIC","localities":["SORRENTO"],"SA4_NAME_2016":"Mornington Peninsula"},{"postcode":"3944","lat":-38.321871,"long":144.692708,"state":"VIC","localities":["PORTSEA"],"SA4_NAME_2016":"Mornington Peninsula"},{"postcode":"3945","lat":-38.381582,"long":145.697053,"state":"VIC","localities":["BELLVIEW","JEETHO","KROWERA","LOCH","WOODLEIGH"],"SA4_NAME_2016":"Latrobe - Gippsland"},{"postcode":"3946","lat":-38.448155,"long":145.723537,"state":"VIC","localities":["BENA"],"SA4_NAME_2016":"Latrobe - Gippsland"},{"postcode":"3950","lat":-38.435217,"long":145.812945,"state":"VIC","localities":["KARDELLA SOUTH","KORUMBURRA","KORUMBURRA SOUTH","STRZELECKI","WHITELAW"],"SA4_NAME_2016":"Latrobe - Gippsland"},{"postcode":"3951","lat":-38.47372,"long":145.798419,"state":"VIC","localities":["ARAWATA","FAIRBANK","JUMBUNNA","KARDELLA","KONGWAK","MOYARRA","OUTTRIM","RANCEBY"],"SA4_NAME_2016":"Latrobe - Gippsland"},{"postcode":"3953","lat":-38.460127,"long":145.995174,"state":"VIC","localities":["BERRYS CREEK","BOOROOL","HALLSTON","KOOROOMAN","LEONGATHA","LEONGATHA NORTH","LEONGATHA SOUTH","MARDAN","MOUNT ECCLES","MOUNT ECCLES SOUTH","NERRENA","RUBY","TRIDA","WILD DOG VALLEY"],"SA4_NAME_2016":"Latrobe - Gippsland"},{"postcode":"3953","lat":-38.40506851,"long":146.0204631,"state":"VIC","localities":["WOOREEN"],"SA4_NAME_2016":"Latrobe - Gippsland"},{"postcode":"3954","lat":-38.550379,"long":145.937973,"state":"VIC","localities":["KOONWARRA"],"SA4_NAME_2016":"Latrobe - Gippsland"},{"postcode":"3956","lat":-38.597018,"long":145.955341,"state":"VIC","localities":["DUMBALK","DUMBALK NORTH","MEENIYAN","MIRBOO SOUTH","TARWIN","VENUS BAY","WALKERVILLE","WALKERVILLE SOUTH"],"SA4_NAME_2016":"Latrobe - Gippsland"},{"postcode":"3956","lat":-38.66471384,"long":145.927163,"state":"VIC","localities":["MIDDLE TARWIN"],"SA4_NAME_2016":"Latrobe - Gippsland"},{"postcode":"3956","lat":-38.77338675,"long":145.9119412,"state":"VIC","localities":["TARWIN LOWER"],"SA4_NAME_2016":"Latrobe - Gippsland"},{"postcode":"3956","lat":-38.84261489,"long":145.9993437,"state":"VIC","localities":["WALKERVILLE NORTH"],"SA4_NAME_2016":"Latrobe - Gippsland"},{"postcode":"3957","lat":-38.589302,"long":146.126718,"state":"VIC","localities":["GRASSY SPUR","STONY CREEK"],"SA4_NAME_2016":"Latrobe - Gippsland"},{"postcode":"3958","lat":-38.673841,"long":145.987059,"state":"VIC","localities":["BUFFALO","BUFFALO CREEK"],"SA4_NAME_2016":"Latrobe - Gippsland"},{"postcode":"3959","lat":-38.734636,"long":146.066529,"state":"VIC","localities":["FISH CREEK","HODDLE","SANDY POINT","WARATAH BAY","WARATAH NORTH"],"SA4_NAME_2016":"Latrobe - Gippsland"},{"postcode":"3960","lat":-39.140761,"long":146.360412,"state":"VIC","localities":["BENNISON","BOOLARONG","FOSTER","FOSTER NORTH","GUNYAH","MOUNT BEST","RUMBUG","SHALLOW INLET","TIDAL RIVER","TURTONS CREEK","WILSONS PROMONTORY","WONGA","WOORARRA WEST","YANAKIE"],"SA4_NAME_2016":"Latrobe - Gippsland"},{"postcode":"3962","lat":-38.60357,"long":146.359804,"state":"VIC","localities":["AGNES","CHRISTIES","GRAND RIDGE","TOORA","TOORA NORTH","WONYIP","WOORARRA","WOORARRA EAST"],"SA4_NAME_2016":"Latrobe - Gippsland"},{"postcode":"3964","lat":-38.685115,"long":146.278804,"state":"VIC","localities":["PORT FRANKLIN"],"SA4_NAME_2016":"Latrobe - Gippsland"},{"postcode":"3965","lat":-38.693437,"long":146.472132,"state":"VIC","localities":["PORT WELSHPOOL"],"SA4_NAME_2016":"Latrobe - Gippsland"},{"postcode":"3966","lat":-38.630568,"long":146.436583,"state":"VIC","localities":["BINGINWARRI","HAZEL PARK","WELSHPOOL"],"SA4_NAME_2016":"Latrobe - Gippsland"},{"postcode":"3967","lat":-38.647562,"long":146.507929,"state":"VIC","localities":["HEDLEY"],"SA4_NAME_2016":"Latrobe - Gippsland"},{"postcode":"3971","lat":-38.631942,"long":146.815723,"state":"VIC","localities":["ALBERTON","ALBERTON WEST","BALOOK","BAROMI","CALROSSIE","DEVON NORTH","GELLIONDALE","HIAWATHA","HUNTERSTON","JACK RIVER","LANGSBOROUGH","MACKS CREEK","MADALYA","MANNS BEACH","PORT ALBERT","ROBERTSONS BEACH","STACEYS BRIDGE","TARRA VALLEY","TARRAVILLE","WON WRON","YARRAM"],"SA4_NAME_2016":"Latrobe - Gippsland"},{"postcode":"3971","lat":-38.74476124,"long":146.5237607,"state":"VIC","localities":["SNAKE ISLAND"],"SA4_NAME_2016":"Latrobe - Gippsland"},{"postcode":"3975","lat":-38.05354,"long":145.231114,"state":"VIC","localities":["LYNBROOK","LYNDHURST"],"SA4_NAME_2016":"Melbourne - South East"},{"postcode":"3976","lat":-38.043995,"long":145.264296,"state":"VIC","localities":["HAMPTON PARK"],"SA4_NAME_2016":"Melbourne - South East"},{"postcode":"3977","lat":-38.1466398,"long":145.2695101,"state":"VIC","localities":["BOTANIC RIDGE"],"SA4_NAME_2016":"Melbourne - South East"},{"postcode":"3977","lat":-38.135253,"long":145.268888,"state":"VIC","localities":["CANNONS CREEK","CRANBOURNE","CRANBOURNE EAST","CRANBOURNE NORTH","CRANBOURNE SOUTH","CRANBOURNE WEST","DEVON MEADOWS","FIVE WAYS","JUNCTION VILLAGE","SKYE"],"SA4_NAME_2016":"Melbourne - South East"},{"postcode":"3977","lat":-38.08209438,"long":145.2086871,"state":"VIC","localities":["SANDHURST"],"SA4_NAME_2016":"Mornington Peninsula"},{"postcode":"3978","lat":-38.135009,"long":145.384606,"state":"VIC","localities":["CARDINIA","CLYDE","CLYDE NORTH"],"SA4_NAME_2016":"Melbourne - South East"},{"postcode":"3979","lat":-38.44818,"long":145.591284,"state":"VIC","localities":["ALMURTA","GLEN ALVIE","KERNOT","KORRINE"],"SA4_NAME_2016":"Latrobe - Gippsland"},{"postcode":"3980","lat":-38.204448,"long":145.356937,"state":"VIC","localities":["BLIND BIGHT","TOORADIN","WARNEET"],"SA4_NAME_2016":"Melbourne - South East"},{"postcode":"3981","lat":-38.207298,"long":145.575,"state":"VIC","localities":["BAYLES","CATANI","DALMORE","HEATH HILL","KOO WEE RUP","KOO WEE RUP NORTH","YANNATHAN"],"SA4_NAME_2016":"Melbourne - South East"},{"postcode":"3984","lat":-38.312647,"long":145.563979,"state":"VIC","localities":["ADAMS ESTATE","CALDERMEADE","CORINELLA","CORONET BAY","GRANTVILLE","JAM JERRUP","LANG LANG","LANG LANG EAST","MONOMEITH","PIONEER BAY","QUEENSFERRY","TENBY POINT","THE GURDIES"],"SA4_NAME_2016":"Latrobe - Gippsland"},{"postcode":"3987","lat":-38.309048,"long":145.689142,"state":"VIC","localities":["NYORA"],"SA4_NAME_2016":"Latrobe - Gippsland"},{"postcode":"3988","lat":-38.313447,"long":145.811863,"state":"VIC","localities":["MOUNTAIN VIEW","POOWONG","POOWONG EAST","POOWONG NORTH"],"SA4_NAME_2016":"Latrobe - Gippsland"},{"postcode":"3989","lat":49.1805,"long":-2.10323,"state":"VIC","localities":["ST HELIER"],"SA4_NAME_2016":""},{"postcode":"3990","lat":-38.455399,"long":145.501279,"state":"VIC","localities":["GLEN FORBES"],"SA4_NAME_2016":"Latrobe - Gippsland"},{"postcode":"3991","lat":-38.483041,"long":145.466781,"state":"VIC","localities":["BASS"],"SA4_NAME_2016":"Latrobe - Gippsland"},{"postcode":"3992","lat":-38.569135,"long":145.534315,"state":"VIC","localities":["BLACKWOOD FOREST","DALYSTON","RYANSTON","WEST CREEK"],"SA4_NAME_2016":"Latrobe - Gippsland"},{"postcode":"3995","lat":-38.578071,"long":145.630713,"state":"VIC","localities":["ANDERSON","ARCHIES CREEK","CAPE PATERSON","HARMERS HAVEN","HICKSBOROUGH","KILCUNDA","LANCE CREEK","NORTH WONTHAGGI","POWLETT RIVER","SOUTH DUDLEY","ST CLAIR","WATTLE BANK","WONTHAGGI","WOOLAMAI"],"SA4_NAME_2016":"Latrobe - Gippsland"},{"postcode":"3996","lat":-38.629561,"long":145.745609,"state":"VIC","localities":["INVERLOCH","POUND CREEK"],"SA4_NAME_2016":"Latrobe - Gippsland"}]